{"type":"FeatureCollection","features":[{"type":"Feature","properties":{"tourism":"wilderness_hut","operator":"Deutscher Alpenverein - Sektion Geltendorf","contact:website":"https://dav-geltendorf.de","capacity":"6","description":"Winterraum Neue Magdeburger Hütte","osm":"way/87312654"},"geometry":{"type":"Point","coordinates":[11.29815,47.28857]}},{"type":"Feature","properties":{"name":"Adolf-Pichler-Hütte","tourism":"alpine_hut","amenity":"restaurant","ele":"1977","phone":"+43 720 702724","wikipedia":"de:Adolf-Pichler-Hütte","osm":"node/458799908"},"geometry":{"type":"Point","coordinates":[11.26794,47.16671]}},{"type":"Feature","properties":{"name":"Aldranser Alm","amenity":"restaurant","ele":"1511","opening_hours":"Mo-We, Sa 10:00-19:00; Su, Fr 10:00-18:00","website":"https://www.aldranseralm.at/","phone":"+43 681 20499402","osm":"node/434142044"},"geometry":{"type":"Point","coordinates":[11.48779,47.23059]}},{"type":"Feature","properties":{"name":"Almind-Alm","tourism":"alpine_hut","ele":"1755","website":"https://www.innsbruck.info/en/food-and-drink/i/almind-alm.html","capacity":"9","osm":"node/410575233"},"geometry":{"type":"Point","coordinates":[11.20233,47.16843]}},{"type":"Feature","properties":{"name":"Alpein Alm","amenity":"restaurant","osm":"way/125798414"},"geometry":{"type":"Point","coordinates":[11.17649,47.08948]}},{"type":"Feature","properties":{"name":"Alpengasthaus Stockerhof","amenity":"restaurant","ele":"1196","opening_hours":"Mo-Su 11:00-17:00","website":"https://www.almenrausch.at/unterkuenfte/suchergebnisse-unterkuenfte/unterkunftdetails/housing/alpengasthaus-stockerhof-stubaital27.html","phone":"+43 664 5328806","osm":"node/1666754773"},"geometry":{"type":"Point","coordinates":[11.37341,47.1948]}},{"type":"Feature","properties":{"name":"Alpengasthof Kasern","amenity":"restaurant","operator":"Gabriela Eller","opening_hours":"\"Der Gasthof ist vom 10. Mai bis 11. Oktober 2026 für sie geöffnet.\n\n         Unsere Öffungszeiten:\nvon 10.00 Uhr bis 19.00 Uhr\nWarme Küche: von 11.30 Uhr - 18.00 Uhr\n       (Änderungen vorbehalten)\"","website":"https://www.alpengasthof-kasern.at/","phone":"+43 664 9457226","osm":"way/81939902"},"geometry":{"type":"Point","coordinates":[11.60948,47.10678]}},{"type":"Feature","properties":{"name":"Alpengasthof Lüsens","tourism":"hotel","amenity":"restaurant","website":"https://www.luesens.at/","osm":"node/495477878"},"geometry":{"type":"Point","coordinates":[11.13768,47.1305]}},{"type":"Feature","properties":{"name":"Alpengasthof Pension Praxmar","tourism":"hotel","amenity":"restaurant","opening_hours":"Mo-Fr 11:30-15:00, 17:30-20:00; Sa-Su 11:30-20:00, PH 11:30-20:00","website":"https://www.praxmar.at/","osm":"node/7058672187"},"geometry":{"type":"Point","coordinates":[11.13341,47.15004]}},{"type":"Feature","properties":{"name":"Alpengasthof Ruetz","amenity":"restaurant","opening_hours":"Mo-Fr 11:00-14:00,17:00-20:00; Sa-Su,PH 11:00-20:00","website":"https://m.facebook.com/gasthofruetz/","phone":"+43 5236 510","osm":"node/2864099226"},"geometry":{"type":"Point","coordinates":[11.09928,47.20212]}},{"type":"Feature","properties":{"name":"Alpengasthof Sonnenstein","tourism":"alpine_hut","amenity":"restaurant","ele":"1400","operator":"Fam. Gleinser","opening_hours":"Mo-Su 10:00-18:00","website":"https://www.alpengasthof-sonnenstein.at","phone":"+43 664 12 645","description":"Genuss & Tiroler Herzlichkeit\nAuf unserer sonnigen Terrasse oder in den gemütlichen Stuben könnt ihr hausgemachte Tiroler Spezialitäten und zünftige Almjause genießen – alles frisch zubereitet und mit einem hervorragenden Preis-Leistungs-Verhältnis.","osm":"node/1641317945"},"geometry":{"type":"Point","coordinates":[11.37942,47.14549]}},{"type":"Feature","properties":{"name":"Alpengasthof Walderbrücke","amenity":"restaurant","opening_hours":"Fr-Tu 10:00-22:00","phone":"+43 5223 57916","osm":"node/1653272091"},"geometry":{"type":"Point","coordinates":[11.52155,47.30778]}},{"type":"Feature","properties":{"name":"Alpenland","amenity":"restaurant","osm":"node/4842711947"},"geometry":{"type":"Point","coordinates":[11.59455,47.29143]}},{"type":"Feature","properties":{"name":"Alpenlove Brasserie & Bar","amenity":"restaurant","opening_hours":"08:00-24:00","osm":"node/13428817745"},"geometry":{"type":"Point","coordinates":[11.18677,47.32849]}},{"type":"Feature","properties":{"name":"Alpensöhnehütte","amenity":"cafe","ele":"1345","opening_hours":"Su; PH; Dec-Apr off","contact:website":"www.alpensoehne-hall.info","osm":"node/524242116"},"geometry":{"type":"Point","coordinates":[11.51607,47.32532]}},{"type":"Feature","properties":{"name":"Alpl","tourism":"wilderness_hut","ele":"1844","operator":"Bergwacht Inzing","access":"private","osm":"way/165024554"},"geometry":{"type":"Point","coordinates":[11.14689,47.24245]}},{"type":"Feature","properties":{"name":"Alplhaus","tourism":"wilderness_hut","ele":"1506","operator":"DAV Sektion München und Oberland","website":"https://www.alpenverein-muenchen-oberland.de/alplhaus","description":"DAV-Selbstversorgerhütte Alplhaus","wikipedia":"de:Alplhaus","osm":"way/188128101"},"geometry":{"type":"Point","coordinates":[11.01843,47.34156]}},{"type":"Feature","properties":{"name":"Andreasstüberl","amenity":"pub","opening_hours":"Mo-Sa 09:00-01:00; PH off","website":"https://m.facebook.com/andreasstueberl","phone":"+43512570648","osm":"node/1251739536"},"geometry":{"type":"Point","coordinates":[11.4065,47.27247]}},{"type":"Feature","properties":{"name":"Arzler Alm","amenity":"restaurant","ele":"1067","opening_hours":"Tu-Su 09:00-18:00","website":"https://www.arzleralm.at/","osm":"way/48860108"},"geometry":{"type":"Point","coordinates":[11.40307,47.29654]}},{"type":"Feature","properties":{"name":"Arztalalm","amenity":"restaurant","ele":"1900","osm":"way/152618205"},"geometry":{"type":"Point","coordinates":[11.50371,47.17679]}},{"type":"Feature","properties":{"name":"Auffangalm","amenity":"restaurant","ele":"1620","website":"https://www.stubai-neustift.com/auffangalm/","phone":"+43 670 2011340","osm":"node/1640844437"},"geometry":{"type":"Point","coordinates":[11.2656,47.10825]}},{"type":"Feature","properties":{"name":"Autenalm","amenity":"restaurant","ele":"1665","opening_hours":"Mo-Su 10:00-22:00+","website":"https://www.autenalm.at/","osm":"way/89165931"},"geometry":{"type":"Point","coordinates":[11.30058,47.09326]}},{"type":"Feature","properties":{"name":"Berghütte Arztal","tourism":"wilderness_hut","ele":"1890","operator":"ESV Innsbruck - Sektion Ski","contact:website":"http://www.esvi-ski.at/","capacity":"23","access":"private","osm":"way/154683068"},"geometry":{"type":"Point","coordinates":[11.50199,47.17569]}},{"type":"Feature","properties":{"name":"Bergrestaurant & Panorama Bar am Gschwandtkopf","amenity":"restaurant","website":"https://www.bergrestaurant-seefeld.at/","phone":"+436644637447","osm":"node/12239502072"},"geometry":{"type":"Point","coordinates":[11.18008,47.31398]}},{"type":"Feature","properties":{"name":"Bettelwurfhütte","tourism":"alpine_hut","ele":"2077","operator":"Österreichischer Alpenverein, Sektion Innsbruck","website":"https://www.alpenverein.at/bettelwurfhuette/","phone":"+43 664 1722468","wikipedia":"de:Bettelwurf Hütte","osm":"way/148049142"},"geometry":{"type":"Point","coordinates":[11.50752,47.33861]}},{"type":"Feature","properties":{"name":"Birgitzer Alm","amenity":"restaurant","ele":"1808","website":"https://www.birgitzeralm.at/","phone":"+43 650 280 89 90","wikipedia":"de:Birgitzer Alm","osm":"node/767071230"},"geometry":{"type":"Point","coordinates":[11.30793,47.20408]}},{"type":"Feature","properties":{"name":"Birgitzköpflhaus","amenity":"restaurant","ele":"2035","opening_hours":"We-Su,PH 08:00-16:00","wikipedia":"de:Birgitzköpflhütte","osm":"node/2421666145"},"geometry":{"type":"Point","coordinates":[11.31618,47.19507]}},{"type":"Feature","properties":{"name":"Birklstüberl","amenity":"restaurant","operator":"Familie Jenewein","website":"https://birklstueberl.at/","phone":"+43 5212 2322","capacity":"70","osm":"way/1224954828"},"geometry":{"type":"Point","coordinates":[11.19102,47.33512]}},{"type":"Feature","properties":{"name":"Blaser Hütte","amenity":"restaurant","website":"https://www.blaserhuette.at/","phone":"+436645718200","osm":"way/152187260"},"geometry":{"type":"Point","coordinates":[11.40735,47.10366]}},{"type":"Feature","properties":{"name":"Blockhaus","amenity":"restaurant","opening_hours":"Tu-Su 11:00-23:00","contact:website":"http://www.restaurant-blockhaus.at","contact:phone":"+43 512 302440","osm":"node/5798414486"},"geometry":{"type":"Point","coordinates":[11.3062,47.25485]}},{"type":"Feature","properties":{"name":"Bodenalm","amenity":"restaurant","operator":"Anna Schmid","opening_hours":"Tu-Su,PH 10:00-17:00","website":"https://www.bodenalm-seefeld.tirol/","phone":"+4369919881303","osm":"way/190274135"},"geometry":{"type":"Point","coordinates":[11.21232,47.34965]}},{"type":"Feature","properties":{"name":"Bodenalm","amenity":"biergarten","description":"Biergarten bzw. Außenfläche der Bodenalm.","osm":"way/1303956123"},"geometry":{"type":"Point","coordinates":[11.21227,47.34973]}},{"type":"Feature","properties":{"name":"Bodenstein Alm","amenity":"restaurant","ele":"1661","opening_hours":"We-Su 10:00-19:00; PH open","website":"https://www.innsbruck.info/sehen-und-erleben/essen-und-trinken/restaurantsuche/detail/infrastruktur/bodenstein-alm-innsbruck.html","phone":"+43 650 98 50 061","osm":"way/109885181"},"geometry":{"type":"Point","coordinates":[11.38776,47.30328]}},{"type":"Feature","properties":{"name":"Brandstatt Alm","amenity":"restaurant","ele":"1810","opening_hours":"Mo,Th-Su, PH 09:00-17:00","website":"https://www.brandstatt-alm.at","phone":"+436508112304","osm":"node/1666028438"},"geometry":{"type":"Point","coordinates":[11.25826,47.10734]}},{"type":"Feature","properties":{"name":"Branger Alm","amenity":"restaurant","opening_hours":"Mo-Su, PH 11:00+","website":"https://www.brangeralm.at/","phone":"+43 5232 2209","osm":"node/1033677779"},"geometry":{"type":"Point","coordinates":[11.25658,47.26038]}},{"type":"Feature","properties":{"name":"Brennstüberl","amenity":"restaurant","opening_hours":"Tu-Sa 15:00-24:00; PH off","website":"http://www.brennstueberl.at","phone":"+43 5223 78145","osm":"node/324715612"},"geometry":{"type":"Point","coordinates":[11.5115,47.25261]}},{"type":"Feature","properties":{"name":"Brugger Alm","amenity":"restaurant","ele":"1351","osm":"way/133508984"},"geometry":{"type":"Point","coordinates":[11.33167,47.1569]}},{"type":"Feature","properties":{"name":"Bärenhütte","amenity":"restaurant","ele":"1813","website":"https://www.freisinger-baerenhuette.at/","osm":"node/441310434"},"geometry":{"type":"Point","coordinates":[11.29204,47.19603]}},{"type":"Feature","properties":{"name":"Bürgerstuben","amenity":"restaurant","opening_hours":"We-Su 18:00-02:00","website":"http://www.buergerstuben.at/","phone":"+43 5234 68357","osm":"node/322677778"},"geometry":{"type":"Point","coordinates":[11.27834,47.23048]}},{"type":"Feature","properties":{"name":"Cafe Magistrat Rathaus Galerien","amenity":"cafe","opening_hours":"Mo-Th 07:30-00:00; Fr 07:30-02:00; Sa 09:00-02:00; Su 10:00-22:00","website":"http://www.cafe-magistrat.at","phone":"+43 512 552222","osm":"node/1418196584"},"geometry":{"type":"Point","coordinates":[11.39275,47.26536]}},{"type":"Feature","properties":{"name":"Cafe im Zeindlhaus","amenity":"cafe","osm":"node/5032466690"},"geometry":{"type":"Point","coordinates":[11.50847,47.28276]}},{"type":"Feature","properties":{"name":"Das 10er Haus","amenity":"cafe","opening_hours":"Su, PH 09:00-18:00; We-Sa 10:00-22:00","phone":"+43 676 6220445","osm":"node/6067582581"},"geometry":{"type":"Point","coordinates":[11.1948,47.27395]}},{"type":"Feature","properties":{"name":"Das Hausberg","amenity":"restaurant","website":"http://www.patscherkofel-gastro.at/","osm":"node/5412787544"},"geometry":{"type":"Point","coordinates":[11.42594,47.22181]}},{"type":"Feature","properties":{"name":"Dortmunder Hütte","tourism":"alpine_hut","amenity":"restaurant","ele":"1950","operator":"DAV Sektion Dortmund","website":"https://www.dortmunderhuette.at","phone":"+43 52395202","wikipedia":"de:Dortmunder Hütte","osm":"way/95812262"},"geometry":{"type":"Point","coordinates":[11.00821,47.21177]}},{"type":"Feature","properties":{"name":"Dreiseenhütte","amenity":"restaurant","opening_hours":"Mo-Su 09:00-17:00","osm":"node/253336156"},"geometry":{"type":"Point","coordinates":[11.03371,47.20526]}},{"type":"Feature","properties":{"name":"Elferhütte","tourism":"alpine_hut","amenity":"restaurant","ele":"2004","operator":"Fritz Haas","website":"http://www.elferhuette.at/","phone":"+43 5226 2818","wikipedia":"de:Elferhütte","osm":"way/89165928"},"geometry":{"type":"Point","coordinates":[11.31951,47.09507]}},{"type":"Feature","properties":{"name":"Enzianhütte","amenity":"restaurant","ele":"1041","opening_hours":"Tu-Su,PH 09:00-17:00","website":"https://www.enzianhütte-rum.at/","phone":"+43 512 206053","beds":"yes","osm":"way/183618031"},"geometry":{"type":"Point","coordinates":[11.41756,47.29801]}},{"type":"Feature","properties":{"name":"Enzianhütte","amenity":"restaurant","opening_hours":"Tu-Su 10:00-16:00","website":"https://www.enzianhuettereith.at/","phone":"+43 664 4531886","osm":"way/938104675"},"geometry":{"type":"Point","coordinates":[11.19386,47.30724]}},{"type":"Feature","properties":{"name":"Eppzirler Alm","tourism":"alpine_hut","amenity":"restaurant","ele":"1455","website":"https://www.eppzirleralm.at/","phone":"+436649379033","wikipedia":"de:Eppzirler Alm","osm":"node/280889033"},"geometry":{"type":"Point","coordinates":[11.26724,47.33105]}},{"type":"Feature","properties":{"name":"Flauringer Alm","tourism":"alpine_hut","amenity":"restaurant","ele":"1614","osm":"way/165823643"},"geometry":{"type":"Point","coordinates":[11.10695,47.2461]}},{"type":"Feature","properties":{"name":"Franz-Senn-Hütte","tourism":"alpine_hut","ele":"2147","operator":"Sektion Innsbruck","website":"https://www.franzsennhuette.at","phone":"+4352262218","wikipedia":"de:Franz-Senn-Hütte","osm":"way/84547654"},"geometry":{"type":"Point","coordinates":[11.1687,47.08513]}},{"type":"Feature","properties":{"name":"Fronebenalm","amenity":"restaurant","ele":"1306","wikipedia":"de:Froneben","osm":"node/321803910"},"geometry":{"type":"Point","coordinates":[11.33597,47.15788]}},{"type":"Feature","properties":{"name":"Furgges Alm","amenity":"restaurant","ele":"1938","opening_hours":"\"Mitte Juni bis Mitte September\"","phone":"+43 664 4703023","osm":"node/410315437"},"geometry":{"type":"Point","coordinates":[11.22131,47.16405]}},{"type":"Feature","properties":{"name":"GH Sonnenalm","amenity":"restaurant","osm":"node/8196840833"},"geometry":{"type":"Point","coordinates":[11.09005,47.20754]}},{"type":"Feature","properties":{"name":"Galtalm","tourism":"alpine_hut","amenity":"restaurant","ele":"1680","website":"https://www.galtalm.at/","wikipedia":"de:Galtalm (Stubaital)","osm":"way/133666337"},"geometry":{"type":"Point","coordinates":[11.32158,47.14805]}},{"type":"Feature","properties":{"name":"Gasthaus Bergheim","amenity":"restaurant","osm":"node/1261399482"},"geometry":{"type":"Point","coordinates":[11.22728,47.23217]}},{"type":"Feature","properties":{"name":"Gasthaus Bierstindl","amenity":"restaurant","operator":"Burkhard Pederiva","opening_hours":"We-Su 11:00-23:00","website":"https://www.bierstindl.eu","phone":"+43 512 580000","wikipedia":"de:Kulturgasthaus Bierstindl","osm":"node/2854661143"},"geometry":{"type":"Point","coordinates":[11.40112,47.25185]}},{"type":"Feature","properties":{"name":"Gasthaus Glungezer","amenity":"restaurant","osm":"way/139744114"},"geometry":{"type":"Point","coordinates":[11.44692,47.23621]}},{"type":"Feature","properties":{"name":"Gasthaus Goldenes Dachl","amenity":"restaurant","opening_hours":"11:00-23:00","website":"https://www.goldenesdachl.com","phone":"+43 512 589370","osm":"node/614236403"},"geometry":{"type":"Point","coordinates":[11.3936,47.26865]}},{"type":"Feature","properties":{"name":"Gasthaus Gramart","amenity":"restaurant","osm":"way/98042816"},"geometry":{"type":"Point","coordinates":[11.37964,47.28335]}},{"type":"Feature","properties":{"name":"Gasthaus Haneburger","amenity":"restaurant","website":"https://www.hall-wattens.at/de/wattenberg/unterkuenfte/details/gasthof/gasthof-hanneburger.html","osm":"node/1773321880"},"geometry":{"type":"Point","coordinates":[11.61646,47.22363]}},{"type":"Feature","properties":{"name":"Gasthaus Heiligwasser","amenity":"restaurant","opening_hours":"Tu-Su 10:00-21:00","website":"https://heiligwasser.at/","phone":"+43 512 377171","description":"bei Schlechtwetter nur bis 18.00 geöffnet","osm":"way/129585263"},"geometry":{"type":"Point","coordinates":[11.43078,47.21706]}},{"type":"Feature","properties":{"name":"Gasthaus Post","amenity":"restaurant","osm":"way/191083908"},"geometry":{"type":"Point","coordinates":[10.98441,47.30479]}},{"type":"Feature","properties":{"name":"Gasthaus Schießstand","amenity":"restaurant","opening_hours":"We-Fr 14:00-22:00; Sa 11:00-22:00; Su 11:00-20:00","osm":"way/117881913"},"geometry":{"type":"Point","coordinates":[11.37545,47.27113]}},{"type":"Feature","properties":{"name":"Gasthaus Tiroler Weinstube","tourism":"hotel","amenity":"restaurant","operator":"Familie Seyrling","opening_hours":"Tu-Su,PH 10:00-15:00,17:00-24:00","website":"https://www.tirolerweinstube.at/","phone":"+43 5212 2208","osm":"node/1460900824"},"geometry":{"type":"Point","coordinates":[11.18711,47.32895]}},{"type":"Feature","properties":{"name":"Gasthaus Zegger","amenity":"restaurant","opening_hours":"11:00-20:00; Tu off; We 15:00-20:00","osm":"node/2971365469"},"geometry":{"type":"Point","coordinates":[11.32641,47.12162]}},{"type":"Feature","properties":{"name":"Gasthof Bretze","amenity":"restaurant","website":"https://www.bretze.xyz/","osm":"way/109788037"},"geometry":{"type":"Point","coordinates":[11.50878,47.28067]}},{"type":"Feature","properties":{"name":"Gasthof Brücke","amenity":"restaurant","osm":"node/1651633333"},"geometry":{"type":"Point","coordinates":[11.45312,47.13666]}},{"type":"Feature","properties":{"name":"Gasthof Eppensteiner","amenity":"restaurant","website":"https://www.gasthof-eppensteiner.com/","phone":"+43 5278 6423","osm":"node/7787612457"},"geometry":{"type":"Point","coordinates":[11.53177,47.132]}},{"type":"Feature","properties":{"name":"Gasthof Gaistal","amenity":"restaurant","website":"https://www.gasthofgaistal.at/","phone":"+43 5214 20343","osm":"way/168640057"},"geometry":{"type":"Point","coordinates":[11.12411,47.3598]}},{"type":"Feature","properties":{"name":"Gasthof Goldener Adler","amenity":"restaurant","operator":"Familie Praxmarer","opening_hours":"Tu-Su 08:00-15:00; Sa 08:00-12:00","website":"https://www.goldeneradler-flaurling.at/","phone":"+43 5262 62767","osm":"node/1733441466"},"geometry":{"type":"Point","coordinates":[11.12491,47.29057]}},{"type":"Feature","properties":{"name":"Gasthof Gschleirs","amenity":"restaurant","osm":"node/1607527768"},"geometry":{"type":"Point","coordinates":[11.43741,47.1637]}},{"type":"Feature","properties":{"name":"Gasthof Handl","amenity":"restaurant","osm":"node/1586963499"},"geometry":{"type":"Point","coordinates":[11.40814,47.18519]}},{"type":"Feature","properties":{"name":"Gasthof Hirschen","amenity":"restaurant","operator":"Familie Scholl","opening_hours":"We-Su 10:00-22:00","website":"https://www.gasthof-hirschen.com","phone":"+43 5212 3155","osm":"node/507695985"},"geometry":{"type":"Point","coordinates":[11.21919,47.29016]}},{"type":"Feature","properties":{"name":"Gasthof Jenewein","amenity":"restaurant","operator":"Angelika & Stefan Schmid","opening_hours":"Mo-Sa 17:30-20:30; Su 11:30-13:30, 17:30-20:30","website":"https://www.gasthofjenewein.at/","phone":"+43 5225 62291","osm":"node/1329929919"},"geometry":{"type":"Point","coordinates":[11.34619,47.15309]}},{"type":"Feature","properties":{"name":"Gasthof Lamm","amenity":"restaurant","operator":"Veronika und Martin Henökl","opening_hours":"Mo 00:00-01:00; Tu 09:00-24:00; We-Su 00:00-01:00,09:00-24:00","website":"https://www.gasthoflamm.at/","phone":"+43 5273 6221","osm":"node/1662758250"},"geometry":{"type":"Point","coordinates":[11.4528,47.13073]}},{"type":"Feature","properties":{"name":"Gasthof Lehen","amenity":"restaurant","operator":"Fam. Thomas Hellrig","opening_hours":"Tu-Su 11:30-14:00, 18:00-21:00","website":"https://www.gasthof-lehen.at/startseite/","phone":"+43 5262 62314","osm":"node/524042304"},"geometry":{"type":"Point","coordinates":[11.05927,47.32332]}},{"type":"Feature","properties":{"name":"Gasthof Leiter´s Hoamatl","amenity":"restaurant","website":"https://gasthof-hoamatl-niederthai.at/","phone":"+43 5255 50258","osm":"node/4749693327"},"geometry":{"type":"Point","coordinates":[10.95358,47.12796]}},{"type":"Feature","properties":{"name":"Gasthof Locherboden","amenity":"restaurant","osm":"way/53246766"},"geometry":{"type":"Point","coordinates":[10.96012,47.28385]}},{"type":"Feature","properties":{"name":"Gasthof Mühle","tourism":"guest_house","amenity":"restaurant","opening_hours":"Mo,Th 17:00-24:00; Fr-Su 11:30-24:00","website":"https://gasthofmuehle.at/","phone":"+43 5224 52510","osm":"node/640444776"},"geometry":{"type":"Point","coordinates":[11.61133,47.2641]}},{"type":"Feature","properties":{"name":"Gasthof Neuleutasch","amenity":"restaurant","operator":"Karl-Heinz Juen","opening_hours":"Tu closed","website":"https://gasthof-neuleutasch.eatbu.com/","phone":"+43 5214 6834","capacity":"60","osm":"node/648815761"},"geometry":{"type":"Point","coordinates":[11.18232,47.35267]}},{"type":"Feature","properties":{"name":"Gasthof Neurauter","amenity":"restaurant","opening_hours":"Mo, Tu, Th-Sa 09:00-23:00; Su 09:00-18:00","website":"https://www.gasthof-neurauter.at","phone":"+43 5238 88254","osm":"node/1769545210"},"geometry":{"type":"Point","coordinates":[11.17021,47.28218]}},{"type":"Feature","properties":{"name":"Gasthof Schatz","tourism":"guest_house","amenity":"restaurant","website":"http://www.gasthof-schatz.at/","osm":"way/256175206"},"geometry":{"type":"Point","coordinates":[11.4876,47.27732]}},{"type":"Feature","properties":{"name":"Gasthof Scherer","amenity":"restaurant","opening_hours":"Tu-Su 09:30-22:00","osm":"way/120446974"},"geometry":{"type":"Point","coordinates":[11.37461,47.23419]}},{"type":"Feature","properties":{"name":"Gasthof Schupfen","amenity":"restaurant","wikipedia":"de:Gasthof Schupfen","osm":"node/2431312530"},"geometry":{"type":"Point","coordinates":[11.38725,47.21462]}},{"type":"Feature","properties":{"name":"Gasthof Schwarzer Adler","amenity":"restaurant","website":"https://tirol-exklusiv.at/","osm":"node/1782538452"},"geometry":{"type":"Point","coordinates":[11.08205,47.29931]}},{"type":"Feature","properties":{"name":"Gasthof Sennalm","amenity":"restaurant","osm":"node/8168509170"},"geometry":{"type":"Point","coordinates":[11.33241,47.21225]}},{"type":"Feature","properties":{"name":"Gasthof Stauder","amenity":"restaurant","opening_hours":"Mo, Fr, Sa 17:00-22:00; Su 11:00-18:00","phone":"+43512548989","osm":"node/1952455436"},"geometry":{"type":"Point","coordinates":[11.37754,47.22782]}},{"type":"Feature","properties":{"name":"Gasthof Stiegl","amenity":"restaurant","website":"https://www.facebook.com/pages/Gasthaus-Stiegl/180770631966808","osm":"node/4329169801"},"geometry":{"type":"Point","coordinates":[10.98483,47.29445]}},{"type":"Feature","properties":{"name":"Gasthof Stuibenfall","amenity":"restaurant","website":"http://www.stuibenfall.at/","osm":"node/1843133771"},"geometry":{"type":"Point","coordinates":[10.95336,47.12653]}},{"type":"Feature","properties":{"name":"Gasthof Säge","amenity":"restaurant","osm":"node/640444551"},"geometry":{"type":"Point","coordinates":[11.61526,47.25493]}},{"type":"Feature","properties":{"name":"Gasthof Tiefenthaler","amenity":"restaurant","osm":"way/114098112"},"geometry":{"type":"Point","coordinates":[11.53265,47.28815]}},{"type":"Feature","properties":{"name":"Gasthof Turmbichl","amenity":"restaurant","osm":"way/110836357"},"geometry":{"type":"Point","coordinates":[11.40296,47.23518]}},{"type":"Feature","properties":{"name":"Gasthof Vergör","amenity":"restaurant","ele":"1300","opening_hours":"Mo-Su 09:00-18:00","description":"1300m","osm":"node/1645148339"},"geometry":{"type":"Point","coordinates":[11.32807,47.14095]}},{"type":"Feature","properties":{"name":"Gasthof Waldfrieden","amenity":"restaurant","osm":"way/92643977"},"geometry":{"type":"Point","coordinates":[11.13601,47.15868]}},{"type":"Feature","properties":{"name":"Gasthof Weisses Rössl","amenity":"restaurant","osm":"way/128247307"},"geometry":{"type":"Point","coordinates":[11.45238,47.12581]}},{"type":"Feature","properties":{"name":"Gasthof Zur Uhr","amenity":"restaurant","wikipedia":"de:Ansitz Ballenhaus","osm":"way/135604683"},"geometry":{"type":"Point","coordinates":[11.45282,47.13177]}},{"type":"Feature","properties":{"name":"Gasthof zur Arche","amenity":"restaurant","osm":"node/9204415342"},"geometry":{"type":"Point","coordinates":[11.50264,47.24904]}},{"type":"Feature","properties":{"name":"Gasthof zur Post","amenity":"restaurant","osm":"way/92683838"},"geometry":{"type":"Point","coordinates":[11.15703,47.19502]}},{"type":"Feature","properties":{"name":"Gasthof Ölberg","tourism":"hotel","amenity":"restaurant","opening_hours":"We-Tu 07:30-23:00","website":"http://www.oelberg.eu","phone":"+43 512 286125","osm":"node/644625848"},"geometry":{"type":"Point","coordinates":[11.3894,47.27902]}},{"type":"Feature","properties":{"name":"Gasthof-Pension Schaber","tourism":"guest_house","amenity":"restaurant","opening_hours":"Mo-Sa 16:00-23:00; Su 10:00-23:00; PH 10:00-23:00","website":"https://www.gasthof-schaber.at/","phone":"+43 5238 87364","osm":"way/166050943"},"geometry":{"type":"Point","coordinates":[11.15669,47.29345]}},{"type":"Feature","properties":{"name":"Gleirschalm","amenity":"restaurant","osm":"node/330937607"},"geometry":{"type":"Point","coordinates":[11.09908,47.18893]}},{"type":"Feature","properties":{"name":"Gluckserhütte","tourism":"apartment","amenity":"restaurant","website":"http://www.gluckserhuette.at/","osm":"node/1836557483"},"geometry":{"type":"Point","coordinates":[11.5526,47.25216]}},{"type":"Feature","properties":{"name":"Glungezerhütte","tourism":"alpine_hut","ele":"2610","operator":"Sektion Hall in Tirol","website":"https://www.glungezer-huette.at/","phone":"+43 5223 78018","wikipedia":"de:Glungezerhütte","osm":"way/151309717"},"geometry":{"type":"Point","coordinates":[11.52685,47.20975]}},{"type":"Feature","properties":{"name":"Graf Ferdinand-Haus","amenity":"restaurant","osm":"way/92742587"},"geometry":{"type":"Point","coordinates":[11.01566,47.20439]}},{"type":"Feature","properties":{"name":"Grillalm Telfs","amenity":"restaurant","website":"https://www.grillalmtelfs.at/","osm":"way/191468239"},"geometry":{"type":"Point","coordinates":[11.097,47.31426]}},{"type":"Feature","properties":{"name":"Große Mittergrathütte","tourism":"wilderness_hut","ele":"1953","website":"https://mittergrat.at/","osm":"way/195806375"},"geometry":{"type":"Point","coordinates":[10.98739,47.21407]}},{"type":"Feature","properties":{"name":"Großhorlachalm","amenity":"restaurant","osm":"way/122896603"},"geometry":{"type":"Point","coordinates":[11.01539,47.15883]}},{"type":"Feature","properties":{"name":"Götzner Alm","amenity":"restaurant","ele":"1542","opening_hours":"PH,Su,Mo 09:00-17:00; Tu-Sa 09:00-18:00","website":"https://www.goetzneralm.at","phone":"+436644303842","wikipedia":"de:Götzner Alm","osm":"node/1665715476"},"geometry":{"type":"Point","coordinates":[11.31979,47.21054]}},{"type":"Feature","properties":{"name":"Hallerangeralm","tourism":"alpine_hut","ele":"1774","website":"https://www.halleranger-alm.at/","phone":"+436641055955","wikipedia":"de:Hallerangeralm","osm":"way/119196456"},"geometry":{"type":"Point","coordinates":[11.47979,47.35647]}},{"type":"Feature","properties":{"name":"Hallerangerhaus","tourism":"alpine_hut","ele":"1768","operator":"DAV Sektion Schwaben","website":"https://www.hallerangerhaus.at/","phone":"+436648937583","wikipedia":"de:Hallerangerhaus","osm":"way/119196451"},"geometry":{"type":"Point","coordinates":[11.4772,47.35474]}},{"type":"Feature","properties":{"name":"Hemerwaldalm","tourism":"wilderness_hut","ele":"1946","website":"https://mittergrat.at/","osm":"way/195806367"},"geometry":{"type":"Point","coordinates":[10.9879,47.21421]}},{"type":"Feature","properties":{"name":"Hinterhorn Alm","tourism":"alpine_hut","amenity":"restaurant","ele":"1522","wikipedia":"de:Hinterhornalm","osm":"way/47488721"},"geometry":{"type":"Point","coordinates":[11.56465,47.33354]}},{"type":"Feature","properties":{"name":"Hoadlhaus","amenity":"restaurant","osm":"way/31356315"},"geometry":{"type":"Point","coordinates":[11.28185,47.1833]}},{"type":"Feature","properties":{"name":"Hocheggalm","tourism":"alpine_hut","amenity":"restaurant","ele":"1544","operator":"Bergbahnen Rosshütte Seefeld-Tirol-Reith AG","website":"https://www.seefeld.com/a-hocheggalm","phone":"+435212241647","osm":"way/137052018"},"geometry":{"type":"Point","coordinates":[11.21277,47.33955]}},{"type":"Feature","properties":{"name":"Hochmahdalm","amenity":"restaurant","ele":"1907","opening_hours":"Th 10:00-21:30, Fr-Su 10:00-16:30","phone":"+43 676 5045174","osm":"node/1434737943"},"geometry":{"type":"Point","coordinates":[11.45139,47.20295]}},{"type":"Feature","properties":{"name":"Hofer Alm","amenity":"restaurant","opening_hours":"\"bei Gelegenheit\"","seasonal":"summer","osm":"way/1028370328"},"geometry":{"type":"Point","coordinates":[11.51461,47.08629]}},{"type":"Feature","properties":{"name":"Hotel Gasthof Stefansbrücke","tourism":"hotel","amenity":"restaurant","operator":"Fam. Stumreich","website":"https://www.www.gasthof-stefansbruecke.at/","phone":"+43 512 583001","osm":"way/150199437"},"geometry":{"type":"Point","coordinates":[11.39193,47.21115]}},{"type":"Feature","properties":{"name":"Höttinger Alm","amenity":"restaurant","ele":"1487","opening_hours":"Mo-Fr 09:00-19:00, Sa,Su 21:00-18:00","website":"https://www.hoettingeralm.at/","osm":"node/524217582"},"geometry":{"type":"Point","coordinates":[11.36687,47.29849]}},{"type":"Feature","properties":{"name":"Interalpen-Alm","amenity":"restaurant","operator":"Hotel Interalpen","osm":"node/9152360375"},"geometry":{"type":"Point","coordinates":[11.12066,47.33001]}},{"type":"Feature","properties":{"name":"Inzinger Alm","amenity":"restaurant","ele":"1640","phone":"+436805540504","osm":"node/290515818"},"geometry":{"type":"Point","coordinates":[11.15204,47.24046]}},{"type":"Feature","properties":{"name":"Issenangeralm","amenity":"restaurant","ele":"1366","website":"https://issenangeralm.at/","osm":"way/103272992"},"geometry":{"type":"Point","coordinates":[11.33699,47.09691]}},{"type":"Feature","properties":{"name":"Jausenstaion Oberkartnall","amenity":"restaurant","opening_hours":"Mo-We, Fr-Su 10:00-19:00","website":"https://jausenstationoberkartnall.jimdofree.com/","osm":"node/281819257"},"geometry":{"type":"Point","coordinates":[11.29371,47.11113]}},{"type":"Feature","properties":{"name":"Jausenstation Brunntal","amenity":"restaurant","ele":"1140","osm":"way/127473725"},"geometry":{"type":"Point","coordinates":[11.27942,47.28661]}},{"type":"Feature","properties":{"name":"Jausenstation Herzsee","amenity":"restaurant","opening_hours":"We-Mo 10:00-20:00","osm":"way/119227726"},"geometry":{"type":"Point","coordinates":[11.45785,47.24799]}},{"type":"Feature","properties":{"name":"Jausenstation Häuslerhof","amenity":"restaurant","osm":"node/12301651689"},"geometry":{"type":"Point","coordinates":[11.47854,47.08152]}},{"type":"Feature","properties":{"name":"Jausenstation Schärmeralm","amenity":"restaurant","osm":"node/8196840829"},"geometry":{"type":"Point","coordinates":[11.08361,47.20743]}},{"type":"Feature","properties":{"name":"Jausenstation St. Magdalena","amenity":"restaurant","ele":"1287","opening_hours":"10:00-18:00","website":"https://st-magdalena-absam.at/","phone":"+43 650 5703391","osm":"node/1653273293"},"geometry":{"type":"Point","coordinates":[11.4932,47.32691]}},{"type":"Feature","properties":{"name":"Jausenstation Unterkartnall","amenity":"restaurant","osm":"way/142412493"},"geometry":{"type":"Point","coordinates":[11.29377,47.11086]}},{"type":"Feature","properties":{"name":"Jausenstation Vogelhütte","amenity":"restaurant","opening_hours":"Mo-Fr 11:00-18:00; PH off","phone":"+43 512 379750","osm":"node/279583823"},"geometry":{"type":"Point","coordinates":[11.43202,47.24561]}},{"type":"Feature","properties":{"name":"Juifenalm","amenity":"restaurant","ele":"2022","website":"https://www.juifenalm.at","osm":"node/385237222"},"geometry":{"type":"Point","coordinates":[11.16227,47.16942]}},{"type":"Feature","properties":{"name":"Jägerhäusl","tourism":"wilderness_hut","ele":"1633","operator":"Deutscher Alpenverein - Sektion Geltendorf","contact:website":"https://dav-geltendorf.de","capacity":"16","access":"private","osm":"way/87312649"},"geometry":{"type":"Point","coordinates":[11.29696,47.28859]}},{"type":"Feature","properties":{"name":"Kaffeehaus zum Grossen Gott","amenity":"cafe","opening_hours":"Mo-Fr 08:30-13:00,16:00-19:00; Sa 08:30-13:00","website":"https://zumgrossengott.at/","phone":"+43 664 3997788","osm":"node/4761684443"},"geometry":{"type":"Point","coordinates":[11.3715,47.26818]}},{"type":"Feature","properties":{"name":"Kaserstattalm","amenity":"restaurant","ele":"1890","osm":"node/316564514"},"geometry":{"type":"Point","coordinates":[11.30038,47.1272]}},{"type":"Feature","properties":{"name":"Katzenkopf-Hütte","amenity":"restaurant","ele":"1362","website":"https://www.katzenkopf-leutasch.at/","phone":"+4352146219","osm":"node/450162272"},"geometry":{"type":"Point","coordinates":[11.16185,47.35846]}},{"type":"Feature","properties":{"name":"Kellerstüberl","amenity":"restaurant","opening_hours":"Apr-Sep Mo-Fr 16:00-24:00; Oct-Mar Mo-Fr 15:00-24:00; Oct-Mar Sa 16:00-24:00","website":"https://kellerstueberl-wild.stadtausstellung.at/","phone":"+43 664 1021164","osm":"node/3041925580"},"geometry":{"type":"Point","coordinates":[11.405,47.26919]}},{"type":"Feature","properties":{"name":"Kemater Alm","tourism":"alpine_hut","amenity":"restaurant","ele":"1673","website":"https://www.kemater-alm.at/","phone":"+43 5234 65679","osm":"way/115499738"},"geometry":{"type":"Point","coordinates":[11.26579,47.17683]}},{"type":"Feature","properties":{"name":"Klammalm","tourism":"alpine_hut","amenity":"restaurant","ele":"1947","osm":"node/1607527933"},"geometry":{"type":"Point","coordinates":[11.59611,47.15108]}},{"type":"Feature","properties":{"name":"Klausis Hütte","amenity":"restaurant","osm":"way/142527465"},"geometry":{"type":"Point","coordinates":[11.29242,47.1011]}},{"type":"Feature","properties":{"name":"Kleine Mittergrathütte","tourism":"wilderness_hut","ele":"1949","website":"https://mittergrat.at/","osm":"way/195806330"},"geometry":{"type":"Point","coordinates":[10.98763,47.21407]}},{"type":"Feature","properties":{"name":"Kleinhorlachalm","amenity":"restaurant","opening_hours":"2026 Jun 04 - 2026 Sep 20 Mo-Su 09:00-17:00","phone":"+43 664 7504 2169","osm":"way/122896605"},"geometry":{"type":"Point","coordinates":[11.01212,47.15789]}},{"type":"Feature","properties":{"name":"Klostergasthof Maria Waldrast","amenity":"restaurant","opening_hours":"Mo-Su 07:30-20:00","website":"https://www.mariawaldrast.at/index.php/kloster-gasthof;https://www.mariawaldrast.at","phone":"+4352736219","osm":"node/1652778969"},"geometry":{"type":"Point","coordinates":[11.40563,47.1307]}},{"type":"Feature","properties":{"name":"Kluppenalm","tourism":"alpine_hut","osm":"way/142906032"},"geometry":{"type":"Point","coordinates":[11.61194,47.12157]}},{"type":"Feature","properties":{"name":"Konrad Stüberl","amenity":"restaurant","opening_hours":"Tu-Su 09:00-14:00, 16:00-24:00","website":"http://konrad-stueberl-innsbruck.smarto.net/","phone":"+43 512 34 21 84","osm":"node/4770960153"},"geometry":{"type":"Point","coordinates":[11.41457,47.2598]}},{"type":"Feature","properties":{"name":"Kreither Alm","amenity":"restaurant","ele":"1500","website":"https://www.kreither-alm.at/","phone":"+4367761669613","osm":"node/505825814"},"geometry":{"type":"Point","coordinates":[11.34786,47.19233]}},{"type":"Feature","properties":{"name":"Krepperhütte","amenity":"restaurant","osm":"node/1643424562"},"geometry":{"type":"Point","coordinates":[11.57335,47.2573]}},{"type":"Feature","properties":{"name":"Kühgrüblalm","tourism":"alpine_hut","osm":"node/8196697269"},"geometry":{"type":"Point","coordinates":[11.15933,47.1648]}},{"type":"Feature","properties":{"name":"Landgasthof Bogner","amenity":"restaurant","website":"https://www.hotel-bogner.at/de/gwi/restaurant-und-kulinarik/restaurant-und-kulinarik.html","phone":"+43 5223 57987","osm":"node/9670930097"},"geometry":{"type":"Point","coordinates":[11.50047,47.29444]}},{"type":"Feature","properties":{"name":"Landhaus Schöpf","amenity":"cafe","website":"https://www.landhaus-schoepf.at/cafe-shop/","phone":"+43 5212 4752","osm":"node/1336049411"},"geometry":{"type":"Point","coordinates":[11.14591,47.31161]}},{"type":"Feature","properties":{"name":"Lanser Alm","amenity":"restaurant","ele":"1735","operator":"Amrit Tiwari","opening_hours":"Mo-Su,PH 10:00-21:00","website":"https://www.lanseralm.at/","osm":"node/1459656318"},"geometry":{"type":"Point","coordinates":[11.45595,47.2179]}},{"type":"Feature","properties":{"name":"Liftstüberl Birgitz","amenity":"restaurant","opening_hours":"off","contact:phone":"+43 664 5019247","osm":"node/293389719"},"geometry":{"type":"Point","coordinates":[11.30214,47.23276]}},{"type":"Feature","properties":{"name":"Liftstüberl Rinn","amenity":"cafe","osm":"way/104688784"},"geometry":{"type":"Point","coordinates":[11.497,47.24758]}},{"type":"Feature","properties":{"name":"Lizumalm","amenity":"restaurant","osm":"node/441309894"},"geometry":{"type":"Point","coordinates":[11.30374,47.19556]}},{"type":"Feature","properties":{"name":"Lottenseehütte","amenity":"restaurant","ele":"1271","operator":"Kluckner Martin","opening_hours":"Mo-Su 09:00-18:00; We off","website":"https://www.lottensee.at/","phone":"+43 664 400 3132","osm":"way/187920390"},"geometry":{"type":"Point","coordinates":[11.12814,47.32524]}},{"type":"Feature","properties":{"name":"Längentaleralm","tourism":"alpine_hut","osm":"node/8196840827"},"geometry":{"type":"Point","coordinates":[11.11903,47.11223]}},{"type":"Feature","properties":{"name":"Lärchenstüberl","amenity":"restaurant","opening_hours":"11:00-14:00,18:00-22:30","phone":"+4352122383","osm":"node/5359011126"},"geometry":{"type":"Point","coordinates":[11.18554,47.33624]}},{"type":"Feature","properties":{"name":"Matratzenlager","tourism":"alpine_hut","osm":"way/119196400"},"geometry":{"type":"Point","coordinates":[11.48027,47.35613]}},{"type":"Feature","properties":{"name":"Matreier Ochsenalm","tourism":"alpine_hut","amenity":"restaurant","ele":"1560","osm":"way/152633064"},"geometry":{"type":"Point","coordinates":[11.40787,47.12353]}},{"type":"Feature","properties":{"name":"Meißner Haus","tourism":"alpine_hut","ele":"1720","website":"https://www.meissner-haus.at/","phone":"+43 512 377697","capacity":"69","wikipedia":"de:Meißner Haus","osm":"way/129585073"},"geometry":{"type":"Point","coordinates":[11.48845,47.20834]}},{"type":"Feature","properties":{"name":"Midori Teehaus","amenity":"cafe","opening_hours":"Mo-Su,PH 10:00-18:00","osm":"node/4949155146"},"geometry":{"type":"Point","coordinates":[11.39078,47.26431]}},{"type":"Feature","properties":{"name":"Milderaunalm","amenity":"restaurant","ele":"1671","opening_hours":"Tu-Su 09:00-17:00","website":"https://www.milderaunalm.tirol/","phone":"+43 699 10036813","osm":"node/317066362"},"geometry":{"type":"Point","coordinates":[11.25679,47.08776]}},{"type":"Feature","properties":{"name":"Moosalm","amenity":"restaurant","website":"https://www.moosalm.at","phone":"+43 5264 5688","osm":"way/189651619"},"geometry":{"type":"Point","coordinates":[10.96081,47.31048]}},{"type":"Feature","properties":{"name":"Muggenmoosalm","amenity":"restaurant","operator":"Familie Neuhauser","opening_hours":"We-Mo, PH 10:30-16:30","website":"http://muggenmoosalm.at","phone":"+43 664 2622953","osm":"node/479748380"},"geometry":{"type":"Point","coordinates":[11.12928,47.33722]}},{"type":"Feature","properties":{"name":"Mutterer Alm Restaurant","amenity":"restaurant","wikipedia":"de:Mutterer Alm","osm":"way/121640859"},"geometry":{"type":"Point","coordinates":[11.33414,47.21145]}},{"type":"Feature","properties":{"name":"Möslalm","tourism":"alpine_hut","ele":"1262","website":"https://www.moeslalm.tirol/","phone":"+43 512 27 57 83","wikipedia":"de:Möslalm","osm":"way/99318407"},"geometry":{"type":"Point","coordinates":[11.34303,47.33737]}},{"type":"Feature","properties":{"name":"Neue Alplhütte","tourism":"alpine_hut","amenity":"restaurant","ele":"1540","website":"http://www.alplhuette.com","phone":"+436767209100","osm":"way/188128107"},"geometry":{"type":"Point","coordinates":[11.01734,47.34188]}},{"type":"Feature","properties":{"name":"Neue Magdeburger Hütte","tourism":"alpine_hut","ele":"1633","operator":"DAV Sektion Geltendorf","website":"http://www.magdeburger-huette.at/","phone":"+43 5238 88 7 90","capacity":"74","wikipedia":"de:Neue Magdeburger Hütte","osm":"way/87312650"},"geometry":{"type":"Point","coordinates":[11.2966,47.289]}},{"type":"Feature","properties":{"name":"Notraum","tourism":"wilderness_hut","operator":"AV Sektion Innsbruck","seasonal":"winter","osm":"node/11343582406"},"geometry":{"type":"Point","coordinates":[11.426,47.33021]}},{"type":"Feature","properties":{"name":"Nördlinger Hütte","tourism":"alpine_hut","ele":"2238","operator":"DAV Sektion Nördlingen","opening_hours":"closed","website":"https://www.noerdlingerhuette.at/","phone":"+436649142262","wikipedia":"de:Nördlinger Hütte","osm":"way/166643728"},"geometry":{"type":"Point","coordinates":[11.23679,47.32006]}},{"type":"Feature","properties":{"name":"Oberbrunnalm","amenity":"restaurant","ele":"1500","operator":"Michael Lindenthaler","website":"https://www.oberbrunn-alm.tirol/","phone":"+43 699 188 255 05","wikipedia":"de:Oberbrunnalm","osm":"way/366295874"},"geometry":{"type":"Point","coordinates":[11.27722,47.35521]}},{"type":"Feature","properties":{"name":"Obere Vögeleralm","tourism":"alpine_hut","osm":"way/150715138"},"geometry":{"type":"Point","coordinates":[11.5426,47.16062]}},{"type":"Feature","properties":{"name":"Oberhofer Galtalm","tourism":"alpine_hut","osm":"node/9111679230"},"geometry":{"type":"Point","coordinates":[11.10475,47.24543]}},{"type":"Feature","properties":{"name":"Oberhofer Melkalm","tourism":"alpine_hut","ele":"1694","operator":"Andreas Krieglsteiner","website":"https://www.oberhofen-inntal.gv.at/Oberhofer_Melkalm","phone":"+43 664 6353622","osm":"way/144618056"},"geometry":{"type":"Point","coordinates":[11.09393,47.27306]}},{"type":"Feature","properties":{"name":"Oberissalm","tourism":"alpine_hut","ele":"1742","operator":"OeAV Sektion Innsbruck","website":"https://www.oberissalm.tirol/","phone":"+43 5226 2626","osm":"way/235888323"},"geometry":{"type":"Point","coordinates":[11.19467,47.09565]}},{"type":"Feature","properties":{"name":"Ochsenhütte","tourism":"hostel","amenity":"restaurant","osm":"node/293733199"},"geometry":{"type":"Point","coordinates":[11.40142,47.14847]}},{"type":"Feature","properties":{"name":"Padasterjochhaus","tourism":"alpine_hut","amenity":"restaurant","ele":"2232","website":"https://www.padasterjochhaus.at/","wikipedia":"de:Padasterjochhaus","osm":"way/130300721"},"geometry":{"type":"Point","coordinates":[11.36363,47.08096]}},{"type":"Feature","properties":{"name":"Panoramagasthaus Neue Gufl","amenity":"restaurant","website":"http://www.panoramagasthaus.at","osm":"node/1836557463"},"geometry":{"type":"Point","coordinates":[11.55348,47.25512]}},{"type":"Feature","properties":{"name":"Panoramarestaurant Elfer","amenity":"restaurant","ele":"1794","opening_hours":"Mo-Su 09:00-17:00","website":"https://www.panoramarestaurant-elfer.at/","phone":"+43 676 7059039","osm":"way/147469273"},"geometry":{"type":"Point","coordinates":[11.32269,47.09853]}},{"type":"Feature","properties":{"name":"Panoramarestaurant Kreuzjoch","amenity":"restaurant","opening_hours":"Mo-Su 09:15-16:15","osm":"node/321802087"},"geometry":{"type":"Point","coordinates":[11.30709,47.14491]}},{"type":"Feature","properties":{"name":"Panoramarestaurant Stieglreith","amenity":"restaurant","osm":"node/513750840"},"geometry":{"type":"Point","coordinates":[11.22194,47.23819]}},{"type":"Feature","properties":{"name":"Patscher Alm","amenity":"restaurant","ele":"1698","phone":"+43 664 4053026","osm":"node/558698347"},"geometry":{"type":"Point","coordinates":[11.44094,47.20847]}},{"type":"Feature","properties":{"name":"Patscherkofel Schutzhaus","amenity":"restaurant","website":"https://www.schutzhaus-patscherkofel.at/","phone":"+43 512 377196","osm":"node/3246050361"},"geometry":{"type":"Point","coordinates":[11.45227,47.21051]}},{"type":"Feature","properties":{"name":"Patscherkofel Schutzhaus","tourism":"alpine_hut","ele":"1970","operator":"Sektion TK Innsbruck","description":"Der Grund wurde 1886 durch den ÖTK Österreichischen Touristenklub, Sektion Innsbruck-Wilten, angekauft und erste Wege auf den Patscherkofel errichtet. Am 29. Juni 1888 fand die Eröffnung des Schutzhauses statt, das zu Ehren des Kaisers Franz Josef nach ih","wikipedia":"de:Patscherkofelhaus","osm":"way/87627789"},"geometry":{"type":"Point","coordinates":[11.45229,47.21054]}},{"type":"Feature","properties":{"name":"Peeralm","tourism":"alpine_hut","ele":"1663","osm":"node/296010554"},"geometry":{"type":"Point","coordinates":[11.55957,47.15122]}},{"type":"Feature","properties":{"name":"Peeralm","amenity":"restaurant","ele":"1663","osm":"way/91087199"},"geometry":{"type":"Point","coordinates":[11.55956,47.15122]}},{"type":"Feature","properties":{"name":"Peter-Anich-Hütte","tourism":"alpine_hut","ele":"1909","operator":"Sektion TK Innsbruck","contact:website":"https://www.alpenverein.at/peteranichhuette/","contact:phone":"+43 676 9241536","wikipedia":"de:Peter-Anich-Hütte","osm":"way/144635530"},"geometry":{"type":"Point","coordinates":[11.0552,47.26621]}},{"type":"Feature","properties":{"name":"Pfaffenhofer Alm","tourism":"alpine_hut","ele":"1694","osm":"way/144618189"},"geometry":{"type":"Point","coordinates":[11.07157,47.27082]}},{"type":"Feature","properties":{"name":"Pfarrachalm","tourism":"alpine_hut","amenity":"restaurant","ele":"1740","wikipedia":"de:Pfarrachalm","osm":"node/1836518335"},"geometry":{"type":"Point","coordinates":[11.33584,47.17635]}},{"type":"Feature","properties":{"name":"Pfeishütte","tourism":"alpine_hut","ele":"1950","operator":"Sektion Innsbruck","website":"http://www.pfeishuette.at/","phone":"+43 512 552906","beds":"80","wikipedia":"de:Pfeishütte","osm":"way/117889584"},"geometry":{"type":"Point","coordinates":[11.42557,47.33]}},{"type":"Feature","properties":{"name":"Pfoner Ochsenalm","amenity":"restaurant","ele":"2160","osm":"way/152238030"},"geometry":{"type":"Point","coordinates":[11.49775,47.15815]}},{"type":"Feature","properties":{"name":"Pforzheimer Hütte","tourism":"alpine_hut","ele":"2308","website":"https://alpenverein-pforzheim.de/huette/pforzheimer-huette/","phone":"+43 5236 521","description":"Neue Pforzheimer Hütte","wikipedia":"de:Pforzheimer Hütte","osm":"way/75312949"},"geometry":{"type":"Point","coordinates":[11.07263,47.15469]}},{"type":"Feature","properties":{"name":"Pizzeria Dorfalm","amenity":"restaurant","opening_hours":"We-Su,PH 17:00-21:00+","website":"https://www.gasthof-dorfkrug.at/","phone":"+43 5225 62837","osm":"node/849870424"},"geometry":{"type":"Point","coordinates":[11.34868,47.15341]}},{"type":"Feature","properties":{"name":"Pizzeria Gasthaus Traube","amenity":"restaurant","opening_hours":"Fr-Tu 16:00-01:00","osm":"node/6468199336"},"geometry":{"type":"Point","coordinates":[11.3814,47.16999]}},{"type":"Feature","properties":{"name":"Poltnalm","tourism":"alpine_hut","ele":"1860","osm":"way/94687403"},"geometry":{"type":"Point","coordinates":[11.57392,47.14527]}},{"type":"Feature","properties":{"name":"Potsdamer Hütte","tourism":"alpine_hut","amenity":"restaurant","ele":"2020","operator":"Alpenverein Dinkelsbühl e.V., Klostergasse 19, 91550 Dinkelsbühl","website":"https://www.potsdamer-huette.de/","phone":"+43 6766020560","wikipedia":"de:Potsdamer Hütte","osm":"way/163209874"},"geometry":{"type":"Point","coordinates":[11.20874,47.143]}},{"type":"Feature","properties":{"name":"Profeglalm","amenity":"restaurant","ele":"1809","opening_hours":"Jun-Aug: Sa-Su 14:00-18:00","osm":"way/706048726"},"geometry":{"type":"Point","coordinates":[11.47631,47.19182]}},{"type":"Feature","properties":{"name":"Rasthaus Umfahrung","amenity":"restaurant","osm":"way/191148307"},"geometry":{"type":"Point","coordinates":[11.19551,47.33534]}},{"type":"Feature","properties":{"name":"Rathaus Cafe","amenity":"cafe","opening_hours":"Mo-Th 08:00-24:00; Fr, Sa 08:00-02:00; Su, PH 09:00-24:00","website":"https://www.rathauscafe-hall.at/","phone":"+43 676 7153802","osm":"node/2165042741"},"geometry":{"type":"Point","coordinates":[11.50693,47.28196]}},{"type":"Feature","properties":{"name":"Rathauscafe","amenity":"cafe","opening_hours":"Mo,We-Sa 08:00-24:00, Su 10:00-18:00; Tu off","website":"https://www.rathauscafe-telfs.at/","osm":"node/6956329291"},"geometry":{"type":"Point","coordinates":[11.07219,47.30679]}},{"type":"Feature","properties":{"name":"Rauthhütte","tourism":"alpine_hut","amenity":"restaurant","ele":"1600","website":"https://www.rauthhuette.at/","phone":"+43 664 281 5611","osm":"way/147858566"},"geometry":{"type":"Point","coordinates":[11.1049,47.34561]}},{"type":"Feature","properties":{"name":"Reitherjoch Alm","amenity":"restaurant","ele":"1509","operator":"Familie Seyrling","website":"https://reitherjochalm.com/","phone":"+43 5212 2621180","osm":"way/166643729"},"geometry":{"type":"Point","coordinates":[11.21277,47.32365]}},{"type":"Feature","properties":{"name":"Restaurant Klammhütte","amenity":"restaurant","opening_hours":"Mo, Tu, Fr-Su 10:00-23:00","website":"http://www.facebook.com/restaurant.klammhuette","osm":"node/2254705911"},"geometry":{"type":"Point","coordinates":[11.31443,47.233]}},{"type":"Feature","properties":{"name":"Rinner Alm","amenity":"restaurant","ele":"1394","opening_hours":"Tu-Sa 09:00-22:00; Su 09:00-18:00","website":"https://www.rinner-alm.com/","phone":"+43 5223 78409","osm":"node/245374143"},"geometry":{"type":"Point","coordinates":[11.49927,47.23718]}},{"type":"Feature","properties":{"name":"Rosshütte","amenity":"restaurant","ele":"1751","operator":"Bergbahnen Rosshütte Seefeld-Tirol-Reith AG","website":"https://www.rosshuette.at/","public_transport":"station","railway":"station","osm":"way/137051823"},"geometry":{"type":"Point","coordinates":[11.22788,47.34143]}},{"type":"Feature","properties":{"name":"Roßkogelhütte","tourism":"alpine_hut","amenity":"restaurant","ele":"1778","opening_hours":"Mo-Su 09:00-16:30","website":"https://www.rosskogelhuette.tirol/","phone":"+43 5232 81419","osm":"node/417668849"},"geometry":{"type":"Point","coordinates":[11.19045,47.24069]}},{"type":"Feature","properties":{"name":"Rumer Alm","amenity":"restaurant","ele":"1243","opening_hours":"May-Oct: Mo, Tu, Th-Sa 09:00-18:00; Su 09:00-18:00; We off; Nov-Apr: Mo-Tu, Th-Su 09:00-17:00; We off","website":"https://www.rumeralm.tirol/","phone":"+436644276159","osm":"way/128930752"},"geometry":{"type":"Point","coordinates":[11.42134,47.30291]}},{"type":"Feature","properties":{"name":"Saigesalm","amenity":"restaurant","website":"https://www.innsbruck.info/infrastruktur/detail/infrastruktur/seigesalm-sellrain.html","osm":"node/410575232"},"geometry":{"type":"Point","coordinates":[11.20189,47.1875]}},{"type":"Feature","properties":{"name":"Schafalm","tourism":"alpine_hut","amenity":"restaurant","ele":"1580","wikipedia":"de:Schafalm (Axamer Lizum)","osm":"node/413596354"},"geometry":{"type":"Point","coordinates":[11.29857,47.19865]}},{"type":"Feature","properties":{"name":"Schialm","amenity":"restaurant","website":"https://www.seefeld.com/a-ski-alm-bar","phone":"+43 5212 24160","osm":"way/191150705"},"geometry":{"type":"Point","coordinates":[11.20032,47.33123]}},{"type":"Feature","properties":{"name":"Schmalzgrubenalm","amenity":"restaurant","opening_hours":"\"Im Sommer bei Schönwetter Samstag, Sonn- und Feiertag geöffnet\"","phone":"+43 676 57 01 683","osm":"way/387714746"},"geometry":{"type":"Point","coordinates":[11.23686,47.19397]}},{"type":"Feature","properties":{"name":"Schweinfurter Hütte","tourism":"alpine_hut","ele":"2028","operator":"DAV Sektion Schweinfurt","website":"https://www.dav-schweinfurt.de/huetten-2/schweinfurter-huette/","phone":"+43 5255 50029","beds":"52","wikipedia":"de:Schweinfurter Hütte","osm":"way/156083807"},"geometry":{"type":"Point","coordinates":[11.01997,47.15818]}},{"type":"Feature","properties":{"name":"Seapen Alm","tourism":"alpine_hut","opening_hours":"Sa-Su","osm":"way/150715132"},"geometry":{"type":"Point","coordinates":[11.54425,47.15621]}},{"type":"Feature","properties":{"name":"Seaper Ranch - Country Stüberl","amenity":"cafe","osm":"node/12350914004"},"geometry":{"type":"Point","coordinates":[11.46969,47.10006]}},{"type":"Feature","properties":{"name":"Seaperalm","amenity":"restaurant","opening_hours":"\"bei Gelegenheit\"","seasonal":"summer","osm":"way/173494172"},"geometry":{"type":"Point","coordinates":[11.51247,47.08766]}},{"type":"Feature","properties":{"name":"Seducker Hochalm","tourism":"alpine_hut","ele":"2250","osm":"node/294758495"},"geometry":{"type":"Point","coordinates":[11.2101,47.1152]}},{"type":"Feature","properties":{"name":"Seestüberl","amenity":"restaurant","opening_hours":"10:00-20:00","website":"https://kampler-seestube.at/","phone":"+43 676 3648854; +43 676 3479760","osm":"way/140784875"},"geometry":{"type":"Point","coordinates":[11.33173,47.12448]}},{"type":"Feature","properties":{"name":"Seewaldalm","amenity":"restaurant","operator":"Andrea Furlan","opening_hours":"PH,Mo-Su 09:00-21:00","phone":"+43 5212 50398","capacity":"120","seasonal":"winter","osm":"way/187920418"},"geometry":{"type":"Point","coordinates":[11.16192,47.31338]}},{"type":"Feature","properties":{"name":"Sennjochhütte","amenity":"restaurant","operator":"Familie Nabben, Franz-Senn-Weg 59, 6166 Fulpmes0676 5207243, info@hausbergwerk.at","website":"https://hausbergwerk.at/sennjochhuette/","osm":"node/6289442251"},"geometry":{"type":"Point","coordinates":[11.29541,47.13818]}},{"type":"Feature","properties":{"name":"Sennjochhütte","amenity":"restaurant","ele":"2230","osm":"way/138166677"},"geometry":{"type":"Point","coordinates":[11.2954,47.13817]}},{"type":"Feature","properties":{"name":"Sistranser Alm","tourism":"alpine_hut","amenity":"charging_station","ele":"1609","opening_hours":"Mo,Su,PH 09:00-18:00; We-Sa 09:00-21:00","website":"https://www.sistranseralm.at/","phone":"+43 699 100 18 948","osm":"node/279584189"},"geometry":{"type":"Point","coordinates":[11.46691,47.22185]}},{"type":"Feature","properties":{"name":"Solsteinhaus","tourism":"alpine_hut","ele":"1828","operator":"Österreichischer Alpenverein, Sektion Innsbruck","website":"https://solsteinhaus.at/","phone":"+43 5232 81557","wikipedia":"de:Solsteinhaus","osm":"way/26716681"},"geometry":{"type":"Point","coordinates":[11.28819,47.30812]}},{"type":"Feature","properties":{"name":"Sonnalm","amenity":"restaurant","website":"https://skigebiet-seefeld.at/sommer/skigebiet_appartement_seefeld/gastronomie-hutten/sonnenalm/","phone":"+43 5212 249035","osm":"way/166622706"},"geometry":{"type":"Point","coordinates":[11.17759,47.31368]}},{"type":"Feature","properties":{"name":"Sonnberg Alm","amenity":"restaurant","ele":"1960","website":"https://sonnbergalm.at/","seasonal":"summer","osm":"node/437814695"},"geometry":{"type":"Point","coordinates":[11.10161,47.20953]}},{"type":"Feature","properties":{"name":"Sportalm","amenity":"restaurant","operator":"Familie Seyrling","website":"https://sportalm-seefeld.at/","phone":"+43 5212 26 89","osm":"node/2663103386"},"geometry":{"type":"Point","coordinates":[11.17875,47.32447]}},{"type":"Feature","properties":{"name":"Stadtgasthaus Haymon","amenity":"restaurant","operator":"Markus Schweiggl","opening_hours":"Mo-Su 10:00-22:00","website":"https://www.riese-haymon.com/","phone":"+43 660 1095144","osm":"node/440663144"},"geometry":{"type":"Point","coordinates":[11.39744,47.25552]}},{"type":"Feature","properties":{"name":"Starkenburger Hütte","tourism":"alpine_hut","ele":"2237","website":"https://www.alpenverein.at/huetten/?huette_nr=0637","phone":"+436645035420","wikipedia":"de:Starkenburger Hütte","osm":"way/84674198"},"geometry":{"type":"Point","coordinates":[11.27958,47.12682]}},{"type":"Feature","properties":{"name":"Straßberghaus","tourism":"alpine_hut","amenity":"restaurant","ele":"1191","operator":"DAV","opening_hours":"\"Ist geschlossen\"","osm":"way/188125650"},"geometry":{"type":"Point","coordinates":[11.0387,47.33589]}},{"type":"Feature","properties":{"name":"Stöcklalm","tourism":"alpine_hut","ele":"1882","osm":"way/152235231"},"geometry":{"type":"Point","coordinates":[11.57268,47.14004]}},{"type":"Feature","properties":{"name":"Stöttlalm","amenity":"restaurant","ele":"1001","contact:website":"https://www.stoettlalm.at","contact:phone":"+43 699 15 212 200","osm":"way/156195537"},"geometry":{"type":"Point","coordinates":[10.9846,47.31983]}},{"type":"Feature","properties":{"name":"Sunnalm","amenity":"restaurant","osm":"way/31356480"},"geometry":{"type":"Point","coordinates":[11.28596,47.19076]}},{"type":"Feature","properties":{"name":"Thaurer Alm","amenity":"restaurant","ele":"1464","opening_hours":"May 1-Oct 31: Mo-Sa 09:00-20:00, Su 09:00-18:00; Nov 01-Apr 30: off","website":"https://www.thaureralm.at/","osm":"way/128186521"},"geometry":{"type":"Point","coordinates":[11.4517,47.31375]}},{"type":"Feature","properties":{"name":"Treibhaus","amenity":"cafe","opening_hours":"Mo-Su 16:00-01:00","website":"https://www.treibhaus.at/das-haus/cafe-weiberwirtschaft","phone":"+43 512 572000","wikipedia":"de:Treibhaus (Kulturzentrum)","osm":"node/318920936"},"geometry":{"type":"Point","coordinates":[11.39637,47.26758]}},{"type":"Feature","properties":{"name":"Tulfein Alm","amenity":"restaurant","phone":"+43 6643255267","osm":"way/171636115"},"geometry":{"type":"Point","coordinates":[11.52757,47.22314]}},{"type":"Feature","properties":{"name":"Tulfer Hütte","amenity":"restaurant","contact:website":"https://www.tulferhuette.at","contact:phone":"+43 664 3010248","osm":"node/2131543427"},"geometry":{"type":"Point","coordinates":[11.55179,47.25291]}},{"type":"Feature","properties":{"name":"Tulferberghütte","tourism":"wilderness_hut","operator":"Alpenverein","access":"customers","osm":"way/124777408"},"geometry":{"type":"Point","coordinates":[11.54844,47.25682]}},{"type":"Feature","properties":{"name":"Umbrüggler Alm","amenity":"restaurant","ele":"1123","operator":"Sonja Schütz","opening_hours":"Tu-Sa 09:00-23:00; Su 09:00-18:30","website":"https://umbrueggleralm.tirol/","phone":"+43 664 3244 543","osm":"node/3479300542"},"geometry":{"type":"Point","coordinates":[11.37927,47.29253]}},{"type":"Feature","properties":{"name":"Voldertalhütte","tourism":"alpine_hut","ele":"1380","operator":"Naturfreunde","website":"https://www.voldertalhuette.at/","phone":"+436649757447","wikipedia":"de:Voldertalhütte","osm":"way/169553255"},"geometry":{"type":"Point","coordinates":[11.55097,47.22469]}},{"type":"Feature","properties":{"name":"Walder Alm","tourism":"alpine_hut","amenity":"restaurant","ele":"1500","website":"https://www.walderalm.at/aktuelles/","phone":"+43 5223 78359","wikipedia":"de:Walder Alm","osm":"way/122669293"},"geometry":{"type":"Point","coordinates":[11.58317,47.33832]}},{"type":"Feature","properties":{"name":"Waldgasthaus Triendlsäge","amenity":"restaurant","operator":"Fam. Triendl","opening_hours":"PH,Th-Tu 11:30-20:30","website":"https://www.triendlsaege.at","phone":"+43 5212 2580","osm":"node/11508996962"},"geometry":{"type":"Point","coordinates":[11.1897,47.34415]}},{"type":"Feature","properties":{"name":"Weidenalm","amenity":"restaurant","ele":"1464","opening_hours":"Fr-Su 10:00-18:00","website":"https://www.weidenchalets.at/weidenalm/","phone":"+43 664 1479124","osm":"node/13357352093"},"geometry":{"type":"Point","coordinates":[11.21729,47.17338]}},{"type":"Feature","properties":{"name":"Weinhaus Happ","tourism":"hotel","amenity":"restaurant","opening_hours":"07:00-23:00","website":"http://weinhaus-happ.at/de/home/","phone":"+43 512 582980","osm":"node/760484447"},"geometry":{"type":"Point","coordinates":[11.39304,47.26825]}},{"type":"Feature","properties":{"name":"Westfalenhaus","tourism":"alpine_hut","ele":"2273","website":"https://www.westfalenhaus.at/","wikipedia":"de:Westfalenhaus","osm":"way/81920286"},"geometry":{"type":"Point","coordinates":[11.10008,47.10794]}},{"type":"Feature","properties":{"name":"Wiesle Alm","tourism":"alpine_hut","amenity":"restaurant","ele":"1520","opening_hours":"Tu-Su 10:00-18:00; Mo off","website":"https://www.wiesle.at/","osm":"way/70122050"},"geometry":{"type":"Point","coordinates":[10.95901,47.11298]}},{"type":"Feature","properties":{"name":"Wildeben","tourism":"alpine_hut","amenity":"restaurant","ele":"1780","website":"https://www.wildeben.info/","osm":"node/281811874"},"geometry":{"type":"Point","coordinates":[11.35727,47.12539]}},{"type":"Feature","properties":{"name":"Wildmoosalm","amenity":"restaurant","ele":"1317","website":"https://www.wildmoosalm.com/","phone":"+43 5212 30 02","osm":"way/147732359"},"geometry":{"type":"Point","coordinates":[11.15776,47.33506]}},{"type":"Feature","properties":{"name":"Winnebachseehütte","tourism":"alpine_hut","ele":"2362","operator":"DAV Sektion Hof","website":"https://www.winnebachseehuette.com/","phone":"+43 5253 5197","beds":"37","wikipedia":"de:Winnebachseehütte","osm":"way/122398641"},"geometry":{"type":"Point","coordinates":[11.05445,47.08756]}},{"type":"Feature","properties":{"name":"Wirtshaus Alt Seefeld","amenity":"restaurant","osm":"node/12681065078"},"geometry":{"type":"Point","coordinates":[11.18641,47.32932]}},{"type":"Feature","properties":{"name":"Wirtshaus Nattererboden","amenity":"restaurant","opening_hours":"Mo,Th-Su 11:00-22:00","website":"https://www.nattererboden.at","phone":"+43 512 546200","osm":"way/120473411"},"geometry":{"type":"Point","coordinates":[11.37558,47.24322]}},{"type":"Feature","properties":{"name":"Zehenteralm","amenity":"restaurant","ele":"1820","osm":"node/7837742557"},"geometry":{"type":"Point","coordinates":[11.56569,47.15664]}},{"type":"Feature","properties":{"name":"Zirler Kristenalm","tourism":"alpine_hut","ele":"1360","operator":"Eva Abenthung","phone":"+43 650 9700395","osm":"way/99991612"},"geometry":{"type":"Point","coordinates":[11.3138,47.32496]}},{"type":"Feature","properties":{"name":"Zirmachalm","amenity":"restaurant","ele":"1936","osm":"way/138166712"},"geometry":{"type":"Point","coordinates":[11.29539,47.14524]}},{"type":"Feature","properties":{"name":"Zirmbach Alm","tourism":"alpine_hut","ele":"1800","osm":"node/437814698"},"geometry":{"type":"Point","coordinates":[11.06883,47.22008]}},{"type":"Feature","properties":{"name":"best PIDE Haus","amenity":"restaurant","opening_hours":"Mo-Fr 10:30-21:30, Sa-Su 11:00-21:30","osm":"node/6621932678"},"geometry":{"type":"Point","coordinates":[11.4218,47.27005]}}]}