{"type":"FeatureCollection","features":[{"type":"Feature","properties":{"railway":"funicular","osm":"way/84446945"},"geometry":{"type":"LineString","coordinates":[[11.40009,47.24882],[11.40008,47.24875]]}},{"type":"Feature","properties":{"railway":"funicular","osm":"way/1084676359"},"geometry":{"type":"LineString","coordinates":[[11.39994,47.24752],[11.39987,47.24683]]}},{"type":"Feature","properties":{"railway":"funicular","osm":"way/1084676360"},"geometry":{"type":"LineString","coordinates":[[11.40008,47.24875],[11.39994,47.24752]]}},{"type":"Feature","properties":{"railway":"funicular","osm":"way/1182935453"},"geometry":{"type":"LineString","coordinates":[[11.17634,47.32164],[11.17695,47.32103]]}},{"type":"Feature","properties":{"railway":"funicular","osm":"way/1182935456"},"geometry":{"type":"LineString","coordinates":[[11.17703,47.32095],[11.17747,47.32051]]}},{"type":"Feature","properties":{"railway":"funicular","osm":"way/1182935457"},"geometry":{"type":"LineString","coordinates":[[11.17695,47.32103],[11.17703,47.32095]]}},{"type":"Feature","properties":{"name":"Balbach","aerialway":"chair_lift","aerialway:occupancy":"2","osm":"way/30816522"},"geometry":{"type":"LineString","coordinates":[[10.94162,47.22],[10.94265,47.2196],[10.94464,47.21886],[10.94552,47.21854],[10.9465,47.21817],[10.947,47.21798],[10.94794,47.21764],[10.94989,47.21691],[10.9513,47.21638],[10.95215,47.21607]]}},{"type":"Feature","properties":{"name":"Bergeralmbahn","aerialway":"gondola","operator":"Alps Resorts","aerialway:occupancy":"8","aerialway:duration":"4","osm":"way/22715771"},"geometry":{"type":"LineString","coordinates":[[11.45974,47.08684],[11.45964,47.08663],[11.45898,47.08527],[11.45749,47.08221],[11.45685,47.08088],[11.45569,47.07849],[11.45482,47.0767],[11.45476,47.07655],[11.45461,47.07621]]}},{"type":"Feature","properties":{"name":"Birgitzköpfl","aerialway":"chair_lift","aerialway:occupancy":"2","osm":"way/25298607"},"geometry":{"type":"LineString","coordinates":[[11.30354,47.19407],[11.30455,47.19414],[11.30642,47.19424],[11.30666,47.19425],[11.30763,47.19431],[11.30935,47.1944],[11.31124,47.19451],[11.31258,47.19457],[11.31469,47.1947],[11.3162,47.19477],[11.31652,47.19478]]}},{"type":"Feature","properties":{"name":"DreiSeenBahn","aerialway":"chair_lift","aerialway:occupancy":"4","osm":"way/23362775"},"geometry":{"type":"LineString","coordinates":[[11.01516,47.21175],[11.01621,47.21145],[11.01837,47.21084],[11.02025,47.21031],[11.02225,47.20974],[11.02441,47.20913],[11.02601,47.20868],[11.02759,47.20823],[11.02796,47.20813],[11.02944,47.20771],[11.03151,47.20712],[11.03349,47.20656],[11.03504,47.20612],[11.03676,47.20564],[11.03869,47.20509],[11.03923,47.20494]]}},{"type":"Feature","properties":{"name":"Frau-Hitt Warte","aerialway":"chair_lift","aerialway:occupancy":"2","aerialway:duration":"1.66","osm":"way/227203761"},"geometry":{"type":"LineString","coordinates":[[11.37803,47.30598],[11.37787,47.30597],[11.37683,47.30591],[11.37605,47.30586],[11.3758,47.30585]]}},{"type":"Feature","properties":{"name":"GaisKogelBahn","aerialway":"chair_lift","website":"https://www.skiresort.de/skigebiet/kuehtai/liftebahnen/l108118/","aerialway:occupancy":"6","aerialway:duration":"3,9","osm":"way/823527287"},"geometry":{"type":"LineString","coordinates":[[11.03176,47.21648],[11.03218,47.216],[11.03301,47.21513],[11.03418,47.21389],[11.03496,47.21308],[11.03584,47.21215],[11.03704,47.21089],[11.03787,47.21001],[11.0382,47.20967],[11.03873,47.20911],[11.03894,47.20889]]}},{"type":"Feature","properties":{"name":"Galtbergbahn","aerialway":"gondola","aerialway:occupancy":"10","aerialway:duration":"4","osm":"way/1214995327"},"geometry":{"type":"LineString","coordinates":[[11.33559,47.15682],[11.33532,47.1567],[11.3352,47.15665],[11.3345,47.15636],[11.33407,47.15618],[11.32975,47.15437],[11.3263,47.15293],[11.32502,47.15239],[11.32169,47.15099],[11.32046,47.15048],[11.3201,47.15033]]}},{"type":"Feature","properties":{"name":"Glungezerbahn I","aerialway":"gondola","aerialway:occupancy":"10","aerialway:duration":"6","osm":"way/146759719"},"geometry":{"type":"LineString","coordinates":[[11.53527,47.25638],[11.53545,47.25608],[11.53612,47.25492],[11.53692,47.25355],[11.53809,47.25151],[11.53977,47.24863],[11.54081,47.24685],[11.54213,47.24458],[11.54215,47.24455],[11.54297,47.24314],[11.54351,47.24224],[11.54368,47.24196]]}},{"type":"Feature","properties":{"name":"Gschwandtkopf","aerialway":"chair_lift","operator":"Schneider GmbH & Co. KG","aerialway:occupancy":"4","osm":"way/146138349"},"geometry":{"type":"LineString","coordinates":[[11.17941,47.32442],[11.17941,47.32403],[11.17938,47.32318],[11.17935,47.32218],[11.17933,47.32133],[11.17931,47.32025],[11.17928,47.31931],[11.17926,47.31848],[11.17924,47.31768],[11.17922,47.31695],[11.17919,47.3158],[11.17917,47.31465],[11.17916,47.31411],[11.17915,47.31397]]}},{"type":"Feature","properties":{"name":"Hafelekarbahn","aerialway":"cable_car","operator":"Innsbrucker Nordkettenbahnen Betriebs GmbH","website":"https://www.nordkette.com/","aerialway:occupancy":"69","aerialway:duration":"2","osm":"way/25282282"},"geometry":{"type":"LineString","coordinates":[[11.37979,47.30655],[11.38357,47.31198]]}},{"type":"Feature","properties":{"name":"Hoadlbahn","aerialway":"gondola","aerialway:occupancy":"10","aerialway:duration":"6","osm":"way/1064844583"},"geometry":{"type":"LineString","coordinates":[[11.3021,47.19537],[11.30187,47.19526],[11.30083,47.19478],[11.2988,47.19383],[11.29667,47.19284],[11.29498,47.19205],[11.29359,47.1914],[11.29019,47.18982],[11.28974,47.18961]]}},{"type":"Feature","properties":{"name":"Hoadlbahn","aerialway":"gondola","aerialway:occupancy":"10","aerialway:duration":"6","osm":"way/1526166177"},"geometry":{"type":"LineString","coordinates":[[11.28974,47.18961],[11.28896,47.18904],[11.28623,47.18705],[11.28501,47.18617],[11.2814,47.18353]]}},{"type":"Feature","properties":{"name":"HochAlterBahn","aerialway":"chair_lift","aerialway:occupancy":"4","osm":"way/23362764"},"geometry":{"type":"LineString","coordinates":[[11.0259,47.21497],[11.02597,47.21563],[11.02605,47.21627],[11.0262,47.21769],[11.02631,47.21858],[11.02641,47.21951],[11.02653,47.22059],[11.02657,47.22097],[11.02664,47.22157],[11.02678,47.22281],[11.0269,47.2239],[11.02692,47.22403],[11.02703,47.22507],[11.02715,47.22614],[11.02728,47.22721],[11.02732,47.2276],[11.02745,47.22879],[11.02757,47.22983],[11.02761,47.23019]]}},{"type":"Feature","properties":{"name":"Hochangerbahn","aerialway":"chair_lift","operator":"Bergbahnen Rosshütte Seefeld-Tirol-Reith AG","aerialway:occupancy":"6","aerialway:duration":"5","osm":"way/146140696"},"geometry":{"type":"LineString","coordinates":[[11.20033,47.33155],[11.20152,47.33123],[11.20301,47.33083],[11.20474,47.33037],[11.20651,47.3299],[11.20849,47.32937],[11.21055,47.32882],[11.21318,47.32812],[11.21428,47.32783],[11.21504,47.32763],[11.21542,47.32752]]}},{"type":"Feature","properties":{"name":"HoheMutBahn","aerialway":"chair_lift","aerialway:occupancy":"4","osm":"way/23362778"},"geometry":{"type":"LineString","coordinates":[[11.01204,47.21127],[11.01204,47.21107],[11.01204,47.211],[11.01205,47.21068],[11.01206,47.21009],[11.01208,47.20864],[11.0121,47.20777],[11.01212,47.20618],[11.01215,47.20453],[11.01217,47.20361],[11.01219,47.20222],[11.01221,47.20106],[11.01222,47.2008]]}},{"type":"Feature","properties":{"name":"Hungerburgbahn","railway":"funicular","operator":"Innsbrucker Verkehrsbetriebe","osm":"way/25316914"},"geometry":{"type":"LineString","coordinates":[[11.39546,47.27106],[11.39558,47.27166],[11.39573,47.27268],[11.39576,47.27286],[11.3958,47.27299],[11.39583,47.27312],[11.39587,47.27323],[11.39591,47.27333],[11.39595,47.27344],[11.39601,47.27355],[11.39607,47.27366],[11.39614,47.27378],[11.39622,47.27392],[11.39658,47.2744]]}},{"type":"Feature","properties":{"name":"Hungerburgbahn","railway":"funicular","operator":"Innsbrucker Verkehrsbetriebe","osm":"way/25316940"},"geometry":{"type":"LineString","coordinates":[[11.39658,47.2744],[11.39696,47.2749],[11.39708,47.27508]]}},{"type":"Feature","properties":{"name":"Hungerburgbahn","railway":"funicular","operator":"Innsbrucker Verkehrsbetriebe","osm":"way/25317020"},"geometry":{"type":"LineString","coordinates":[[11.39802,47.27784],[11.39809,47.27794],[11.3982,47.27811],[11.39836,47.27839],[11.3984,47.27852],[11.39855,47.27879],[11.39865,47.2789],[11.4002,47.28163]]}},{"type":"Feature","properties":{"name":"Hungerburgbahn","railway":"funicular","operator":"Innsbrucker Verkehrsbetriebe","osm":"way/25317021"},"geometry":{"type":"LineString","coordinates":[[11.39754,47.27722],[11.3976,47.27731],[11.39765,47.2774],[11.39773,47.2775],[11.3978,47.27759],[11.39788,47.27767],[11.39795,47.27775],[11.39802,47.27784]]}},{"type":"Feature","properties":{"name":"Hungerburgbahn","railway":"funicular","operator":"Innsbrucker Verkehrsbetriebe","osm":"way/25317029"},"geometry":{"type":"LineString","coordinates":[[11.4003,47.2818],[11.40063,47.28237],[11.40069,47.28247]]}},{"type":"Feature","properties":{"name":"Hungerburgbahn","railway":"funicular","operator":"Innsbrucker Verkehrsbetriebe","osm":"way/25317036"},"geometry":{"type":"LineString","coordinates":[[11.40069,47.28247],[11.4008,47.28269],[11.40086,47.28281],[11.40092,47.28294],[11.40096,47.28306],[11.40099,47.28317],[11.40102,47.28329],[11.40105,47.28342],[11.40107,47.28353],[11.40108,47.28364],[11.40109,47.28374],[11.40109,47.28386],[11.40108,47.28398],[11.40107,47.28413],[11.40106,47.28424],[11.40104,47.28435],[11.40101,47.28447],[11.40098,47.28459],[11.40097,47.28461]]}},{"type":"Feature","properties":{"name":"Hungerburgbahn","railway":"funicular","operator":"Innsbrucker Verkehrsbetriebe","osm":"way/25317049"},"geometry":{"type":"LineString","coordinates":[[11.40018,47.28622],[11.40011,47.28629]]}},{"type":"Feature","properties":{"name":"Hungerburgbahn","railway":"funicular","operator":"Innsbrucker Verkehrsbetriebe","osm":"way/25317050"},"geometry":{"type":"LineString","coordinates":[[11.40048,47.28591],[11.40032,47.28608],[11.40018,47.28622]]}},{"type":"Feature","properties":{"name":"Hungerburgbahn","railway":"funicular","operator":"Innsbrucker Verkehrsbetriebe","osm":"way/25317054"},"geometry":{"type":"LineString","coordinates":[[11.40097,47.28461],[11.40075,47.28547],[11.40072,47.28553],[11.40069,47.2856],[11.40066,47.28567],[11.40062,47.28573],[11.40058,47.28579],[11.40054,47.28584],[11.40048,47.28591]]}},{"type":"Feature","properties":{"name":"Hungerburgbahn","railway":"funicular","operator":"Innsbrucker Verkehrsbetriebe","osm":"way/25455904"},"geometry":{"type":"LineString","coordinates":[[11.39708,47.27508],[11.39711,47.27514],[11.39715,47.27521],[11.39718,47.27528],[11.3972,47.27534],[11.39722,47.27539],[11.39724,47.27545],[11.39725,47.27552],[11.39726,47.27559],[11.39727,47.27566],[11.39728,47.27573],[11.39726,47.27618],[11.39726,47.27626],[11.39727,47.27635],[11.39727,47.27642],[11.39728,47.27651],[11.3973,47.27659],[11.39732,47.27668],[11.39734,47.27676],[11.39737,47.27685],[11.3974,47.27695],[11.39744,47.27703],[11.39749,47.27712],[11.39754,47.27722]]}},{"type":"Feature","properties":{"name":"Hungerburgbahn","railway":"funicular","operator":"Innsbrucker Verkehrsbetriebe","osm":"way/407690171"},"geometry":{"type":"LineString","coordinates":[[11.4002,47.28163],[11.4003,47.2818]]}},{"type":"Feature","properties":{"name":"Hungerburgbahn","railway":"funicular","operator":"Innsbrucker Verkehrsbetriebe","osm":"way/1475265348"},"geometry":{"type":"LineString","coordinates":[[11.39836,47.27839],[11.39846,47.27851],[11.39861,47.27878],[11.39865,47.2789]]}},{"type":"Feature","properties":{"name":"Hungerburgbahn","railway":"funicular","operator":"Innsbrucker Verkehrsbetriebe","osm":"way/1482072752"},"geometry":{"type":"LineString","coordinates":[[11.39543,47.27095],[11.39546,47.27106]]}},{"type":"Feature","properties":{"name":"Härmelekopfbahn","aerialway":"cable_car","operator":"Bergbahnen Rosshütte Seefeld-Tirol-Reith AG","aerialway:occupancy":"30","aerialway:duration":"4","osm":"way/146140698"},"geometry":{"type":"LineString","coordinates":[[11.22774,47.34129],[11.22743,47.32899]]}},{"type":"Feature","properties":{"name":"KaiserBahn","aerialway":"gondola","aerialway:occupancy":"8","osm":"way/37126033"},"geometry":{"type":"LineString","coordinates":[[11.0107,47.21172],[11.0107,47.21282],[11.0107,47.21497],[11.01069,47.21726],[11.01069,47.21813],[11.01068,47.22081],[11.01068,47.22327],[11.01068,47.22399],[11.01068,47.22553],[11.01067,47.22597]]}},{"type":"Feature","properties":{"name":"Karleiten","aerialway":"chair_lift","aerialway:occupancy":"4","osm":"way/24568282"},"geometry":{"type":"LineString","coordinates":[[11.29051,47.19439],[11.29018,47.19416],[11.28932,47.19356],[11.28843,47.19293],[11.28758,47.19235],[11.28687,47.19184],[11.28635,47.19147],[11.28564,47.19098],[11.28491,47.19045],[11.28382,47.18969],[11.28301,47.18912],[11.28262,47.18884]]}},{"type":"Feature","properties":{"name":"Katzenkopflift","aerialway":"chair_lift","website":"https://www.katzenkopf-leutasch.at","aerialway:occupancy":"3","osm":"way/38323019"},"geometry":{"type":"LineString","coordinates":[[11.16565,47.36381],[11.16554,47.36364],[11.16551,47.3636],[11.16528,47.36325],[11.16467,47.36233],[11.16402,47.36142],[11.16381,47.3611],[11.16331,47.36034],[11.16281,47.35959],[11.16232,47.35886],[11.16216,47.35862],[11.16204,47.35843]]}},{"type":"Feature","properties":{"name":"Kreuzjochbahn","aerialway":"gondola","aerialway:occupancy":"6","aerialway:duration":"15","osm":"way/26506233"},"geometry":{"type":"LineString","coordinates":[[11.33271,47.15645],[11.33226,47.15625],[11.33223,47.15624],[11.33187,47.15608],[11.33102,47.15572],[11.32916,47.15491],[11.32847,47.15461],[11.32656,47.15379],[11.32493,47.15308],[11.32201,47.15182],[11.32005,47.15097],[11.31714,47.14972],[11.31708,47.14969],[11.31579,47.14913],[11.31554,47.14903],[11.31549,47.14901],[11.31447,47.14857],[11.31165,47.14734],[11.30939,47.14637],[11.30772,47.14565],[11.30766,47.14562],[11.30759,47.14559],[11.30712,47.14539]]}},{"type":"Feature","properties":{"name":"Kreuzjochbahn","aerialway":"gondola","aerialway:occupancy":"6","aerialway:duration":"15","osm":"way/1526166754"},"geometry":{"type":"LineString","coordinates":[[11.34354,47.1553],[11.34323,47.15533],[11.34318,47.15533],[11.34244,47.15541],[11.3403,47.15564],[11.33818,47.15587],[11.3371,47.15598],[11.33576,47.15612],[11.33494,47.15621],[11.33341,47.15637],[11.33339,47.15638],[11.33271,47.15645]]}},{"type":"Feature","properties":{"name":"Muttereralmbahn","aerialway":"gondola","aerialway:occupancy":"8","osm":"way/26746748"},"geometry":{"type":"LineString","coordinates":[[11.36627,47.22244],[11.36599,47.22234],[11.3659,47.22231],[11.36514,47.22206],[11.36276,47.22128],[11.36237,47.22115],[11.3603,47.22045],[11.35876,47.21994],[11.35846,47.21984],[11.35628,47.21911],[11.35467,47.21858],[11.35315,47.21809],[11.3528,47.21798],[11.35248,47.21787],[11.35238,47.21783],[11.35144,47.21749],[11.34915,47.21673],[11.34651,47.21585],[11.34637,47.2158],[11.34395,47.215],[11.34134,47.21412],[11.33908,47.21337],[11.33454,47.21185],[11.33371,47.21157]]}},{"type":"Feature","properties":{"name":"Nockspitzbahn","aerialway":"gondola","aerialway:occupancy":"8","osm":"way/26746897"},"geometry":{"type":"LineString","coordinates":[[11.3146,47.23187],[11.31473,47.23165],[11.31503,47.23113],[11.31578,47.22981],[11.3165,47.22856],[11.31718,47.22736],[11.31826,47.22548],[11.31917,47.22388],[11.32016,47.22215],[11.32029,47.22192],[11.32046,47.22162],[11.32093,47.22081],[11.32208,47.2188],[11.32214,47.21869],[11.32286,47.21743],[11.32518,47.21336],[11.3265,47.21106],[11.32835,47.20782],[11.32841,47.20768]]}},{"type":"Feature","properties":{"name":"Olympiabahn","railway":"funicular","osm":"way/24568276"},"geometry":{"type":"LineString","coordinates":[[11.30249,47.1937],[11.30128,47.19315],[11.30019,47.19266],[11.2995,47.1922],[11.29859,47.19147],[11.29844,47.19135],[11.29702,47.19019],[11.29659,47.18986],[11.29614,47.18956],[11.29575,47.18931],[11.29535,47.1891],[11.29426,47.18871],[11.29346,47.18846],[11.29313,47.18838],[11.29254,47.18822],[11.29225,47.18812],[11.29113,47.18783],[11.28927,47.1873],[11.28874,47.18708],[11.28832,47.18688],[11.28729,47.18624],[11.286,47.18544],[11.28527,47.18501],[11.28346,47.18385],[11.28223,47.18318]]}},{"type":"Feature","properties":{"name":"Olympiabahn","railway":"funicular","osm":"way/648743960"},"geometry":{"type":"LineString","coordinates":[[11.29225,47.18812],[11.29253,47.18819],[11.29321,47.18837],[11.29346,47.18846]]}},{"type":"Feature","properties":{"name":"Olympiabahn","railway":"funicular","osm":"way/1270704705"},"geometry":{"type":"LineString","coordinates":[[11.30286,47.19386],[11.30249,47.1937]]}},{"type":"Feature","properties":{"name":"Panoramabahn","aerialway":"chair_lift","aerialway:occupancy":"4","aerialway:duration":"3:40","osm":"way/29263441"},"geometry":{"type":"LineString","coordinates":[[11.30005,47.14677],[11.30021,47.14672],[11.3003,47.14669],[11.30101,47.14646],[11.30234,47.14603],[11.30364,47.14561],[11.30431,47.14539],[11.30598,47.14486],[11.30641,47.14472],[11.30668,47.14463]]}},{"type":"Feature","properties":{"name":"Panoramabahn Elfer","aerialway":"gondola","aerialway:occupancy":"8","osm":"way/26778085"},"geometry":{"type":"LineString","coordinates":[[11.31238,47.11095],[11.31252,47.11079],[11.31257,47.11074],[11.31379,47.10937],[11.31528,47.10771],[11.31609,47.10681],[11.31705,47.10574],[11.31748,47.10526],[11.31886,47.10372],[11.32009,47.10234],[11.32092,47.10141],[11.32198,47.10023],[11.32305,47.09903],[11.3231,47.09897],[11.32317,47.0989],[11.32342,47.09861]]}},{"type":"Feature","properties":{"name":"Patscherkofelbahn","aerialway":"gondola","website":"http://www.patscherkofelbahn.at/de/winter/neue-bahn","aerialway:occupancy":"10","aerialway:duration":"10","osm":"way/485884144"},"geometry":{"type":"LineString","coordinates":[[11.42675,47.22207],[11.42704,47.22187],[11.4271,47.22184],[11.42759,47.2215],[11.42926,47.22023],[11.43188,47.21842],[11.43335,47.21738],[11.43475,47.2164],[11.43711,47.21475],[11.43913,47.21329],[11.43998,47.21269],[11.44145,47.21166],[11.44149,47.21163],[11.44154,47.2116],[11.44194,47.21131],[11.44236,47.21126],[11.44243,47.21125],[11.44249,47.21124],[11.44385,47.21107],[11.44515,47.2109],[11.44787,47.21056],[11.44916,47.21038],[11.45133,47.21011],[11.45141,47.2101],[11.45175,47.21006]]}},{"type":"Feature","properties":{"name":"Peter Anich I","aerialway":"gondola","aerialway:occupancy":"8","aerialway:duration":"5","osm":"way/26698910"},"geometry":{"type":"LineString","coordinates":[[11.23749,47.24571],[11.23662,47.24531],[11.23442,47.24429],[11.23251,47.24341],[11.22984,47.24214],[11.22733,47.24099],[11.22581,47.24029],[11.22368,47.23927],[11.22196,47.23853],[11.22142,47.23827]]}},{"type":"Feature","properties":{"name":"Peter Anich II","aerialway":"gondola","aerialway:occupancy":"8","aerialway:duration":"5","osm":"way/26698926"},"geometry":{"type":"LineString","coordinates":[[11.22104,47.23825],[11.21988,47.23837],[11.21715,47.23863],[11.21318,47.239],[11.21007,47.2393],[11.20729,47.23955],[11.2033,47.23993],[11.20057,47.24017],[11.19985,47.24023]]}},{"type":"Feature","properties":{"name":"Peter Anich III","aerialway":"mixed_lift","aerialway:occupancy":"6/8","aerialway:duration":"5","osm":"way/26698984"},"geometry":{"type":"LineString","coordinates":[[11.19927,47.24042],[11.18248,47.24233]]}},{"type":"Feature","properties":{"name":"Pfriemesköpfl","aerialway":"chair_lift","aerialway:occupancy":"4","osm":"way/26746906"},"geometry":{"type":"LineString","coordinates":[[11.33562,47.2119],[11.33551,47.21183],[11.33498,47.2115],[11.33381,47.21077],[11.33281,47.21015],[11.33167,47.20944],[11.33055,47.20874],[11.32979,47.20827],[11.32892,47.20772],[11.32871,47.2076]]}},{"type":"Feature","properties":{"name":"Pleisen","aerialway":"chair_lift","aerialway:occupancy":"2","osm":"way/144280300"},"geometry":{"type":"LineString","coordinates":[[11.29205,47.19628],[11.29096,47.196],[11.28914,47.19552],[11.28774,47.19516],[11.28617,47.19475],[11.28502,47.19445],[11.28407,47.1942],[11.28285,47.19388],[11.28216,47.1937],[11.28141,47.1935],[11.28001,47.19314]]}},{"type":"Feature","properties":{"name":"Reitheralmbahn","aerialway":"chair_lift","operator":"Bergbahnen Rosshütte Seefeld-Tirol-Reith AG","aerialway:occupancy":"6","aerialway:duration":"5","osm":"way/146140708"},"geometry":{"type":"LineString","coordinates":[[11.21163,47.32413],[11.21396,47.32523],[11.2161,47.32624],[11.21736,47.32684],[11.21846,47.32735],[11.22008,47.32811],[11.22176,47.32891],[11.22309,47.32953],[11.22446,47.33018],[11.22453,47.33021],[11.22486,47.33037]]}},{"type":"Feature","properties":{"name":"Rosshütte-Standseilbahn","railway":"funicular","osm":"way/146140694"},"geometry":{"type":"LineString","coordinates":[[11.22784,47.34157],[11.22628,47.34137]]}},{"type":"Feature","properties":{"name":"Rosshütte-Standseilbahn","railway":"funicular","osm":"way/668160146"},"geometry":{"type":"LineString","coordinates":[[11.21273,47.33899],[11.21256,47.33892],[11.21217,47.33881],[11.21195,47.33876]]}},{"type":"Feature","properties":{"name":"Rosshütte-Standseilbahn","railway":"funicular","osm":"way/668160280"},"geometry":{"type":"LineString","coordinates":[[11.22342,47.341],[11.22116,47.3407]]}},{"type":"Feature","properties":{"name":"Rosshütte-Standseilbahn","railway":"funicular","osm":"way/668160281"},"geometry":{"type":"LineString","coordinates":[[11.22489,47.34119],[11.22342,47.341]]}},{"type":"Feature","properties":{"name":"Rosshütte-Standseilbahn","railway":"funicular","osm":"way/668160282"},"geometry":{"type":"LineString","coordinates":[[11.22116,47.3407],[11.21973,47.34052]]}},{"type":"Feature","properties":{"name":"Rosshütte-Standseilbahn","railway":"funicular","osm":"way/668160283"},"geometry":{"type":"LineString","coordinates":[[11.22542,47.34126],[11.22489,47.34119]]}},{"type":"Feature","properties":{"name":"Rosshütte-Standseilbahn","railway":"funicular","osm":"way/668160284"},"geometry":{"type":"LineString","coordinates":[[11.21932,47.34047],[11.21854,47.34037],[11.21738,47.34022]]}},{"type":"Feature","properties":{"name":"Rosshütte-Standseilbahn","railway":"funicular","osm":"way/668160285"},"geometry":{"type":"LineString","coordinates":[[11.2065,47.33578],[11.2061,47.33555]]}},{"type":"Feature","properties":{"name":"Rosshütte-Standseilbahn","railway":"funicular","operator":"Bergbahnen Rosshütte Seefeld-Tirol-Reith AG","osm":"way/668160286"},"geometry":{"type":"LineString","coordinates":[[11.2061,47.33555],[11.20284,47.3336],[11.20064,47.33232],[11.20005,47.33196]]}},{"type":"Feature","properties":{"name":"Rosshütte-Standseilbahn","railway":"funicular","osm":"way/668160287"},"geometry":{"type":"LineString","coordinates":[[11.21973,47.34052],[11.21932,47.34047]]}},{"type":"Feature","properties":{"name":"Rosshütte-Standseilbahn","railway":"funicular","osm":"way/668160288"},"geometry":{"type":"LineString","coordinates":[[11.22628,47.34137],[11.22542,47.34126]]}},{"type":"Feature","properties":{"name":"Rosshütte-Standseilbahn","railway":"funicular","osm":"way/668160289"},"geometry":{"type":"LineString","coordinates":[[11.21738,47.34022],[11.21709,47.34019],[11.21679,47.34014],[11.21644,47.34006],[11.21614,47.33999],[11.21408,47.33939],[11.21273,47.33899],[11.21255,47.33895],[11.21213,47.33882],[11.21195,47.33876],[11.21158,47.33864],[11.21121,47.3385],[11.21081,47.33828],[11.20959,47.33757],[11.2065,47.33578]]}},{"type":"Feature","properties":{"name":"Rosshütten-Express","aerialway":"chair_lift","operator":"Bergbahnen Rosshütte Seefeld-Tirol-Reith AG","aerialway:occupancy":"6","aerialway:duration":"7","osm":"way/146140700"},"geometry":{"type":"LineString","coordinates":[[11.20938,47.3357],[11.2096,47.33577],[11.20965,47.33579],[11.21106,47.33622],[11.21244,47.33665],[11.21429,47.33722],[11.21485,47.33739],[11.21607,47.33776],[11.21698,47.33804],[11.2173,47.33814],[11.21776,47.33828],[11.21971,47.33854],[11.2214,47.33876],[11.22267,47.33893],[11.22458,47.33918],[11.22545,47.3393],[11.22794,47.33963],[11.22956,47.33984],[11.23195,47.34016],[11.23205,47.34017],[11.23249,47.34023]]}},{"type":"Feature","properties":{"name":"Schanzenlift Brunnental","aerialway":"chair_lift","aerialway:occupancy":"1","aerialway:duration":"5","osm":"way/776227466"},"geometry":{"type":"LineString","coordinates":[[10.9897,47.27611],[10.99164,47.27434]]}},{"type":"Feature","properties":{"name":"Schartenkogel","aerialway":"chair_lift","aerialway:occupancy":"2","osm":"way/54302055"},"geometry":{"type":"LineString","coordinates":[[11.52213,47.22497],[11.52322,47.22437],[11.52474,47.22355],[11.52645,47.22262],[11.5277,47.22194],[11.52919,47.22113],[11.53102,47.22014],[11.53222,47.21949],[11.53398,47.21853],[11.53414,47.21845],[11.53532,47.21779],[11.53537,47.21776],[11.53548,47.2177]]}},{"type":"Feature","properties":{"name":"Seefelder Jochbahn","aerialway":"cable_car","operator":"Bergbahnen Rosshütte Seefeld-Tirol-Reith AG","aerialway:occupancy":"25","osm":"way/146140704"},"geometry":{"type":"LineString","coordinates":[[11.22807,47.34166],[11.2361,47.34104],[11.23949,47.34077]]}},{"type":"Feature","properties":{"name":"Seegrube","aerialway":"chair_lift","aerialway:occupancy":"2","aerialway:duration":"5.166666667","osm":"way/25750412"},"geometry":{"type":"LineString","coordinates":[[11.38359,47.3027],[11.38349,47.30281],[11.38312,47.30323],[11.383,47.30336],[11.38279,47.3036],[11.38253,47.30389],[11.38199,47.30451],[11.38144,47.30512],[11.38098,47.30565],[11.38026,47.30646],[11.38016,47.30658]]}},{"type":"Feature","properties":{"name":"Seegrubenbahn","aerialway":"cable_car","operator":"Innsbrucker Nordkettenbahnen Betriebs GmbH","website":"https://www.nordkette.com/","aerialway:occupancy":"95","aerialway:duration":"5.33","osm":"way/25170582"},"geometry":{"type":"LineString","coordinates":[[11.39901,47.28617],[11.39741,47.28785],[11.39042,47.29518],[11.3855,47.30035],[11.38499,47.30088],[11.3844,47.30151],[11.38371,47.30223],[11.38132,47.30474],[11.37974,47.30639]]}},{"type":"Feature","properties":{"name":"Serlesbahn","aerialway":"gondola","aerialway:occupancy":"8","osm":"way/26779051"},"geometry":{"type":"LineString","coordinates":[[11.38006,47.16358],[11.3802,47.16344],[11.38027,47.16338],[11.38055,47.16313],[11.38338,47.16055],[11.38455,47.15948],[11.38596,47.1582],[11.38855,47.15584],[11.38941,47.15506],[11.39174,47.15293],[11.39274,47.15203],[11.39421,47.15069],[11.39466,47.15028],[11.39501,47.14996]]}},{"type":"Feature","properties":{"name":"StartBahn","aerialway":"chair_lift","aerialway:occupancy":"2","osm":"way/23362767"},"geometry":{"type":"LineString","coordinates":[[11.02415,47.21428],[11.02335,47.21494],[11.02255,47.2156]]}},{"type":"Feature","properties":{"name":"Tulfein Express (Glungezerbahn II)","aerialway":"mixed_lift","aerialway:occupancy":"8","osm":"way/842247153"},"geometry":{"type":"LineString","coordinates":[[11.5434,47.24151],[11.52983,47.22637]]}},{"type":"Feature","properties":{"name":"Vierersesselbahn Sennjoch","aerialway":"chair_lift","aerialway:occupancy":"4","aerialway:duration":"8:30","osm":"way/29262933"},"geometry":{"type":"LineString","coordinates":[[11.30293,47.15405],[11.30282,47.1538],[11.3026,47.15332],[11.30227,47.15257],[11.30151,47.15089],[11.30114,47.15007],[11.30077,47.14922],[11.30024,47.14804],[11.29969,47.14682],[11.29885,47.14493],[11.29855,47.14427],[11.29809,47.14323],[11.29773,47.14243],[11.29715,47.14114],[11.29693,47.14066],[11.29642,47.13951],[11.29616,47.13893],[11.29595,47.13847],[11.29593,47.13843],[11.2958,47.13812]]}},{"type":"Feature","properties":{"name":"Wiesbergbahn","aerialway":"chair_lift","aerialway:occupancy":"4","aerialway:duration":"6","osm":"way/23362765"},"geometry":{"type":"LineString","coordinates":[[11.02581,47.21412],[11.0261,47.21378],[11.02683,47.21288],[11.02752,47.21204],[11.02815,47.21127],[11.02892,47.21032],[11.02937,47.20978]]}},{"type":"Feature","properties":{"name":"Zirmachbahn","aerialway":"chair_lift","aerialway:occupancy":"6","aerialway:duration":"3:30","osm":"way/324328520"},"geometry":{"type":"LineString","coordinates":[[11.29207,47.14459],[11.29216,47.14435],[11.29233,47.14391],[11.29287,47.14245],[11.29327,47.1414],[11.29386,47.13982],[11.29423,47.13882],[11.29459,47.13786],[11.29474,47.13751]]}}]}