{"type":"FeatureCollection","features":[{"type":"Feature","properties":{"name":"Acherkogel","ele":"3008","wikipedia":"de:Acherkogel","wikidata":"Q871698","natural":"peak","osm":"node/256041586"},"geometry":{"type":"Point","coordinates":[10.95665,47.18921]}},{"type":"Feature","properties":{"name":"Achselkopf","ele":"1560","wikidata":"Q21873266","natural":"peak","osm":"node/4294888409"},"geometry":{"type":"Point","coordinates":[11.35589,47.28482]}},{"type":"Feature","properties":{"name":"Ampferstein","ele":"2556","wikipedia":"de:Ampferstein","summit:cross":"yes","wikidata":"Q474597","natural":"peak","osm":"node/794107993"},"geometry":{"type":"Point","coordinates":[11.31326,47.17444]}},{"type":"Feature","properties":{"name":"Angerbergkopf","ele":"2380","natural":"peak","osm":"node/413594806"},"geometry":{"type":"Point","coordinates":[11.23808,47.16289]}},{"type":"Feature","properties":{"name":"Archbrandköpfl","ele":"1960","summit:cross":"yes","natural":"peak","osm":"node/7698991886"},"geometry":{"type":"Point","coordinates":[11.15394,47.2516]}},{"type":"Feature","properties":{"name":"Arwesköpfl","ele":"2210","natural":"peak","osm":"node/8588878797"},"geometry":{"type":"Point","coordinates":[11.19078,47.16789]}},{"type":"Feature","properties":{"name":"Arweswände","ele":"2500","natural":"peak","osm":"node/413593780"},"geometry":{"type":"Point","coordinates":[11.18681,47.15565]}},{"type":"Feature","properties":{"name":"Arzberg","ele":"1069","natural":"peak","osm":"node/5926552278"},"geometry":{"type":"Point","coordinates":[11.08457,47.32688]}},{"type":"Feature","properties":{"name":"Auf Sömen","ele":"2798","natural":"peak","osm":"node/876250618"},"geometry":{"type":"Point","coordinates":[11.16991,47.14754]}},{"type":"Feature","properties":{"name":"Axamer Kögele","ele":"2097","summit:cross":"yes","wikidata":"Q25807405","natural":"peak","osm":"node/413596352"},"geometry":{"type":"Point","coordinates":[11.27796,47.20007]}},{"type":"Feature","properties":{"name":"Bachwandkogel","ele":"2762","natural":"peak","osm":"node/1079006418"},"geometry":{"type":"Point","coordinates":[11.0516,47.24741]}},{"type":"Feature","properties":{"name":"Bendelstein","ele":"2436","description":"Gipfelkreuz 2013 zur 1000. Besteigung eines Anreiners aufgestellt","summit:cross":"yes","wikidata":"Q21878585","natural":"peak","osm":"node/1645109115"},"geometry":{"type":"Point","coordinates":[11.52213,47.10354]}},{"type":"Feature","properties":{"name":"Bergisel","ele":"746","wikipedia":"de:Bergisel","wikidata":"Q683996","natural":"peak","osm":"node/256041626"},"geometry":{"type":"Point","coordinates":[11.40014,47.24675]}},{"type":"Feature","properties":{"name":"Berglasspitze","ele":"3123","natural":"peak","osm":"node/2992569378"},"geometry":{"type":"Point","coordinates":[11.12839,47.08068]}},{"type":"Feature","properties":{"name":"Birgitzköpfl","ele":"1980","wikipedia":"de:Birgitzköpfl","summit:cross":"yes","wikimedia_commons":"Category:Birgitzköpfl","wikidata":"Q15052125","natural":"peak","osm":"node/880157447"},"geometry":{"type":"Point","coordinates":[11.31472,47.19888]}},{"type":"Feature","properties":{"name":"Blaser","ele":"2241","wikipedia":"de:Blaser (Berg)","summit:cross":"yes","wikidata":"Q881857","natural":"peak","osm":"node/1650238492"},"geometry":{"type":"Point","coordinates":[11.41167,47.10651]}},{"type":"Feature","properties":{"name":"Blechnerkamp","ele":"2995","natural":"peak","osm":"node/5895175354"},"geometry":{"type":"Point","coordinates":[11.15134,47.09462]}},{"type":"Feature","properties":{"name":"Bockkarlturm","ele":"2502","natural":"peak","osm":"node/6158793699"},"geometry":{"type":"Point","coordinates":[11.54126,47.34106]}},{"type":"Feature","properties":{"name":"Brand","ele":"2283","wikidata":"Q21878545","natural":"peak","osm":"node/2992573106"},"geometry":{"type":"Point","coordinates":[10.98765,47.12564]}},{"type":"Feature","properties":{"name":"Brandjochkreuz","ele":"2268","wikidata":"Q110087268","natural":"peak","osm":"node/1499407286"},"geometry":{"type":"Point","coordinates":[11.34347,47.29569]}},{"type":"Feature","properties":{"name":"Brechten","ele":"2419","natural":"peak","osm":"node/3089147113"},"geometry":{"type":"Point","coordinates":[11.13219,47.24325]}},{"type":"Feature","properties":{"name":"Breiter Grieskogel","ele":"3287","wikipedia":"de:Breiter Grießkogel","wikidata":"Q873513","natural":"peak","osm":"node/256041755"},"geometry":{"type":"Point","coordinates":[11.02262,47.10126]}},{"type":"Feature","properties":{"name":"Breitschwemmkogel","ele":"2260","natural":"peak","osm":"node/413594827"},"geometry":{"type":"Point","coordinates":[11.24434,47.17562]}},{"type":"Feature","properties":{"name":"Brennerköpfl","ele":"1490","natural":"peak","osm":"node/1675733353"},"geometry":{"type":"Point","coordinates":[11.17458,47.31097]}},{"type":"Feature","properties":{"name":"Brennerspitze","ele":"2877","wikidata":"Q21878632","natural":"peak","osm":"node/2017736165"},"geometry":{"type":"Point","coordinates":[11.22817,47.08419]}},{"type":"Feature","properties":{"name":"Brunschkopf","ele":"1510","natural":"peak","osm":"node/13947706724"},"geometry":{"type":"Point","coordinates":[11.15667,47.3277]}},{"type":"Feature","properties":{"name":"Brunstkopf","ele":"1930","natural":"peak","osm":"node/524403673"},"geometry":{"type":"Point","coordinates":[11.27183,47.34407]}},{"type":"Feature","properties":{"name":"Brunstkopf","ele":"1719","summit:cross":"no","natural":"peak","osm":"node/7567221601"},"geometry":{"type":"Point","coordinates":[11.25644,47.29481]}},{"type":"Feature","properties":{"name":"Bärenkopf","ele":"1837","natural":"peak","osm":"node/2824169202"},"geometry":{"type":"Point","coordinates":[11.48904,47.10579]}},{"type":"Feature","properties":{"name":"Die Mute","ele":"2398","summit:cross":"yes","image":"https://bergtourentipp-tirol.at/wp-content/uploads/2021/09/Photo_1632421487533_compress70.jpg","wikidata":"Q2113722","natural":"peak","osm":"node/2986107483"},"geometry":{"type":"Point","coordinates":[11.017,47.20058]}},{"type":"Feature","properties":{"name":"Durrenseespitze","ele":"2651","summit:cross":"yes","natural":"peak","osm":"node/1650631544"},"geometry":{"type":"Point","coordinates":[11.5246,47.18586]}},{"type":"Feature","properties":{"name":"Durschkopf","ele":"1639","natural":"peak","osm":"node/758590448"},"geometry":{"type":"Point","coordinates":[11.22359,47.30062]}},{"type":"Feature","properties":{"name":"Edelweißgufel","ele":"1830","natural":"peak","osm":"node/7567221612"},"geometry":{"type":"Point","coordinates":[11.32572,47.2926]}},{"type":"Feature","properties":{"name":"Eibenkopf","ele":"1275","natural":"peak","osm":"node/7619344336"},"geometry":{"type":"Point","coordinates":[11.50202,47.32572]}},{"type":"Feature","properties":{"name":"Elferspitze","ele":"2505","wikipedia":"de:Elferspitze (Stubaier Alpen)","wikidata":"Q1328517","natural":"peak","osm":"node/1364204763"},"geometry":{"type":"Point","coordinates":[11.31281,47.08246]}},{"type":"Feature","properties":{"name":"Erlspitze","ele":"2405","wikipedia":"de:Erlspitze","summit:cross":"yes","wikidata":"Q1355688","natural":"peak","osm":"node/293014597"},"geometry":{"type":"Point","coordinates":[11.28504,47.32012]}},{"type":"Feature","properties":{"name":"Ernst-Riml-Spitz","ele":"2507","natural":"peak","man_made":"cross","osm":"node/1367870779"},"geometry":{"type":"Point","coordinates":[11.06175,47.08555]}},{"type":"Feature","properties":{"name":"Fallbachkartürme","ele":"2620","natural":"peak","osm":"node/2329366377"},"geometry":{"type":"Point","coordinates":[11.52383,47.34485]}},{"type":"Feature","properties":{"name":"Fallbachkartürme","ele":"2535","natural":"peak","osm":"node/7608354952"},"geometry":{"type":"Point","coordinates":[11.5307,47.34503]}},{"type":"Feature","properties":{"name":"Fallbachkartürme","ele":"2545","natural":"peak","osm":"node/7608354953"},"geometry":{"type":"Point","coordinates":[11.52933,47.34547]}},{"type":"Feature","properties":{"name":"Faltegartenkögele","ele":"2184","summit:cross":"yes","image":"https://bergtourentipp-tirol.at/wp-content/uploads/2021/10/Faltegartenkoepfl_16.jpg","wikidata":"Q21878304","natural":"peak","osm":"node/1485219573"},"geometry":{"type":"Point","coordinates":[10.95819,47.24377]}},{"type":"Feature","properties":{"name":"Figl","ele":"1944","summit:cross":"yes","natural":"peak","osm":"node/427615023"},"geometry":{"type":"Point","coordinates":[11.24426,47.20541]}},{"type":"Feature","properties":{"name":"Finstertalegg","ele":"1468","natural":"peak","osm":"node/4209518331"},"geometry":{"type":"Point","coordinates":[11.29014,47.27322]}},{"type":"Feature","properties":{"name":"Flaurlinger Joch","ele":"2150","summit:cross":"yes","image":"https://bergtourentipp-tirol.at/wp-content/uploads/2022/09/Pollinger-Kreuz-Flaurlinger-Joch_5.jpg","natural":"peak","osm":"node/2150559494"},"geometry":{"type":"Point","coordinates":[11.12619,47.25877]}},{"type":"Feature","properties":{"name":"Fleischbankspitze","ele":"2206","natural":"peak","osm":"node/524403671"},"geometry":{"type":"Point","coordinates":[11.28671,47.32978]}},{"type":"Feature","properties":{"name":"Fleischbanktürme","ele":"2206","natural":"peak","osm":"node/524403664"},"geometry":{"type":"Point","coordinates":[11.28628,47.3246]}},{"type":"Feature","properties":{"name":"Fleischbanktürme","ele":"2213","natural":"peak","osm":"node/7716382592"},"geometry":{"type":"Point","coordinates":[11.28521,47.32355]}},{"type":"Feature","properties":{"name":"Foppmandl","ele":"2412","natural":"peak","osm":"node/1645838970"},"geometry":{"type":"Point","coordinates":[11.36552,47.08514]}},{"type":"Feature","properties":{"name":"Frau Hitt","ele":"2270","wikipedia":"de:Frau Hitt","wikidata":"Q877602","natural":"peak","osm":"node/1627270003"},"geometry":{"type":"Point","coordinates":[11.35047,47.30518]}},{"type":"Feature","properties":{"name":"Freihut","ele":"2625","wikipedia":"de:Freihut","wikidata":"Q21870790","natural":"peak","osm":"node/11128572557"},"geometry":{"type":"Point","coordinates":[11.11854,47.18279]}},{"type":"Feature","properties":{"name":"Freihut (Gipfelkreuz)","ele":"2616","summit:cross":"yes","natural":"peak","osm":"node/1105210481"},"geometry":{"type":"Point","coordinates":[11.12222,47.18378]}},{"type":"Feature","properties":{"name":"Freiungen (W)","ele":"2332","wikipedia":"de:Freiungspitzen","wikidata":"Q1454836","natural":"peak","osm":"node/524403660"},"geometry":{"type":"Point","coordinates":[11.25557,47.31773]}},{"type":"Feature","properties":{"name":"Gacher Blick","ele":"1909","wikidata":"Q21878124","natural":"peak","osm":"node/5062450983"},"geometry":{"type":"Point","coordinates":[10.98038,47.34215]}},{"type":"Feature","properties":{"name":"Gaiskogel","ele":"2820","wikipedia":"de:Gaißkogel","summit:cross":"yes","wikidata":"Q1491557","natural":"peak","osm":"node/1567673459"},"geometry":{"type":"Point","coordinates":[11.05368,47.20408]}},{"type":"Feature","properties":{"name":"Gaiskogel","ele":"2720","natural":"peak","osm":"node/3713739095"},"geometry":{"type":"Point","coordinates":[10.98549,47.16257]}},{"type":"Feature","properties":{"name":"Gallwieser Mittergrat","ele":"2843","natural":"peak","osm":"node/9483454664"},"geometry":{"type":"Point","coordinates":[11.16832,47.13172]}},{"type":"Feature","properties":{"name":"Gamskogel","ele":"2659","natural":"peak","osm":"node/472602828"},"geometry":{"type":"Point","coordinates":[11.25991,47.14294]}},{"type":"Feature","properties":{"name":"Gamskogel","ele":"2965","natural":"peak","osm":"node/1567673466"},"geometry":{"type":"Point","coordinates":[11.01163,47.17765]}},{"type":"Feature","properties":{"name":"Gamskogel","ele":"2229","natural":"peak","osm":"node/5190862737"},"geometry":{"type":"Point","coordinates":[11.18889,47.18861]}},{"type":"Feature","properties":{"name":"Gamskögele","ele":"2912","natural":"peak","osm":"node/1567673486"},"geometry":{"type":"Point","coordinates":[11.02282,47.17532]}},{"type":"Feature","properties":{"name":"Gamslahnerspitze","ele":"2681","natural":"peak","osm":"node/1650631568"},"geometry":{"type":"Point","coordinates":[11.53185,47.19835]}},{"type":"Feature","properties":{"name":"Gamsspitze","ele":"2706","summit:cross":"yes","natural":"peak","osm":"node/11980600223"},"geometry":{"type":"Point","coordinates":[11.23107,47.09289]}},{"type":"Feature","properties":{"name":"Garberskopf","ele":"1903","summit:cross":"yes","natural":"peak","osm":"node/4584227381"},"geometry":{"type":"Point","coordinates":[11.26525,47.30166]}},{"type":"Feature","properties":{"name":"Gauggenkopf","ele":"1650","natural":"peak","osm":"node/5928695277"},"geometry":{"type":"Point","coordinates":[11.29663,47.35304]}},{"type":"Feature","properties":{"name":"Geirneggelen","ele":"2535","natural":"peak","osm":"node/3939557451"},"geometry":{"type":"Point","coordinates":[11.00805,47.22572]}},{"type":"Feature","properties":{"name":"Gipfelkreuz Haneburger","ele":"2580","summit:cross":"yes","natural":"peak","osm":"node/5927674903"},"geometry":{"type":"Point","coordinates":[11.58456,47.21435]}},{"type":"Feature","properties":{"name":"Gipfelkreuz Seekarspitze","ele":"2649","summit:cross":"yes","natural":"peak","osm":"node/1645475763"},"geometry":{"type":"Point","coordinates":[11.5793,47.17956]}},{"type":"Feature","properties":{"name":"Gleinser Berg","ele":"1670","natural":"peak","osm":"node/2824184501"},"geometry":{"type":"Point","coordinates":[11.41743,47.15946]}},{"type":"Feature","properties":{"name":"Gleirscher Fernerkogel","ele":"3189","wikipedia":"de:Gleirscher Fernerkogel","wikidata":"Q1530470","natural":"peak","osm":"node/321176177"},"geometry":{"type":"Point","coordinates":[11.06356,47.11387]}},{"type":"Feature","properties":{"name":"Gleirscher Roßkogel","ele":"2994","wikipedia":"de:Gleirscher Rosskogel","wikidata":"Q22662099","natural":"peak","osm":"node/2975520475"},"geometry":{"type":"Point","coordinates":[11.04961,47.15717]}},{"type":"Feature","properties":{"name":"Gleirschspitze","ele":"2317","wikipedia":"de:Gleirschspitze","summit:cross":"yes","wikidata":"Q1530467","natural":"peak","osm":"node/524663440"},"geometry":{"type":"Point","coordinates":[11.39818,47.31564]}},{"type":"Feature","properties":{"name":"Glungezer","ele":"2677","wikipedia":"de:Glungezer","wikidata":"Q671146","natural":"peak","osm":"node/256041742"},"geometry":{"type":"Point","coordinates":[11.52838,47.2076]}},{"type":"Feature","properties":{"name":"Gollnkopf","ele":"2361","natural":"peak","osm":"node/13594213335"},"geometry":{"type":"Point","coordinates":[11.58494,47.13911]}},{"type":"Feature","properties":{"name":"Grafmartspitze","ele":"2720","summit:cross":"yes","natural":"peak","osm":"node/1650631452"},"geometry":{"type":"Point","coordinates":[11.55215,47.17161]}},{"type":"Feature","properties":{"name":"Grastaler Grieskogel","ele":"3168","natural":"peak","osm":"node/2992157787"},"geometry":{"type":"Point","coordinates":[11.01168,47.10906]}},{"type":"Feature","properties":{"name":"Grieskogel","ele":"2158","summit:cross":"yes","wikidata":"Q21878402","natural":"peak","osm":"node/413594836"},"geometry":{"type":"Point","coordinates":[11.24501,47.18817]}},{"type":"Feature","properties":{"name":"Große Ochsenwand","ele":"2700","wikipedia":"de:Große Ochsenwand","summit:cross":"yes","wikidata":"Q14906732","natural":"peak","osm":"node/413595395"},"geometry":{"type":"Point","coordinates":[11.27852,47.15445]}},{"type":"Feature","properties":{"name":"Große Stempeljochspitze","ele":"2543","wikipedia":"de:Stempeljochspitze","wikidata":"Q2342508","natural":"peak","osm":"node/524813685"},"geometry":{"type":"Point","coordinates":[11.43832,47.33463]}},{"type":"Feature","properties":{"name":"Große Wechselspitze","ele":"2319","natural":"peak","osm":"node/2329366385"},"geometry":{"type":"Point","coordinates":[11.52396,47.33559]}},{"type":"Feature","properties":{"name":"Großer Bettelwurf","ele":"2725","wikipedia":"de:Großer Bettelwurf","summit:cross":"yes","wikidata":"Q871845","natural":"peak","osm":"node/1617864095"},"geometry":{"type":"Point","coordinates":[11.51987,47.34423]}},{"type":"Feature","properties":{"name":"Großer Gschnierkopf","ele":"2053","natural":"peak","osm":"node/2329366386"},"geometry":{"type":"Point","coordinates":[11.45937,47.35224]}},{"type":"Feature","properties":{"name":"Großer Lafatscher","ele":"2696","wikipedia":"de:Großer Lafatscher","wikidata":"Q290991","natural":"peak","osm":"node/26863055"},"geometry":{"type":"Point","coordinates":[11.45257,47.34566]}},{"type":"Feature","properties":{"name":"Großer Peistakogel","ele":"2737","summit:cross":"yes","natural":"peak","osm":"node/672356977"},"geometry":{"type":"Point","coordinates":[10.98452,47.15394]}},{"type":"Feature","properties":{"name":"Großer Solstein","ele":"2541","wikipedia":"de:Großer Solstein","summit:cross":"yes","wikidata":"Q873196","natural":"peak","osm":"node/255973617"},"geometry":{"type":"Point","coordinates":[11.30766,47.3027]}},{"type":"Feature","properties":{"name":"Großes Windegg","ele":"2651","natural":"peak","osm":"node/9483595951"},"geometry":{"type":"Point","coordinates":[10.95253,47.19912]}},{"type":"Feature","properties":{"name":"Grubreisentürme","ele":"2250","wikipedia":"de:Grubreisentürme","wikidata":"Q109336133","natural":"peak","osm":"node/5928695280"},"geometry":{"type":"Point","coordinates":[11.37809,47.31882]}},{"type":"Feature","properties":{"name":"Grubreisentürme","ele":"2207","wikipedia":"de:Grubreisentürme","wikidata":"Q109336133","natural":"peak","osm":"node/7608354940"},"geometry":{"type":"Point","coordinates":[11.37799,47.32003]}},{"type":"Feature","properties":{"name":"Grubreisentürme","ele":"2260","wikipedia":"de:Grubreisentürme","wikidata":"Q109336133","natural":"peak","osm":"node/7608354941"},"geometry":{"type":"Point","coordinates":[11.37846,47.31915]}},{"type":"Feature","properties":{"name":"Gruegrat","ele":"2704","summit:cross":"yes","natural":"peak","osm":"node/5825230753"},"geometry":{"type":"Point","coordinates":[10.97298,47.15243]}},{"type":"Feature","properties":{"name":"Grünbergspitze","ele":"2790","wikipedia":"de:Grünbergspitze","summit:cross":"yes","wikidata":"Q72830341","natural":"peak","osm":"node/1650631455"},"geometry":{"type":"Point","coordinates":[11.54696,47.17415]}},{"type":"Feature","properties":{"name":"Grüne Tatzen","ele":"2952","natural":"peak","osm":"node/2992573107"},"geometry":{"type":"Point","coordinates":[11.08088,47.08467]}},{"type":"Feature","properties":{"name":"Gschwandtkopf","ele":"1495","wikipedia":"de:Gschwandtkopf","wikidata":"Q18125318","natural":"peak","osm":"node/1675733988"},"geometry":{"type":"Point","coordinates":[11.17879,47.31393]}},{"type":"Feature","properties":{"name":"Gschwezgrat","ele":"2503","natural":"peak","osm":"node/11298729002"},"geometry":{"type":"Point","coordinates":[11.17945,47.08088]}},{"type":"Feature","properties":{"name":"Gänsekragen","ele":"2914","wikipedia":"de:Gänsekragen","summit:cross":"yes","wikidata":"Q1293529","natural":"peak","osm":"node/1872379118"},"geometry":{"type":"Point","coordinates":[11.0396,47.09011]}},{"type":"Feature","properties":{"name":"Hablerberg","ele":"1925","natural":"peak","osm":"node/2824176901"},"geometry":{"type":"Point","coordinates":[11.42555,47.10246]}},{"type":"Feature","properties":{"name":"Hafelekarspitze","ele":"2334","wikipedia":"de:Hafelekarspitze","summit:cross":"yes","wikidata":"Q875071","natural":"peak","osm":"node/1620258707"},"geometry":{"type":"Point","coordinates":[11.38632,47.31283]}},{"type":"Feature","properties":{"name":"Haidenspitze","ele":"2975","wikipedia":"de:Haidenspitze","wikidata":"Q22927280","natural":"peak","osm":"node/3523407180"},"geometry":{"type":"Point","coordinates":[11.06737,47.17223]}},{"type":"Feature","properties":{"name":"Haller Zunterkopf","ele":"1966","wikipedia":"de:Haller Zunterkopf","summit:cross":"yes","wikidata":"Q1386128","natural":"peak","osm":"node/1620258571"},"geometry":{"type":"Point","coordinates":[11.48431,47.3192]}},{"type":"Feature","properties":{"name":"Haneburger","ele":"2596","wikipedia":"de:Haneburger","summit:cross":"separate","wikidata":"Q1575355","natural":"peak","osm":"node/2825971605"},"geometry":{"type":"Point","coordinates":[11.58479,47.21218]}},{"type":"Feature","properties":{"name":"Haratzköpfl","ele":"2170","natural":"peak","osm":"node/2825970811"},"geometry":{"type":"Point","coordinates":[11.60154,47.21311]}},{"type":"Feature","properties":{"name":"Hausleger","ele":"2237","natural":"peak","osm":"node/3089147114"},"geometry":{"type":"Point","coordinates":[11.10897,47.23589]}},{"type":"Feature","properties":{"name":"Hechenberg","ele":"1745","operator":"Alpiner Club Hechenbergler","summit:cross":"yes","natural":"peak","osm":"node/524429129"},"geometry":{"type":"Point","coordinates":[11.31473,47.27738]}},{"type":"Feature","properties":{"name":"Hechenbergl","ele":"1411","natural":"peak","osm":"node/4209518332"},"geometry":{"type":"Point","coordinates":[11.32072,47.27798]}},{"type":"Feature","properties":{"name":"Hemerkogel","ele":"2759","natural":"peak","osm":"node/1589973950"},"geometry":{"type":"Point","coordinates":[10.98548,47.10841]}},{"type":"Feature","properties":{"name":"Heuberg","ele":"980","natural":"peak","osm":"node/2329366390"},"geometry":{"type":"Point","coordinates":[11.50982,47.31355]}},{"type":"Feature","properties":{"name":"Hintere Bachofenspitze","ele":"2668","wikipedia":"de:Hintere Bachofenspitze","wikidata":"Q873441","natural":"peak","osm":"node/524798219"},"geometry":{"type":"Point","coordinates":[11.43834,47.34559]}},{"type":"Feature","properties":{"name":"Hintere Brandjochspitze","ele":"2596","wikipedia":"de:Hintere Brandjochspitze","wikidata":"Q1619661","natural":"peak","osm":"node/524435070"},"geometry":{"type":"Point","coordinates":[11.33921,47.30291]}},{"type":"Feature","properties":{"name":"Hintere Grubenwand","ele":"3173","wikipedia":"de:Grubenwand","wikidata":"Q1550229","natural":"peak","osm":"node/9483454674"},"geometry":{"type":"Point","coordinates":[11.08474,47.11798]}},{"type":"Feature","properties":{"name":"Hintere Karlesspitze","ele":"2641","summit:cross":"yes","natural":"peak","osm":"node/1737279557"},"geometry":{"type":"Point","coordinates":[10.9694,47.20034]}},{"type":"Feature","properties":{"name":"Hintere Sonnenwand","ele":"3106","natural":"peak","osm":"node/2992157788"},"geometry":{"type":"Point","coordinates":[11.06165,47.12378]}},{"type":"Feature","properties":{"name":"Hinterer Grieskogel","ele":"2684","natural":"peak","osm":"node/1079006382"},"geometry":{"type":"Point","coordinates":[11.00393,47.22933]}},{"type":"Feature","properties":{"name":"Hinterer Mittertalkopf","ele":"2640","natural":"peak","osm":"node/3523407181"},"geometry":{"type":"Point","coordinates":[10.98019,47.189]}},{"type":"Feature","properties":{"name":"Hinterer Schönbichl","ele":"2331","natural":"peak","osm":"node/7574480217"},"geometry":{"type":"Point","coordinates":[11.51173,47.19352]}},{"type":"Feature","properties":{"name":"Hinterödkopf","ele":"2451","natural":"peak","osm":"node/524786140"},"geometry":{"type":"Point","coordinates":[11.38291,47.3563]}},{"type":"Feature","properties":{"name":"Hippenspitze","ele":"2386","natural":"peak","osm":"node/524435076"},"geometry":{"type":"Point","coordinates":[11.3385,47.3101]}},{"type":"Feature","properties":{"name":"Hirschstein","ele":"2281","summit:cross":"yes","natural":"peak","osm":"node/623983270"},"geometry":{"type":"Point","coordinates":[11.53145,47.15054]}},{"type":"Feature","properties":{"name":"Hoadl","ele":"2340","wikipedia":"de:Hoadl","wikidata":"Q14531135","natural":"peak","osm":"node/1088031979"},"geometry":{"type":"Point","coordinates":[11.28149,47.18304]}},{"type":"Feature","properties":{"name":"Hochalter","ele":"2678","wikipedia":"de:Hochalter","wikidata":"Q29441801","natural":"peak","osm":"node/1079006414"},"geometry":{"type":"Point","coordinates":[11.03089,47.23157]}},{"type":"Feature","properties":{"name":"Hochbrunnachkogel","ele":"2889","natural":"peak","osm":"node/9483595945"},"geometry":{"type":"Point","coordinates":[10.96229,47.17702]}},{"type":"Feature","properties":{"name":"Hocheder","ele":"2796","natural":"peak","man_made":"survey_point","osm":"node/413592544"},"geometry":{"type":"Point","coordinates":[11.07107,47.25227]}},{"type":"Feature","properties":{"name":"Hochleithenkopf","ele":"1276","natural":"peak","osm":"node/5554406426"},"geometry":{"type":"Point","coordinates":[11.18992,47.29781]}},{"type":"Feature","properties":{"name":"Hochmahdkopf","ele":"1738","summit:cross":"yes","wikidata":"Q21878178","natural":"peak","osm":"node/759624456"},"geometry":{"type":"Point","coordinates":[11.49846,47.31954]}},{"type":"Feature","properties":{"name":"Hochmoos","ele":"1558","wikidata":"Q21871843","natural":"peak","osm":"node/11243529771"},"geometry":{"type":"Point","coordinates":[11.14497,47.34645]}},{"type":"Feature","properties":{"name":"Hochplattig","ele":"2768","wikipedia":"de:Hochplattig","wikidata":"Q873696","natural":"peak","osm":"node/26863185"},"geometry":{"type":"Point","coordinates":[10.98837,47.35313]}},{"type":"Feature","properties":{"name":"Hochreichkopf","ele":"3010","wikipedia":"de:Hochreichkopf","wikidata":"Q1622011","natural":"peak","osm":"node/256041825"},"geometry":{"type":"Point","coordinates":[10.96977,47.17045]}},{"type":"Feature","properties":{"name":"Hochtennspitze","ele":"2549","wikipedia":"de:Hochtennspitze","summit:cross":"yes","wikidata":"Q15056702","natural":"peak","osm":"node/413595689"},"geometry":{"type":"Point","coordinates":[11.29012,47.17116]}},{"type":"Feature","properties":{"name":"Hochwandkopf","ele":"1579","summit:cross":"yes","natural":"peak","osm":"node/524429125"},"geometry":{"type":"Point","coordinates":[11.28008,47.27667]}},{"type":"Feature","properties":{"name":"Hochwanner","ele":"2456","natural":"peak","osm":"node/1079006425"},"geometry":{"type":"Point","coordinates":[11.01676,47.23908]}},{"type":"Feature","properties":{"name":"Hochwanner","ele":"2488","natural":"peak","osm":"node/3523407182"},"geometry":{"type":"Point","coordinates":[10.99299,47.20152]}},{"type":"Feature","properties":{"name":"Hohe Fürleg","ele":"2570","wikipedia":"de:Hohe Fürleg (Karwendel)","wikidata":"Q2719093","natural":"peak","osm":"node/525248728"},"geometry":{"type":"Point","coordinates":[11.53449,47.34028]}},{"type":"Feature","properties":{"name":"Hohe Geige","ele":"2538","natural":"peak","osm":"node/9613293218"},"geometry":{"type":"Point","coordinates":[11.0237,47.08488]}},{"type":"Feature","properties":{"name":"Hohe Munde Ostgipfel","ele":"2592","wikipedia":"de:Hohe Munde","summit:cross":"yes","wikidata":"Q389939","natural":"peak","osm":"node/256041976"},"geometry":{"type":"Point","coordinates":[11.08121,47.34621]}},{"type":"Feature","properties":{"name":"Hohe Munde Westgipfel","ele":"2662","wikipedia":"de:Hohe Munde","summit:cross":"yes","wikidata":"Q389939","natural":"peak","osm":"node/656014516"},"geometry":{"type":"Point","coordinates":[11.07173,47.34705]}},{"type":"Feature","properties":{"name":"Hohe Schöne","ele":"2675","natural":"peak","osm":"node/4911559798"},"geometry":{"type":"Point","coordinates":[11.22134,47.1314]}},{"type":"Feature","properties":{"name":"Hohe Villerspitze","ele":"3087","wikipedia":"de:Hohe Villerspitze","wikidata":"Q1623545","natural":"peak","osm":"node/256042848"},"geometry":{"type":"Point","coordinates":[11.16539,47.10673]}},{"type":"Feature","properties":{"name":"Hohe Wand","ele":"1862","natural":"peak","osm":"node/2329366391"},"geometry":{"type":"Point","coordinates":[11.48224,47.33836]}},{"type":"Feature","properties":{"name":"Hohe Wand / Hochwand","ele":"2719","wikipedia":"de:Hochwand","wikidata":"Q1622423","natural":"peak","osm":"node/508548893"},"geometry":{"type":"Point","coordinates":[11.01545,47.35852]}},{"type":"Feature","properties":{"name":"Hohe Wand / Hochwand (Nebengipfel)","ele":"2715","wikipedia":"de:Hochwand","summit:cross":"yes","wikidata":"Q1622423","natural":"peak","osm":"node/3711071136"},"geometry":{"type":"Point","coordinates":[11.0131,47.3574]}},{"type":"Feature","properties":{"name":"Hohe Warte","ele":"2596","wikipedia":"de:Hohe Warte (Karwendel)","summit:cross":"yes","wikidata":"Q1552044","natural":"peak","osm":"node/256042844"},"geometry":{"type":"Point","coordinates":[11.33349,47.30159]}},{"type":"Feature","properties":{"name":"Hohe Warte","ele":"2398","wikidata":"Q114349767","natural":"peak","osm":"node/2824169601"},"geometry":{"type":"Point","coordinates":[11.58858,47.11569]}},{"type":"Feature","properties":{"name":"Hohe Wasserfalle","ele":"3003","wikipedia":"de:Hohe Wasserfalle","summit:cross":"yes","wikidata":"Q21124382","natural":"peak","osm":"node/672356984"},"geometry":{"type":"Point","coordinates":[10.9718,47.16525]}},{"type":"Feature","properties":{"name":"Hoher Burgstall","ele":"2611","wikipedia":"de:Hoher Burgstall (Kalkkögel)","summit:cross":"yes","wikidata":"Q15115073","natural":"peak","man_made":"cross","osm":"node/3890256582"},"geometry":{"type":"Point","coordinates":[11.28101,47.13336]}},{"type":"Feature","properties":{"name":"Hoher Plattkogel","ele":"2791","natural":"peak","osm":"node/1567673495"},"geometry":{"type":"Point","coordinates":[10.99691,47.17325]}},{"type":"Feature","properties":{"name":"Hoher Seeblaskogel","ele":"3235","wikipedia":"de:Hoher Seeblaskogel","wikidata":"Q1623934","natural":"peak","osm":"node/2439489407"},"geometry":{"type":"Point","coordinates":[11.07481,47.0956]}},{"type":"Feature","properties":{"name":"Holzköpfl","ele":"1893","summit:cross":"no","natural":"peak","osm":"node/1588713153"},"geometry":{"type":"Point","coordinates":[11.22938,47.30535]}},{"type":"Feature","properties":{"name":"Hundskopf","ele":"2243","wikipedia":"de:Hundskopf (Karwendel)","summit:cross":"yes","wikidata":"Q257419","natural":"peak","osm":"node/525248745"},"geometry":{"type":"Point","coordinates":[11.55824,47.3411]}},{"type":"Feature","properties":{"name":"Härmelekopf","ele":"2224","wikidata":"Q18125459","natural":"peak","osm":"node/1588713142"},"geometry":{"type":"Point","coordinates":[11.23081,47.32666]}},{"type":"Feature","properties":{"name":"Höhe Röte","ele":"2855","wikidata":"Q21863966","natural":"peak","osm":"node/9483454663"},"geometry":{"type":"Point","coordinates":[11.17083,47.12526]}},{"type":"Feature","properties":{"name":"Hörndle","ele":"2985","summit:cross":"yes","wikidata":"Q21928851","natural":"peak","osm":"node/1271290297"},"geometry":{"type":"Point","coordinates":[10.99425,47.09463]}},{"type":"Feature","properties":{"name":"Hühnereggen","ele":"2650","natural":"peak","osm":"node/413592801"},"geometry":{"type":"Point","coordinates":[11.17448,47.16047]}},{"type":"Feature","properties":{"name":"Hüttenspitze","ele":"1858","wikipedia":"de:Hüttenspitze","wikidata":"Q1652614","natural":"peak","osm":"node/524838525"},"geometry":{"type":"Point","coordinates":[11.52216,47.32973]}},{"type":"Feature","properties":{"name":"Innere Rigelkarspitze","ele":"2438","natural":"peak","osm":"node/524778997"},"geometry":{"type":"Point","coordinates":[11.37083,47.35667]}},{"type":"Feature","properties":{"name":"Jochgrubenkopf","ele":"2453","summit:cross":"yes","natural":"peak","osm":"node/2825971610"},"geometry":{"type":"Point","coordinates":[11.60785,47.09024]}},{"type":"Feature","properties":{"name":"Jochkreuz","ele":"2046","summit:cross":"yes","wikidata":"Q110442339","natural":"peak","osm":"node/2315903427"},"geometry":{"type":"Point","coordinates":[11.34621,47.18364]}},{"type":"Feature","properties":{"name":"Judenkopf","ele":"2021","website":"https://gipfelkreuz-judenkopf.at/","summit:cross":"yes","natural":"peak","osm":"node/5062450985"},"geometry":{"type":"Point","coordinates":[10.99778,47.34123]}},{"type":"Feature","properties":{"name":"Juifen","ele":"2200","summit:cross":"yes","natural":"peak","osm":"node/3921721548"},"geometry":{"type":"Point","coordinates":[11.16798,47.17054]}},{"type":"Feature","properties":{"name":"Jägerkarlspitze","ele":"2470","natural":"peak","osm":"node/524786141"},"geometry":{"type":"Point","coordinates":[11.39151,47.35099]}},{"type":"Feature","properties":{"name":"Jöchlegg","ele":"2107","summit:cross":"separate","natural":"peak","osm":"node/3258833504"},"geometry":{"type":"Point","coordinates":[11.13505,47.18938]}},{"type":"Feature","properties":{"name":"Karkopf","ele":"2469","wikidata":"Q21878102","natural":"peak","osm":"node/508548887"},"geometry":{"type":"Point","coordinates":[11.02718,47.35529]}},{"type":"Feature","properties":{"name":"Karlsgrat","ele":"2380","natural":"peak","osm":"node/413593773"},"geometry":{"type":"Point","coordinates":[11.18593,47.16221]}},{"type":"Feature","properties":{"name":"Kartellerjöchl","ele":"1731","natural":"peak","osm":"node/7603322330"},"geometry":{"type":"Point","coordinates":[11.47318,47.32839]}},{"type":"Feature","properties":{"name":"Kaskarspitze","ele":"2580","wikipedia":"de:Kaskarspitze","wikidata":"Q1734990","natural":"peak","osm":"node/524798214"},"geometry":{"type":"Point","coordinates":[11.41828,47.34781]}},{"type":"Feature","properties":{"name":"Katzenkopf","ele":"2531","natural":"peak","osm":"node/524778987"},"geometry":{"type":"Point","coordinates":[11.36433,47.35083]}},{"type":"Feature","properties":{"name":"Katzenkopf","ele":"1378","natural":"peak","osm":"node/9188195511"},"geometry":{"type":"Point","coordinates":[11.15898,47.35768]}},{"type":"Feature","properties":{"name":"Kemacher","ele":"2480","wikipedia":"de:Kemacher","summit:cross":"yes","wikidata":"Q18227865","natural":"peak","osm":"node/1588712607"},"geometry":{"type":"Point","coordinates":[11.36658,47.31267]}},{"type":"Feature","properties":{"name":"Kerrachspitze","ele":"2918","natural":"peak","osm":"node/9613293865"},"geometry":{"type":"Point","coordinates":[11.21622,47.08185]}},{"type":"Feature","properties":{"name":"Kesselspitze","ele":"2727","wikipedia":"de:Kesselspitze (Stubaier Alpen)","wikimedia_commons":"Category:Kesselspitze (Stubaier Alpen)","wikidata":"Q19287877","natural":"peak","osm":"node/1519365701"},"geometry":{"type":"Point","coordinates":[11.36468,47.10067]}},{"type":"Feature","properties":{"name":"Kiechlberg","ele":"1028","natural":"peak","osm":"node/5609853387"},"geometry":{"type":"Point","coordinates":[11.44751,47.30339]}},{"type":"Feature","properties":{"name":"Kirchbergköpfl","tourism":"viewpoint","ele":"1943","summit:cross":"yes","wikidata":"Q21878240","natural":"peak","osm":"node/431763023"},"geometry":{"type":"Point","coordinates":[11.30231,47.28141]}},{"type":"Feature","properties":{"name":"Kirchl","ele":"2225","natural":"peak","osm":"node/524403662"},"geometry":{"type":"Point","coordinates":[11.27435,47.31575]}},{"type":"Feature","properties":{"name":"Kleine Freihut","ele":"2579","summit:cross":"no","natural":"peak","osm":"node/1105210475"},"geometry":{"type":"Point","coordinates":[11.12021,47.187]}},{"type":"Feature","properties":{"name":"Kleine Ochsenwand","ele":"2520","wikipedia":"de:Kleine Ochsenwand","summit:cross":"yes","wikidata":"Q15823799","natural":"peak","osm":"node/413595455"},"geometry":{"type":"Point","coordinates":[11.27902,47.16005]}},{"type":"Feature","properties":{"name":"Kleine Stempeljochspitze","ele":"2529","summit:cross":"yes","natural":"peak","osm":"node/1620258558"},"geometry":{"type":"Point","coordinates":[11.43719,47.33295]}},{"type":"Feature","properties":{"name":"Kleine Wechselspitze","ele":"2099","natural":"peak","osm":"node/1988253420"},"geometry":{"type":"Point","coordinates":[11.52486,47.33335]}},{"type":"Feature","properties":{"name":"Kleiner Ampferstein","ele":"2400","natural":"peak","osm":"node/2824184503"},"geometry":{"type":"Point","coordinates":[11.31547,47.17072]}},{"type":"Feature","properties":{"name":"Kleiner Bettelwurf","ele":"2650","wikidata":"Q2620568","natural":"peak","osm":"node/1979180220"},"geometry":{"type":"Point","coordinates":[11.51003,47.34547]}},{"type":"Feature","properties":{"name":"Kleiner Gschnierkopf","ele":"1892","natural":"peak","osm":"node/2329366399"},"geometry":{"type":"Point","coordinates":[11.43746,47.35216]}},{"type":"Feature","properties":{"name":"Kleiner Katzenkopf","ele":"2359","natural":"peak","osm":"node/9465862396"},"geometry":{"type":"Point","coordinates":[11.35921,47.3505]}},{"type":"Feature","properties":{"name":"Kleiner Lafatscher","ele":"2635","wikipedia":"de:Kleiner Lafatscher","wikidata":"Q632467","natural":"peak","osm":"node/1620258646"},"geometry":{"type":"Point","coordinates":[11.45745,47.3471]}},{"type":"Feature","properties":{"name":"Kleiner Mugkogel","ele":"2446","natural":"peak","osm":"node/1079006434"},"geometry":{"type":"Point","coordinates":[11.0452,47.22885]}},{"type":"Feature","properties":{"name":"Kleiner Peistakogel","ele":"2644","summit:cross":"yes","natural":"peak","osm":"node/7895883445"},"geometry":{"type":"Point","coordinates":[10.99243,47.15255]}},{"type":"Feature","properties":{"name":"Kleiner Solstein","ele":"2637","wikipedia":"de:Kleiner Solstein","wikidata":"Q1746692","natural":"peak","osm":"node/1612610972"},"geometry":{"type":"Point","coordinates":[11.3244,47.30248]}},{"type":"Feature","properties":{"name":"Kleiner Wandkopf","ele":"1346","natural":"peak","osm":"node/6110958452"},"geometry":{"type":"Point","coordinates":[11.27331,47.27321]}},{"type":"Feature","properties":{"name":"Kleines Windegg","ele":"2617","natural":"peak","osm":"node/9483595952"},"geometry":{"type":"Point","coordinates":[10.95128,47.20109]}},{"type":"Feature","properties":{"name":"Kochler","ele":"2207","natural":"peak","osm":"node/2992157790"},"geometry":{"type":"Point","coordinates":[10.98397,47.08319]}},{"type":"Feature","properties":{"name":"Koflerspitze Ostgipfel","ele":"2612","natural":"peak","osm":"node/9625071570"},"geometry":{"type":"Point","coordinates":[11.13602,47.21732]}},{"type":"Feature","properties":{"name":"Koflerspitze Westgipfel","ele":"2663","natural":"peak","osm":"node/12335938559"},"geometry":{"type":"Point","coordinates":[11.12984,47.21819]}},{"type":"Feature","properties":{"name":"Kraspesspitz","ele":"2954","summit:cross":"yes","natural":"peak","osm":"node/672360338"},"geometry":{"type":"Point","coordinates":[11.043,47.18074]}},{"type":"Feature","properties":{"name":"Kreuzjochkogel","ele":"2746","natural":"peak","osm":"node/1079006387"},"geometry":{"type":"Point","coordinates":[11.04348,47.24595]}},{"type":"Feature","properties":{"name":"Kreuzjöchl","ele":"2536","summit:cross":"yes","wikidata":"Q21868703","natural":"peak","osm":"node/1645475769"},"geometry":{"type":"Point","coordinates":[11.59803,47.13211]}},{"type":"Feature","properties":{"name":"Kreuzjöchl","ele":"2043","summit:cross":"yes","natural":"peak","osm":"node/7716382639"},"geometry":{"type":"Point","coordinates":[11.27126,47.30948]}},{"type":"Feature","properties":{"name":"Kreuzkamp","ele":"3008","natural":"peak","osm":"node/5895175353"},"geometry":{"type":"Point","coordinates":[11.14754,47.09169]}},{"type":"Feature","properties":{"name":"Kreuzschröfen","ele":"2728","natural":"peak","osm":"node/2388864094"},"geometry":{"type":"Point","coordinates":[11.11558,47.13327]}},{"type":"Feature","properties":{"name":"Kreuzspitze","ele":"2746","summit:cross":"yes","wikidata":"Q21878408","natural":"peak","osm":"node/1650631543"},"geometry":{"type":"Point","coordinates":[11.53614,47.18509]}},{"type":"Feature","properties":{"name":"Krinnenköpfe","ele":"2139","natural":"peak","osm":"node/2422594852"},"geometry":{"type":"Point","coordinates":[11.3082,47.1477]}},{"type":"Feature","properties":{"name":"Kuchlböden","ele":"2278","natural":"peak","osm":"node/4946983530"},"geometry":{"type":"Point","coordinates":[11.60863,47.16113]}},{"type":"Feature","properties":{"name":"Kugelter Kopf","ele":"1472","natural":"peak","osm":"node/7600647716"},"geometry":{"type":"Point","coordinates":[11.4084,47.30808]}},{"type":"Feature","properties":{"name":"Kuglater Schrofen","ele":"2660","natural":"peak","osm":"node/3425259423"},"geometry":{"type":"Point","coordinates":[11.03333,47.17168]}},{"type":"Feature","properties":{"name":"Kuhljochspitze","ele":"2297","wikipedia":"de:Kuhljochspitze","summit:cross":"yes","wikidata":"Q1791229","natural":"peak","osm":"node/524403658"},"geometry":{"type":"Point","coordinates":[11.27138,47.31495]}},{"type":"Feature","properties":{"name":"Kumpfkarspitze","ele":"2375","natural":"peak","osm":"node/524453548"},"geometry":{"type":"Point","coordinates":[11.36521,47.31852]}},{"type":"Feature","properties":{"name":"Kupf","ele":"985","natural":"peak","osm":"node/5926552277"},"geometry":{"type":"Point","coordinates":[11.07919,47.32721]}},{"type":"Feature","properties":{"name":"Kögele","ele":"2195","summit:cross":"yes","natural":"peak","osm":"node/1901154253"},"geometry":{"type":"Point","coordinates":[11.17277,47.22337]}},{"type":"Feature","properties":{"name":"Köllenzeiger","tourism":"viewpoint","ele":"2226","natural":"peak","osm":"node/496260571"},"geometry":{"type":"Point","coordinates":[11.12398,47.13977]}},{"type":"Feature","properties":{"name":"Köpfle","ele":"2264","summit:cross":"yes","natural":"peak","osm":"node/2992157791"},"geometry":{"type":"Point","coordinates":[11.02939,47.08016]}},{"type":"Feature","properties":{"name":"Lafatscher Roßkopf","ele":"2494","natural":"peak","osm":"node/2329389974"},"geometry":{"type":"Point","coordinates":[11.46214,47.3487]}},{"type":"Feature","properties":{"name":"Lampsenspitze","ele":"2875","wikipedia":"de:Lampsenspitze","wikidata":"Q1801721","natural":"peak","osm":"node/1059284892"},"geometry":{"type":"Point","coordinates":[11.09565,47.15609]}},{"type":"Feature","properties":{"name":"Lanser Kopf","ele":"930","wikipedia":"de:Paschberg","wikidata":"Q2055415","natural":"peak","osm":"node/536218375"},"geometry":{"type":"Point","coordinates":[11.41806,47.24509]}},{"type":"Feature","properties":{"name":"Largoz","ele":"2214","wikipedia":"de:Largoz","summit:cross":"yes","wikidata":"Q1805941","natural":"peak","osm":"node/520460043"},"geometry":{"type":"Point","coordinates":[11.59257,47.24167]}},{"type":"Feature","properties":{"name":"Larstiger Fernerkopf","ele":"3203","natural":"peak","osm":"node/12364854769"},"geometry":{"type":"Point","coordinates":[11.0252,47.10626]}},{"type":"Feature","properties":{"name":"Larstigspitze","ele":"3172","wikidata":"Q2299113","natural":"peak","osm":"node/1567685050"},"geometry":{"type":"Point","coordinates":[11.03324,47.10883]}},{"type":"Feature","properties":{"name":"Lattenspitze","ele":"2330","summit:cross":"yes","natural":"peak","osm":"node/1620258545"},"geometry":{"type":"Point","coordinates":[11.44838,47.32542]}},{"type":"Feature","properties":{"name":"Lauser","ele":"2616","natural":"peak","osm":"node/3713739098"},"geometry":{"type":"Point","coordinates":[10.95274,47.17662]}},{"type":"Feature","properties":{"name":"Leschhorn","ele":"2724","natural":"peak","osm":"node/2992157792"},"geometry":{"type":"Point","coordinates":[11.04762,47.10015]}},{"type":"Feature","properties":{"name":"Lippenkopf","ele":"1260","natural":"peak","osm":"node/6746577028"},"geometry":{"type":"Point","coordinates":[11.48582,47.31011]}},{"type":"Feature","properties":{"name":"Lämpermahdspitze","ele":"2595","wikipedia":"de:Lämpermahdspitze","summit:cross":"yes","wikimedia_commons":"Category:Lämpermahdspitze","wikidata":"Q1485040","natural":"peak","osm":"node/2824176903"},"geometry":{"type":"Point","coordinates":[11.37715,47.11154]}},{"type":"Feature","properties":{"name":"Lärchberg","ele":"1367","natural":"peak","osm":"node/2329389978"},"geometry":{"type":"Point","coordinates":[11.50627,47.32052]}},{"type":"Feature","properties":{"name":"Lüsener Fernerkogel","ele":"3299","wikipedia":"de:Lüsener Fernerkogel","wikidata":"Q871870","natural":"peak","osm":"node/1082588913"},"geometry":{"type":"Point","coordinates":[11.11493,47.09669]}},{"type":"Feature","properties":{"name":"Lüsener Spitze","ele":"3230","wikipedia":"en:Lisenser Spitze","wikidata":"Q6558768","natural":"peak","osm":"node/1082588970"},"geometry":{"type":"Point","coordinates":[11.11086,47.0884]}},{"type":"Feature","properties":{"name":"Lüsener Villerspitze","ele":"3027","wikipedia":"de:Lüsener Villerspitze","wikidata":"Q15833190","natural":"peak","osm":"node/2394362049"},"geometry":{"type":"Point","coordinates":[11.1598,47.11543]}},{"type":"Feature","properties":{"name":"Maderegg","ele":"1954","natural":"peak","osm":"node/524403674"},"geometry":{"type":"Point","coordinates":[11.28547,47.34318]}},{"type":"Feature","properties":{"name":"Maderkarlspitze","ele":"2174","natural":"peak","osm":"node/524403669"},"geometry":{"type":"Point","coordinates":[11.28316,47.33694]}},{"type":"Feature","properties":{"name":"Mahdebene","ele":"2395","summit:cross":"yes","natural":"peak","osm":"node/6918884445"},"geometry":{"type":"Point","coordinates":[10.98658,47.12113]}},{"type":"Feature","properties":{"name":"Malgrubenspitze","ele":"2571","wikipedia":"de:Malgrubenspitze","summit:cross":"yes","wikidata":"Q15057641","natural":"peak","osm":"node/759194574"},"geometry":{"type":"Point","coordinates":[11.29631,47.17184]}},{"type":"Feature","properties":{"name":"Malgrübler","ele":"2749","wikipedia":"de:Malgrübler","summit:cross":"yes","wikidata":"Q1488326","natural":"peak","osm":"node/2825971108"},"geometry":{"type":"Point","coordinates":[11.5884,47.20065]}},{"type":"Feature","properties":{"name":"Mandlspitze","ele":"2366","summit:cross":"yes","wikidata":"Q116603562","natural":"peak","osm":"node/524663446"},"geometry":{"type":"Point","coordinates":[11.40713,47.31966]}},{"type":"Feature","properties":{"name":"Maningkogel","ele":"2894","natural":"peak","osm":"node/3523407183"},"geometry":{"type":"Point","coordinates":[10.95978,47.19137]}},{"type":"Feature","properties":{"name":"Marchreisenspitze","ele":"2620","wikipedia":"de:Marchreisenspitze","summit:cross":"yes","wikidata":"Q1514704","natural":"peak","osm":"node/794108223"},"geometry":{"type":"Point","coordinates":[11.30854,47.17286]}},{"type":"Feature","properties":{"name":"Marchsäule","ele":"2598","natural":"peak","osm":"node/863851447"},"geometry":{"type":"Point","coordinates":[11.24004,47.13628]}},{"type":"Feature","properties":{"name":"Metzen","ele":"2583","wikidata":"Q21878338","natural":"peak","osm":"node/3089113637"},"geometry":{"type":"Point","coordinates":[11.0861,47.22608]}},{"type":"Feature","properties":{"name":"Metzgerstein","ele":"2781","natural":"peak","osm":"node/9483454680"},"geometry":{"type":"Point","coordinates":[11.05874,47.1471]}},{"type":"Feature","properties":{"name":"Mislkopf","ele":"2623","summit:cross":"yes","wikidata":"Q21866052","natural":"peak","osm":"node/1650631426"},"geometry":{"type":"Point","coordinates":[11.51851,47.15672]}},{"type":"Feature","properties":{"name":"Mittergratspitze","ele":"2746","natural":"peak","osm":"node/11980600222"},"geometry":{"type":"Point","coordinates":[11.2303,47.08773]}},{"type":"Feature","properties":{"name":"Mitterkogel","ele":"2581","natural":"peak","osm":"node/758871003"},"geometry":{"type":"Point","coordinates":[11.14203,47.22349]}},{"type":"Feature","properties":{"name":"Mitterzeigerkogel","ele":"2628","summit:cross":"yes","natural":"peak","osm":"node/1078436649"},"geometry":{"type":"Point","coordinates":[11.03566,47.2419]}},{"type":"Feature","properties":{"name":"Mittlere Jägerkarspitze","ele":"2608","wikipedia":"de:Jägerkarspitzen","wikidata":"Q1714868","natural":"peak","osm":"node/524778994"},"geometry":{"type":"Point","coordinates":[11.37538,47.35371]}},{"type":"Feature","properties":{"name":"Mittlere Kaminspitze","ele":"2435","natural":"peak","osm":"node/524463183"},"geometry":{"type":"Point","coordinates":[11.3724,47.31232]}},{"type":"Feature","properties":{"name":"Mittlerer Gschnierkopf","ele":"1929","natural":"peak","osm":"node/2329389981"},"geometry":{"type":"Point","coordinates":[11.44686,47.35264]}},{"type":"Feature","properties":{"name":"Morgenkogel","ele":"2607","summit:cross":"yes","natural":"peak","osm":"node/1650631556"},"geometry":{"type":"Point","coordinates":[11.50842,47.18742]}},{"type":"Feature","properties":{"name":"Morgenköpfl","ele":"2216","summit:cross":"yes","natural":"peak","osm":"node/3831376106"},"geometry":{"type":"Point","coordinates":[11.48103,47.1829]}},{"type":"Feature","properties":{"name":"Mugkogel","ele":"2693","wikipedia":"de:Mugkogel","wikidata":"Q29441802","natural":"peak","osm":"node/1079006391"},"geometry":{"type":"Point","coordinates":[11.03796,47.2301]}},{"type":"Feature","properties":{"name":"Mutenkogel","ele":"2420","wikidata":"Q21878386","natural":"peak","osm":"node/2388864095"},"geometry":{"type":"Point","coordinates":[11.08412,47.19659]}},{"type":"Feature","properties":{"name":"Mölser Sonnenspitze","ele":"2489","summit:cross":"yes","natural":"peak","osm":"node/2824174705"},"geometry":{"type":"Point","coordinates":[11.61021,47.16696]}},{"type":"Feature","properties":{"name":"Möslkopf","ele":"1170","natural":"peak","osm":"node/7555828394"},"geometry":{"type":"Point","coordinates":[11.2655,47.27667]}},{"type":"Feature","properties":{"name":"Münsterhöhe","ele":"2473","natural":"peak","osm":"node/5911559200"},"geometry":{"type":"Point","coordinates":[11.0958,47.11127]}},{"type":"Feature","properties":{"name":"Narrenkogel","ele":"2309","summit:cross":"yes","wikidata":"Q21866208","natural":"peak","osm":"node/1391341299"},"geometry":{"type":"Point","coordinates":[10.95832,47.13856]}},{"type":"Feature","properties":{"name":"Narrenkopf","ele":"2450","natural":"peak","osm":"node/413592492"},"geometry":{"type":"Point","coordinates":[11.06958,47.26018]}},{"type":"Feature","properties":{"name":"Naviser Sonnenspitze","ele":"2620","summit:cross":"yes","wikidata":"Q21865813","natural":"peak","osm":"node/1645475764"},"geometry":{"type":"Point","coordinates":[11.57439,47.17155]}},{"type":"Feature","properties":{"name":"Nederjoch","ele":"2142","summit:cross":"yes","wikidata":"Q21866225","natural":"peak","osm":"node/2315903419"},"geometry":{"type":"Point","coordinates":[11.33713,47.18305]}},{"type":"Feature","properties":{"name":"Nederkogel","ele":"2755","wikipedia":"sv:Neederkogl","wikidata":"Q21866227","natural":"peak","osm":"node/2992573110"},"geometry":{"type":"Point","coordinates":[11.00581,47.12811]}},{"type":"Feature","properties":{"name":"Neunerkogel","ele":"2640","wikidata":"Q4899751","natural":"peak","osm":"node/433722062"},"geometry":{"type":"Point","coordinates":[11.03294,47.20034]}},{"type":"Feature","properties":{"name":"Neunerspitze","ele":"2285","summit:cross":"yes","natural":"peak","osm":"node/2856336765"},"geometry":{"type":"Point","coordinates":[11.50283,47.21687]}},{"type":"Feature","properties":{"name":"Niederbrandjoch","ele":"2205","natural":"peak","osm":"node/6016087916"},"geometry":{"type":"Point","coordinates":[11.39942,47.32937]}},{"type":"Feature","properties":{"name":"Niederer Burgstall","ele":"2436","wikipedia":"de:Niederer Burgstall (Kalkkögel)","summit:cross":"yes","wikidata":"Q15122845","natural":"peak","man_made":"cross","osm":"node/456359392"},"geometry":{"type":"Point","coordinates":[11.28832,47.13535]}},{"type":"Feature","properties":{"name":"Niederer Plattkogel","ele":"2739","natural":"peak","osm":"node/3713739100"},"geometry":{"type":"Point","coordinates":[10.98837,47.1728]}},{"type":"Feature","properties":{"name":"Nördliche Jägerkarspitze","ele":"2596","wikipedia":"de:Jägerkarspitzen","wikidata":"Q1714868","natural":"peak","osm":"node/524778996"},"geometry":{"type":"Point","coordinates":[11.37566,47.355]}},{"type":"Feature","properties":{"name":"Nördliche Larstigknotenspitze","ele":"3081","natural":"peak","osm":"node/9392125417"},"geometry":{"type":"Point","coordinates":[11.03158,47.12405]}},{"type":"Feature","properties":{"name":"Nördliche Steintalspitze","ele":"2743","summit:cross":"no","natural":"peak","osm":"node/1567673525"},"geometry":{"type":"Point","coordinates":[11.03842,47.19431]}},{"type":"Feature","properties":{"name":"Nördlicher Klammerschober","ele":"2448","summit:cross":"yes","natural":"peak","osm":"node/1645475766"},"geometry":{"type":"Point","coordinates":[11.59748,47.16333]}},{"type":"Feature","properties":{"name":"Nördliches Gleierschtaler Brandjoch","ele":"2372","wikipedia":"de:Gleirschtaler Brandjoch","wikidata":"Q972538","natural":"peak","osm":"node/524663458"},"geometry":{"type":"Point","coordinates":[11.41016,47.32615]}},{"type":"Feature","properties":{"name":"Ober der Mauer","ele":"2520","natural":"peak","osm":"node/2824177101"},"geometry":{"type":"Point","coordinates":[11.37426,47.10677]}},{"type":"Feature","properties":{"name":"Oberalpl","ele":"2613","natural":"peak","osm":"node/413592413"},"geometry":{"type":"Point","coordinates":[11.05303,47.25094]}},{"type":"Feature","properties":{"name":"Oberer Sagkopf","ele":"2154","natural":"peak","osm":"node/524778989"},"geometry":{"type":"Point","coordinates":[11.34976,47.35451]}},{"type":"Feature","properties":{"name":"Oberstkogel","ele":"2767","summit:cross":"separate","natural":"peak","osm":"node/2388864096"},"geometry":{"type":"Point","coordinates":[11.11207,47.13311]}},{"type":"Feature","properties":{"name":"Pafnitzberg","ele":"1380","natural":"peak","osm":"node/413595204"},"geometry":{"type":"Point","coordinates":[11.26316,47.21916]}},{"type":"Feature","properties":{"name":"Patscherkofel","ele":"2246","wikipedia":"de:Patscherkofel","summit:cross":"yes","wikidata":"Q695264","natural":"peak","osm":"node/256042002"},"geometry":{"type":"Point","coordinates":[11.46061,47.20883]}},{"type":"Feature","properties":{"name":"Peider Spitze","ele":"2808","summit:cross":"yes","wikidata":"Q21864769","natural":"peak","osm":"node/758859313"},"geometry":{"type":"Point","coordinates":[11.12144,47.21982]}},{"type":"Feature","properties":{"name":"Peilspitze","ele":"2392","summit:cross":"yes","wikidata":"Q21878590","natural":"peak","osm":"node/2441281495"},"geometry":{"type":"Point","coordinates":[11.39059,47.10288]}},{"type":"Feature","properties":{"name":"Pfeiserspitze","ele":"2345","wikipedia":"de:Pfeiser Spitze","summit:cross":"yes","wikidata":"Q2083575","natural":"peak","osm":"node/1620258552"},"geometry":{"type":"Point","coordinates":[11.44518,47.32535]}},{"type":"Feature","properties":{"name":"Pfoner Kreuzjöchl","ele":"2638","summit:cross":"yes","natural":"peak","osm":"node/1650631434"},"geometry":{"type":"Point","coordinates":[11.52105,47.16111]}},{"type":"Feature","properties":{"name":"Pfriemeskopf","ele":"1870","natural":"peak","osm":"node/413598471"},"geometry":{"type":"Point","coordinates":[11.3269,47.20494]}},{"type":"Feature","properties":{"name":"Pfriemeswand","ele":"2100","summit:cross":"yes","wikidata":"Q21878380","natural":"peak","osm":"node/413598485"},"geometry":{"type":"Point","coordinates":[11.32778,47.20123]}},{"type":"Feature","properties":{"name":"Pirchkogel","ele":"2828","wikipedia":"de:Pirchkogel","wikidata":"Q1777474","natural":"peak","osm":"node/2924644847"},"geometry":{"type":"Point","coordinates":[10.99895,47.23201]}},{"type":"Feature","properties":{"name":"Plankogel","ele":"2347","natural":"peak","osm":"node/3713739101"},"geometry":{"type":"Point","coordinates":[10.95115,47.1583]}},{"type":"Feature","properties":{"name":"Pleisen","ele":"2250","summit:cross":"yes","natural":"peak","osm":"node/413595987"},"geometry":{"type":"Point","coordinates":[11.28078,47.1924]}},{"type":"Feature","properties":{"name":"Plenderlesseekopf","ele":"2590","wikidata":"Q2218063","natural":"peak","osm":"node/3523407184"},"geometry":{"type":"Point","coordinates":[11.04407,47.20573]}},{"type":"Feature","properties":{"name":"Pliderling","ele":"2515","natural":"peak","osm":"node/2824169203"},"geometry":{"type":"Point","coordinates":[11.55999,47.10285]}},{"type":"Feature","properties":{"name":"Plumesköpfl","ele":"860","natural":"peak","osm":"node/9791291731"},"geometry":{"type":"Point","coordinates":[11.3827,47.24598]}},{"type":"Feature","properties":{"name":"Pockkogel","ele":"2807","wikipedia":"de:Pockkogel","summit:cross":"yes","wikidata":"Q2100160","natural":"peak","osm":"node/2949401632"},"geometry":{"type":"Point","coordinates":[11.04259,47.19783]}},{"type":"Feature","properties":{"name":"Pollinger Kreuz","ele":"2196","summit:cross":"yes","image":"https://bergtourentipp-tirol.at/wp-content/uploads/2022/09/Pollinger-Kreuz-Flaurlinger-Joch_4.jpg","natural":"peak","osm":"node/6796515232"},"geometry":{"type":"Point","coordinates":[11.12942,47.25795]}},{"type":"Feature","properties":{"name":"Poschachkogel","ele":"2574","summit:cross":"yes","wikidata":"Q21878521","natural":"peak","osm":"node/3302170692"},"geometry":{"type":"Point","coordinates":[10.97437,47.14815]}},{"type":"Feature","properties":{"name":"Praxmarer Grießkogel","ele":"2712","wikidata":"Q21871207","natural":"peak","osm":"node/1079057037"},"geometry":{"type":"Point","coordinates":[11.11068,47.16893]}},{"type":"Feature","properties":{"name":"Predigtstuhl","ele":"2283","natural":"peak","osm":"node/4278385875"},"geometry":{"type":"Point","coordinates":[10.98719,47.2461]}},{"type":"Feature","properties":{"name":"Pyramidenspitze","ele":"2409","natural":"peak","osm":"node/7548467261"},"geometry":{"type":"Point","coordinates":[11.29087,47.16465]}},{"type":"Feature","properties":{"name":"Pürzlkopf","ele":"1678","natural":"peak","osm":"node/5928695278"},"geometry":{"type":"Point","coordinates":[11.33666,47.32892]}},{"type":"Feature","properties":{"name":"Raggenkopf","ele":"2281","natural":"peak","osm":"node/5928695281"},"geometry":{"type":"Point","coordinates":[11.36286,47.32113]}},{"type":"Feature","properties":{"name":"Rangger Köpfl","ele":"1939","wikipedia":"de:Rangger Köpfl","summit:cross":"yes","wikidata":"Q1671078","natural":"peak","osm":"node/292803997"},"geometry":{"type":"Point","coordinates":[11.18143,47.24265]}},{"type":"Feature","properties":{"name":"Rauenkopf","ele":"2011","summit:cross":"no","wikidata":"Q18166153","natural":"peak","osm":"node/2110915779"},"geometry":{"type":"Point","coordinates":[11.22817,47.30864]}},{"type":"Feature","properties":{"name":"Rauhenkopf","ele":"1912","wikipedia":"de:Hechenberg","wikidata":"Q1592886","natural":"peak","osm":"node/1612610971"},"geometry":{"type":"Point","coordinates":[11.30532,47.2793]}},{"type":"Feature","properties":{"name":"Rauher Kopf","ele":"1820","natural":"peak","osm":"node/413593798"},"geometry":{"type":"Point","coordinates":[11.21145,47.19047]}},{"type":"Feature","properties":{"name":"Rauher Kopf","ele":"2308","summit:cross":"yes","wikidata":"Q21878292","natural":"peak","osm":"node/758859277"},"geometry":{"type":"Point","coordinates":[11.13466,47.25021]}},{"type":"Feature","properties":{"name":"RauherKopf","ele":"2111","natural":"peak","osm":"node/413592304"},"geometry":{"type":"Point","coordinates":[11.05357,47.26309]}},{"type":"Feature","properties":{"name":"Reither Spitze","ele":"2374","wikipedia":"de:Reither Spitze","summit:cross":"yes","wikidata":"Q1000705","natural":"peak","osm":"node/453493782"},"geometry":{"type":"Point","coordinates":[11.23596,47.32315]}},{"type":"Feature","properties":{"name":"Reißenschuh","ele":"2470","natural":"peak","osm":"node/2824170201"},"geometry":{"type":"Point","coordinates":[11.55233,47.09408]}},{"type":"Feature","properties":{"name":"Richteregg","ele":"2560","natural":"peak","osm":"node/2825970818"},"geometry":{"type":"Point","coordinates":[11.59457,47.20577]}},{"type":"Feature","properties":{"name":"Riepenkopf","ele":"2422","natural":"peak","osm":"node/2825970212"},"geometry":{"type":"Point","coordinates":[11.61245,47.08536]}},{"type":"Feature","properties":{"name":"Riepenwand","ele":"2760","wikipedia":"de:Riepenwand","wikidata":"Q1740568","natural":"peak","osm":"node/413595390"},"geometry":{"type":"Point","coordinates":[11.27415,47.14906]}},{"type":"Feature","properties":{"name":"Rietzer Grießkogel","ele":"2884","wikipedia":"de:Rietzer Grießkogel","summit:cross":"yes","wikidata":"Q761945","natural":"peak","osm":"node/26864445"},"geometry":{"type":"Point","coordinates":[11.05896,47.24583]}},{"type":"Feature","properties":{"name":"Rinnenspitze","ele":"3000","wikipedia":"de:Rinnenspitze","summit:cross":"yes","wikidata":"Q15059383","natural":"peak","osm":"node/448277112"},"geometry":{"type":"Point","coordinates":[11.1412,47.08572]}},{"type":"Feature","properties":{"name":"Rinner Bichl","ele":"963","natural":"peak","osm":"node/324314784"},"geometry":{"type":"Point","coordinates":[11.49428,47.25077]}},{"type":"Feature","properties":{"name":"Rosenjoch","ele":"2796","wikipedia":"de:Rosenjoch","summit:cross":"yes","wikidata":"Q9322787","natural":"peak","osm":"node/1650631542"},"geometry":{"type":"Point","coordinates":[11.54316,47.1802]}},{"type":"Feature","properties":{"name":"Rote Wand","ele":"2524","natural":"peak","osm":"node/2824177102"},"geometry":{"type":"Point","coordinates":[11.37361,47.11758]}},{"type":"Feature","properties":{"name":"Roter Kogel","ele":"2827","natural":"peak","osm":"node/3523407185"},"geometry":{"type":"Point","coordinates":[10.97573,47.18509]}},{"type":"Feature","properties":{"name":"Roter Kogel","ele":"2832","wikipedia":"de:Roter Kogel","wikidata":"Q874355","natural":"peak","osm":"node/4455547105"},"geometry":{"type":"Point","coordinates":[11.16918,47.13789]}},{"type":"Feature","properties":{"name":"Roter Kopf","ele":"2526","natural":"peak","osm":"node/2824177002"},"geometry":{"type":"Point","coordinates":[11.35855,47.09399]}},{"type":"Feature","properties":{"name":"Rotgratspitze","ele":"3273","wikipedia":"en:Rotgratspitze","wikidata":"Q16897080","natural":"peak","osm":"node/8588824907"},"geometry":{"type":"Point","coordinates":[11.11384,47.09379]}},{"type":"Feature","properties":{"name":"Rotgrubenspitze","ele":"3042","natural":"peak","osm":"node/1589972010"},"geometry":{"type":"Point","coordinates":[11.06006,47.16834]}},{"type":"Feature","properties":{"name":"Rotjoch","ele":"2372","natural":"peak","osm":"node/333510421"},"geometry":{"type":"Point","coordinates":[11.06641,47.20826]}},{"type":"Feature","properties":{"name":"Rotkogel","ele":"2745","natural":"peak","osm":"node/3523407186"},"geometry":{"type":"Point","coordinates":[11.07471,47.18825]}},{"type":"Feature","properties":{"name":"Roßkogel","ele":"2647","wikipedia":"de:Roßkogel (Stubaier Alpen)","summit:cross":"separate","wikidata":"Q15126441","natural":"peak","osm":"node/4279014302"},"geometry":{"type":"Point","coordinates":[11.15263,47.223]}},{"type":"Feature","properties":{"name":"Roßkopf","ele":"2646","wikipedia":"de:Rosskopf (Halltal)","wikidata":"Q1739182","natural":"peak","osm":"node/524813677"},"geometry":{"type":"Point","coordinates":[11.44189,47.33954]}},{"type":"Feature","properties":{"name":"Roßkopf","ele":"2382","summit:cross":"no","natural":"peak","osm":"node/2825970217"},"geometry":{"type":"Point","coordinates":[11.58998,47.22458]}},{"type":"Feature","properties":{"name":"Rumer Nadel","ele":"1380","wikipedia":"de:Rumer Nadel","wikidata":"Q76460053","natural":"peak","osm":"node/6408673717"},"geometry":{"type":"Point","coordinates":[11.431,47.30663]}},{"type":"Feature","properties":{"name":"Rumer Spitze","ele":"2454","wikipedia":"de:Rumer Spitze","summit:cross":"yes","wikidata":"Q1390365","natural":"peak","osm":"node/2110894993"},"geometry":{"type":"Point","coordinates":[11.42606,47.32052]}},{"type":"Feature","properties":{"name":"Rädermacher","ele":"1499","summit:cross":"yes","natural":"peak","osm":"node/1256951990"},"geometry":{"type":"Point","coordinates":[11.5011,47.3163]}},{"type":"Feature","properties":{"name":"Räuhengrat","ele":"2814","natural":"peak","osm":"node/3523407187"},"geometry":{"type":"Point","coordinates":[11.07637,47.1855]}},{"type":"Feature","properties":{"name":"Saile (Nockspitze)","ele":"2404","wikipedia":"de:Saile (Berg)","summit:cross":"yes","wikidata":"Q2212240","natural":"peak","osm":"node/275552924"},"geometry":{"type":"Point","coordinates":[11.32472,47.19207]}},{"type":"Feature","properties":{"name":"Saile (Nockspitze) Vorgipfel","ele":"2379","summit:cross":"yes","natural":"peak","osm":"node/275552932"},"geometry":{"type":"Point","coordinates":[11.32605,47.19428]}},{"type":"Feature","properties":{"name":"Salfeins","ele":"2000","wikidata":"Q21865324","natural":"peak","osm":"node/748358812"},"geometry":{"type":"Point","coordinates":[11.24296,47.20198]}},{"type":"Feature","properties":{"name":"Samerschlag","ele":"2829","summit:cross":"yes","natural":"peak","osm":"node/2975522853"},"geometry":{"type":"Point","coordinates":[11.0629,47.14442]}},{"type":"Feature","properties":{"name":"Samstagkarspitze","ele":"2196","natural":"peak","osm":"node/524403672"},"geometry":{"type":"Point","coordinates":[11.28523,47.33331]}},{"type":"Feature","properties":{"name":"Sassberg","ele":"856","natural":"peak","osm":"node/413590845"},"geometry":{"type":"Point","coordinates":[10.97555,47.2879]}},{"type":"Feature","properties":{"name":"Sattelschröfen","ele":"2890","description":"Gipfel","natural":"peak","osm":"node/4284491096"},"geometry":{"type":"Point","coordinates":[11.09555,47.14246]}},{"type":"Feature","properties":{"name":"Schafgrübler","ele":"2922","wikipedia":"de:Schafgrübler","wikidata":"Q15059756","natural":"peak","osm":"node/533915968"},"geometry":{"type":"Point","coordinates":[11.16029,47.10124]}},{"type":"Feature","properties":{"name":"Schafkogel","ele":"2560","natural":"peak","osm":"node/413594037"},"geometry":{"type":"Point","coordinates":[11.23143,47.14459]}},{"type":"Feature","properties":{"name":"Schaflegerkogel","ele":"2400","wikidata":"Q21878491","natural":"peak","osm":"node/413594805"},"geometry":{"type":"Point","coordinates":[11.23698,47.1549]}},{"type":"Feature","properties":{"name":"Schafmarebenkogel","ele":"2651","summit:cross":"yes","natural":"peak","osm":"node/2150615853"},"geometry":{"type":"Point","coordinates":[11.0797,47.25536]}},{"type":"Feature","properties":{"name":"Schafseitenspitze","ele":"2602","wikidata":"Q21865407","natural":"peak","osm":"node/623983265"},"geometry":{"type":"Point","coordinates":[11.55404,47.10286]}},{"type":"Feature","properties":{"name":"Schafseitenspitze Vorgipfel","ele":"2573","summit:cross":"yes","natural":"peak","osm":"node/8487349859"},"geometry":{"type":"Point","coordinates":[11.55252,47.10461]}},{"type":"Feature","properties":{"name":"Schafzöllen","ele":"2399","wikidata":"Q2933408","natural":"peak","osm":"node/1737279558"},"geometry":{"type":"Point","coordinates":[10.97439,47.21455]}},{"type":"Feature","properties":{"name":"Schaldersspitze","ele":"2784","natural":"peak","osm":"node/5895175364"},"geometry":{"type":"Point","coordinates":[11.18345,47.10917]}},{"type":"Feature","properties":{"name":"Schartenkogel","ele":"2311","wikidata":"Q21878347","natural":"peak","osm":"node/2095997133"},"geometry":{"type":"Point","coordinates":[11.53648,47.21931]}},{"type":"Feature","properties":{"name":"Schartenkogel","ele":"2602","natural":"peak","osm":"node/3089113638"},"geometry":{"type":"Point","coordinates":[11.07017,47.23316]}},{"type":"Feature","properties":{"name":"Schartenkopf","ele":"2855","wikidata":"Q21878423","natural":"peak","osm":"node/1567673521"},"geometry":{"type":"Point","coordinates":[11.02986,47.17909]}},{"type":"Feature","properties":{"name":"Scheibenspitze","ele":"2489","summit:cross":"yes","natural":"peak","osm":"node/623983267"},"geometry":{"type":"Point","coordinates":[11.57162,47.10539]}},{"type":"Feature","properties":{"name":"Schispitzl","ele":"2449","natural":"peak","osm":"node/12355571367"},"geometry":{"type":"Point","coordinates":[11.61098,47.16955]}},{"type":"Feature","properties":{"name":"Schlagkopf","ele":"1518","natural":"peak","osm":"node/9021112111"},"geometry":{"type":"Point","coordinates":[11.24294,47.35934]}},{"type":"Feature","properties":{"name":"Schlicker Seespitze","ele":"2808","wikipedia":"de:Schlicker Seespitze","wikidata":"Q2239643","natural":"peak","osm":"node/413595386"},"geometry":{"type":"Point","coordinates":[11.27297,47.14529]}},{"type":"Feature","properties":{"name":"Schlicker Zinnen","ele":"2600","wikipedia":"de:Steingrubenwand und Schlicker Zinnen","wikidata":"Q15849073","natural":"peak","osm":"node/413595640"},"geometry":{"type":"Point","coordinates":[11.28561,47.16816]}},{"type":"Feature","properties":{"name":"Schneiderspitze","ele":"2160","wikipedia":"de:Schneiderspitze (Kalkkögel)","summit:cross":"yes","wikidata":"Q1734403","natural":"peak","osm":"node/413596567"},"geometry":{"type":"Point","coordinates":[11.30829,47.18521]}},{"type":"Feature","properties":{"name":"Schröflkogl","ele":"2150","summit:cross":"no","natural":"peak","osm":"node/1645109116"},"geometry":{"type":"Point","coordinates":[11.50777,47.10231]}},{"type":"Feature","properties":{"name":"Schwarze Wand","ele":"2780","natural":"peak","osm":"node/413594450"},"geometry":{"type":"Point","coordinates":[11.22722,47.13842]}},{"type":"Feature","properties":{"name":"Schwarzhorn","ele":"2812","wikipedia":"de:Schwarzhorn (Stubaier Alpen)","wikidata":"Q23452818","natural":"peak","osm":"node/472605967"},"geometry":{"type":"Point","coordinates":[11.22723,47.13581]}},{"type":"Feature","properties":{"name":"Schöllekogel","ele":"2902","summit:cross":"no","natural":"peak","osm":"node/3523407188"},"geometry":{"type":"Point","coordinates":[11.04454,47.18435]}},{"type":"Feature","properties":{"name":"Schönjöchle","ele":"2709","natural":"peak","osm":"node/5825245084"},"geometry":{"type":"Point","coordinates":[10.97288,47.15316]}},{"type":"Feature","properties":{"name":"Schönlahnerspitze","ele":"2424","natural":"peak","osm":"node/2825970220"},"geometry":{"type":"Point","coordinates":[11.61871,47.08373]}},{"type":"Feature","properties":{"name":"Schöntalspitze","ele":"3002","wikipedia":"de:Schöntalspitze","summit:cross":"yes","wikidata":"Q2259490","natural":"peak","osm":"node/256042771"},"geometry":{"type":"Point","coordinates":[11.0945,47.1222]}},{"type":"Feature","properties":{"name":"Seblaskreuz","ele":"2353","natural":"peak","osm":"node/1800967983"},"geometry":{"type":"Point","coordinates":[11.24498,47.10121]}},{"type":"Feature","properties":{"name":"Seblasspitze","ele":"2502","natural":"peak","osm":"node/9613293858"},"geometry":{"type":"Point","coordinates":[11.23822,47.0998]}},{"type":"Feature","properties":{"name":"Seeblesspitze","ele":"2628","summit:cross":"yes","natural":"peak","osm":"node/1650631447"},"geometry":{"type":"Point","coordinates":[11.53097,47.16593]}},{"type":"Feature","properties":{"name":"Seefelder Spitze","ele":"2221","summit:cross":"yes","wikidata":"Q18166350","natural":"peak","osm":"node/661149695"},"geometry":{"type":"Point","coordinates":[11.23755,47.33279]}},{"type":"Feature","properties":{"name":"Seegrubenspitze","ele":"2350","summit:cross":"yes","natural":"peak","osm":"node/524599029"},"geometry":{"type":"Point","coordinates":[11.37927,47.31217]}},{"type":"Feature","properties":{"name":"Seejoch","ele":"2808","wikidata":"Q21865709","natural":"peak","osm":"node/5721093727"},"geometry":{"type":"Point","coordinates":[11.10259,47.22469]}},{"type":"Feature","properties":{"name":"Seekarspitze","ele":"2646","summit:cross":"no","natural":"peak","osm":"node/2824174708"},"geometry":{"type":"Point","coordinates":[11.58233,47.18302]}},{"type":"Feature","properties":{"name":"Serles","ele":"2717","wikipedia":"de:Serles","summit:cross":"yes","wikimedia_commons":"Category:Serles","wikidata":"Q357751","natural":"peak","osm":"node/256042801"},"geometry":{"type":"Point","coordinates":[11.38135,47.12396]}},{"type":"Feature","properties":{"name":"Signalkopf","ele":"2478","natural":"peak","osm":"node/2329390008"},"geometry":{"type":"Point","coordinates":[11.50117,47.34714]}},{"type":"Feature","properties":{"name":"Signalkopf","ele":"2265","natural":"peak","osm":"node/2825970824"},"geometry":{"type":"Point","coordinates":[11.49653,47.19548]}},{"type":"Feature","properties":{"name":"Sinderkogel","ele":"2483","natural":"peak","osm":"node/2926149435"},"geometry":{"type":"Point","coordinates":[10.95924,47.15613]}},{"type":"Feature","properties":{"name":"Sonnenbichel","ele":"650","natural":"peak","osm":"node/4794223520"},"geometry":{"type":"Point","coordinates":[11.47803,47.26943]}},{"type":"Feature","properties":{"name":"Sonnenspitze","ele":"2639","summit:cross":"yes","natural":"peak","osm":"node/2131082823"},"geometry":{"type":"Point","coordinates":[11.52383,47.21023]}},{"type":"Feature","properties":{"name":"Sonnenstein","ele":"2441","wikipedia":"de:Sonnenstein (Serles)","summit:cross":"yes","wikidata":"Q7561951","natural":"peak","osm":"node/1650238587"},"geometry":{"type":"Point","coordinates":[11.37681,47.13065]}},{"type":"Feature","properties":{"name":"Sonnkarköpfl","ele":"2262","summit:cross":"yes","natural":"peak","osm":"node/4385082112"},"geometry":{"type":"Point","coordinates":[11.08447,47.26454]}},{"type":"Feature","properties":{"name":"Sonntagkarspitze","ele":"2575","wikipedia":"de:Sonntagkarspitze","wikidata":"Q2302158","natural":"peak","osm":"node/524798216"},"geometry":{"type":"Point","coordinates":[11.42742,47.34635]}},{"type":"Feature","properties":{"name":"Sonntagsköpfl","ele":"2100","wikidata":"Q21878458","natural":"peak","osm":"node/413595300"},"geometry":{"type":"Point","coordinates":[11.2631,47.16666]}},{"type":"Feature","properties":{"name":"Speckkarspitze","ele":"2621","wikipedia":"de:Speckkarspitze","wikidata":"Q390571","natural":"peak","osm":"node/4370197144"},"geometry":{"type":"Point","coordinates":[11.48738,47.34626]}},{"type":"Feature","properties":{"name":"Spitzmandl","ele":"2206","summit:cross":"yes","wikidata":"Q21878385","natural":"peak","osm":"node/275552963"},"geometry":{"type":"Point","coordinates":[11.33338,47.19677]}},{"type":"Feature","properties":{"name":"Stadligerberg","ele":"1120","natural":"peak","osm":"node/413591033"},"geometry":{"type":"Point","coordinates":[10.96077,47.26182]}},{"type":"Feature","properties":{"name":"Steingrubenkogel","ele":"2633","wikipedia":"de:Steingrubenkogel (Kalkkögel)","summit:cross":"yes","wikidata":"Q2340740","natural":"peak","osm":"node/1964860744"},"geometry":{"type":"Point","coordinates":[11.28211,47.16347]}},{"type":"Feature","properties":{"name":"Steingrubenwand","ele":"2550","natural":"peak","osm":"node/7548694694"},"geometry":{"type":"Point","coordinates":[11.28496,47.16629]}},{"type":"Feature","properties":{"name":"Steinkogel","ele":"2580","natural":"peak","osm":"node/413595335"},"geometry":{"type":"Point","coordinates":[11.25919,47.13938]}},{"type":"Feature","properties":{"name":"Strahlkogel","ele":"3288","wikipedia":"de:Strahlkogel","wikidata":"Q577249","natural":"peak","osm":"node/256042813"},"geometry":{"type":"Point","coordinates":[11.01952,47.10903]}},{"type":"Feature","properties":{"name":"Sulzkogel","ele":"3016","wikipedia":"de:Sulzkogel","wikidata":"Q538757","natural":"peak","osm":"node/1632744974"},"geometry":{"type":"Point","coordinates":[11.01143,47.18242]}},{"type":"Feature","properties":{"name":"Sumpfkopf","ele":"2341","wikidata":"Q21863396","natural":"peak","osm":"node/1109178448"},"geometry":{"type":"Point","coordinates":[11.53678,47.08654]}},{"type":"Feature","properties":{"name":"Sunnschartspitze","ele":"1982","natural":"peak","osm":"node/526813231"},"geometry":{"type":"Point","coordinates":[11.61078,47.3564]}},{"type":"Feature","properties":{"name":"Sunntiger","ele":"2400","summit:cross":"no","natural":"peak","osm":"node/623983264"},"geometry":{"type":"Point","coordinates":[11.53734,47.10545]}},{"type":"Feature","properties":{"name":"Sunntiger","ele":"2667","summit:cross":"yes","natural":"peak","osm":"node/1645475761"},"geometry":{"type":"Point","coordinates":[11.58242,47.19399]}},{"type":"Feature","properties":{"name":"Sunntiger","ele":"2030","natural":"peak","osm":"node/12828526462"},"geometry":{"type":"Point","coordinates":[11.26587,47.17064]}},{"type":"Feature","properties":{"name":"Sunntigköpfl","ele":"1765","wikidata":"Q21878154","natural":"peak","osm":"node/1623822474"},"geometry":{"type":"Point","coordinates":[11.2584,47.32963]}},{"type":"Feature","properties":{"name":"Sunntigköpfl","ele":"1749","natural":"peak","osm":"node/7716376478"},"geometry":{"type":"Point","coordinates":[11.28175,47.3475]}},{"type":"Feature","properties":{"name":"Sömen","ele":"2516","natural":"peak","osm":"node/1105210453"},"geometry":{"type":"Point","coordinates":[11.11225,47.17677]}},{"type":"Feature","properties":{"name":"Sömenspitze","ele":"2682","natural":"peak","osm":"node/9392125419"},"geometry":{"type":"Point","coordinates":[11.02012,47.14623]}},{"type":"Feature","properties":{"name":"Südliche Jägerkarspitze","ele":"2579","wikipedia":"de:Jägerkarspitzen","wikidata":"Q1714868","natural":"peak","osm":"node/524778995"},"geometry":{"type":"Point","coordinates":[11.37616,47.35229]}},{"type":"Feature","properties":{"name":"Südliche Lämpermahdspitze","ele":"2567","description":"Gipfelbuch, Madonna (2011 errichtet); kein Gipfelkreuz","natural":"peak","osm":"node/4931826495"},"geometry":{"type":"Point","coordinates":[11.37563,47.10937]}},{"type":"Feature","properties":{"name":"Südliche Sonnenwand","ele":"3091","natural":"peak","osm":"node/9483454678"},"geometry":{"type":"Point","coordinates":[11.06444,47.11894]}},{"type":"Feature","properties":{"name":"Südliche Steintalspitze","ele":"2741","summit:cross":"no","natural":"peak","osm":"node/5839834910"},"geometry":{"type":"Point","coordinates":[11.03949,47.19193]}},{"type":"Feature","properties":{"name":"Südlicher Klammerschober","ele":"2377","natural":"peak","osm":"node/1645475767"},"geometry":{"type":"Point","coordinates":[11.59841,47.16054]}},{"type":"Feature","properties":{"name":"Südlicher Schloßkopf","ele":"2725","natural":"peak","osm":"node/5928695261"},"geometry":{"type":"Point","coordinates":[11.12648,47.22591]}},{"type":"Feature","properties":{"name":"Südliches Gleierschtaler Brandjoch","ele":"2374","wikipedia":"de:Gleirschtaler Brandjoch","wikidata":"Q972538","natural":"peak","osm":"node/524663460"},"geometry":{"type":"Point","coordinates":[11.41046,47.32449]}},{"type":"Feature","properties":{"name":"Südturm","ele":"2580","description":"Schlicker Türme","natural":"peak","osm":"node/7548700080"},"geometry":{"type":"Point","coordinates":[11.28357,47.16505]}},{"type":"Feature","properties":{"name":"Tajenegg","ele":"2262","natural":"peak","osm":"node/4278386403"},"geometry":{"type":"Point","coordinates":[11.00216,47.2447]}},{"type":"Feature","properties":{"name":"Thaurer Jochspitze","ele":"2309","natural":"peak","osm":"node/4560798598"},"geometry":{"type":"Point","coordinates":[11.4402,47.32274]}},{"type":"Feature","properties":{"name":"Thaurer Rosskopf","ele":"1574","summit:cross":"separate","natural":"peak","osm":"node/823439688"},"geometry":{"type":"Point","coordinates":[11.44678,47.31153]}},{"type":"Feature","properties":{"name":"Thaurer Zunterkopf","ele":"1918","wikipedia":"de:Thaurer Zunterkopf","summit:cross":"yes","wikidata":"Q2409261","natural":"peak","osm":"node/453575060"},"geometry":{"type":"Point","coordinates":[11.47251,47.31965]}},{"type":"Feature","properties":{"name":"Tratenspitze","ele":"2510","natural":"peak","osm":"node/6158793698"},"geometry":{"type":"Point","coordinates":[11.54117,47.34011]}},{"type":"Feature","properties":{"name":"Unterer Sagkopf","ele":"1652","natural":"peak","osm":"node/1149024626"},"geometry":{"type":"Point","coordinates":[11.3422,47.34651]}},{"type":"Feature","properties":{"name":"Viggarspitze","ele":"2306","summit:cross":"yes","wikidata":"Q21878354","natural":"peak","osm":"node/623962933"},"geometry":{"type":"Point","coordinates":[11.49886,47.21352]}},{"type":"Feature","properties":{"name":"Viller Kopf","ele":"921","natural":"peak","osm":"node/539777859"},"geometry":{"type":"Point","coordinates":[11.41535,47.24349]}},{"type":"Feature","properties":{"name":"Vordere Bachofenspitze","ele":"2663","natural":"peak","osm":"node/1620258649"},"geometry":{"type":"Point","coordinates":[11.44392,47.34591]}},{"type":"Feature","properties":{"name":"Vordere Brandjochspitze","ele":"2559","wikipedia":"de:Vordere Brandjochspitze","wikidata":"Q871994","natural":"peak","osm":"node/1620258770"},"geometry":{"type":"Point","coordinates":[11.34154,47.30224]}},{"type":"Feature","properties":{"name":"Vordere Grubenwand","ele":"3173","wikipedia":"de:Grubenwand","wikidata":"Q1550229","natural":"peak","osm":"node/256042870"},"geometry":{"type":"Point","coordinates":[11.08605,47.11918]}},{"type":"Feature","properties":{"name":"Vordere Karlesspitze","ele":"2574","wikidata":"Q2202420","natural":"peak","osm":"node/1737279560"},"geometry":{"type":"Point","coordinates":[10.97263,47.20744]}},{"type":"Feature","properties":{"name":"Vordere Sonnenwand","ele":"3156","natural":"peak","osm":"node/2992157804"},"geometry":{"type":"Point","coordinates":[11.0614,47.12959]}},{"type":"Feature","properties":{"name":"Vorderer Brunnenkogel","ele":"3304","wikidata":"Q21863768","natural":"peak","osm":"node/1580241385"},"geometry":{"type":"Point","coordinates":[11.10526,47.08337]}},{"type":"Feature","properties":{"name":"Vorderer Grieskogel","ele":"2671","wikidata":"Q2332087","natural":"peak","osm":"node/1079006407"},"geometry":{"type":"Point","coordinates":[11.00451,47.22612]}},{"type":"Feature","properties":{"name":"Vorderer Mittertalkopf","ele":"2528","natural":"peak","osm":"node/3523407189"},"geometry":{"type":"Point","coordinates":[10.98303,47.19246]}},{"type":"Feature","properties":{"name":"Vorderer Schönbichl","ele":"2397","natural":"peak","osm":"node/7574480214"},"geometry":{"type":"Point","coordinates":[11.51753,47.20804]}},{"type":"Feature","properties":{"name":"Walder Joch","ele":"1636","natural":"peak","osm":"node/525248748"},"geometry":{"type":"Point","coordinates":[11.59605,47.33872]}},{"type":"Feature","properties":{"name":"Walderkampspitze","ele":"2565","natural":"peak","osm":"node/525248741"},"geometry":{"type":"Point","coordinates":[11.53759,47.34009]}},{"type":"Feature","properties":{"name":"Waldraster Jöchl","ele":"1878","summit:cross":"yes","wikidata":"Q21878532","natural":"peak","man_made":"cross","osm":"node/1650264458"},"geometry":{"type":"Point","coordinates":[11.40672,47.13716]}},{"type":"Feature","properties":{"name":"Waldraster Spitze","ele":"2442","website":"http://www.waldrasterspitze.at/","summit:cross":"yes","natural":"peak","osm":"node/12247332761"},"geometry":{"type":"Point","coordinates":[11.38746,47.12612]}},{"type":"Feature","properties":{"name":"Wasenwand","ele":"2563","wikidata":"Q21863863","natural":"peak","osm":"node/1645837394"},"geometry":{"type":"Point","coordinates":[11.35746,47.08804]}},{"type":"Feature","properties":{"name":"Wasserberg","ele":"1796","natural":"peak","osm":"node/2353483924"},"geometry":{"type":"Point","coordinates":[11.46469,47.329]}},{"type":"Feature","properties":{"name":"Wattenspitze","ele":"2321","summit:cross":"no","natural":"peak","osm":"node/4581844327"},"geometry":{"type":"Point","coordinates":[11.59136,47.23224]}},{"type":"Feature","properties":{"name":"Wechnerkogel","ele":"2954","natural":"peak","osm":"node/3523407190"},"geometry":{"type":"Point","coordinates":[10.96083,47.18374]}},{"type":"Feature","properties":{"name":"Weitkarspitze","ele":"2947","natural":"peak","osm":"node/1567673527"},"geometry":{"type":"Point","coordinates":[11.04633,47.1755]}},{"type":"Feature","properties":{"name":"Weißes Wandl","ele":"1830","wikidata":"Q21878557","natural":"peak","osm":"node/1654376235"},"geometry":{"type":"Point","coordinates":[11.4204,47.11955]}},{"type":"Feature","properties":{"name":"Weißstein","ele":"2640","summit:cross":"yes","natural":"peak","osm":"node/290267206"},"geometry":{"type":"Point","coordinates":[11.14836,47.21983]}},{"type":"Feature","properties":{"name":"Wengenberg","ele":"1000","natural":"peak","osm":"node/413591120"},"geometry":{"type":"Point","coordinates":[10.97907,47.26603]}},{"type":"Feature","properties":{"name":"Wenten","ele":"2640","natural":"peak","osm":"node/413592964"},"geometry":{"type":"Point","coordinates":[11.18061,47.15686]}},{"type":"Feature","properties":{"name":"Westliche Kaminspitze","ele":"2445","natural":"peak","osm":"node/524463186"},"geometry":{"type":"Point","coordinates":[11.3695,47.31258]}},{"type":"Feature","properties":{"name":"Westliche Mitterspitz","ele":"2688","natural":"peak","osm":"node/1860865558"},"geometry":{"type":"Point","coordinates":[10.96809,47.35393]}},{"type":"Feature","properties":{"name":"Westliche Praxmarerkarspitze","ele":"2644","wikipedia":"de:Westliche Praxmarerkarspitze","summit:cross":"no","wikidata":"Q442776","natural":"peak","osm":"node/1620258657"},"geometry":{"type":"Point","coordinates":[11.40198,47.35086]}},{"type":"Feature","properties":{"name":"Westliche Sattelspitze","ele":"2339","natural":"peak","osm":"node/524453536"},"geometry":{"type":"Point","coordinates":[11.35151,47.3061]}},{"type":"Feature","properties":{"name":"Westlicher Seeblaskogel","ele":"3048","natural":"peak","osm":"node/2992157805"},"geometry":{"type":"Point","coordinates":[11.06288,47.09674]}},{"type":"Feature","properties":{"name":"Wetterkreuz","ele":"1920","summit:cross":"yes","natural":"peak","osm":"node/3711074217"},"geometry":{"type":"Point","coordinates":[11.01855,47.34994]}},{"type":"Feature","properties":{"name":"Wibmertürme","ele":"2163","natural":"peak","osm":"node/7716382637"},"geometry":{"type":"Point","coordinates":[11.25014,47.32057]}},{"type":"Feature","properties":{"name":"Widdersberg","ele":"2340","wikipedia":"de:Widdersberg (Kalkkögel)","summit:cross":"yes","wikidata":"Q994743","natural":"peak","osm":"node/413596372"},"geometry":{"type":"Point","coordinates":[11.2978,47.18028]}},{"type":"Feature","properties":{"name":"Widdersberg","ele":"2015","natural":"peak","osm":"node/1588712704"},"geometry":{"type":"Point","coordinates":[11.3611,47.32406]}},{"type":"Feature","properties":{"name":"Wildangerspitze","ele":"2153","natural":"peak","osm":"node/524663468"},"geometry":{"type":"Point","coordinates":[11.4591,47.32625]}},{"type":"Feature","properties":{"name":"Wildkopf","ele":"2719","wikidata":"Q21864015","natural":"peak","osm":"node/3811120692"},"geometry":{"type":"Point","coordinates":[11.19694,47.11571]}},{"type":"Feature","properties":{"name":"Windegg","ele":"2570","wikipedia":"de:Windegg (Stubaier Alpen)","summit:cross":"yes","wikidata":"Q22833451","natural":"peak","osm":"node/413593661"},"geometry":{"type":"Point","coordinates":[11.18151,47.17608]}},{"type":"Feature","properties":{"name":"Windegg","ele":"2801","natural":"peak","osm":"node/3523407191"},"geometry":{"type":"Point","coordinates":[11.04741,47.19758]}},{"type":"Feature","properties":{"name":"Windegger Bichl","ele":"1221","wikidata":"Q21868444","natural":"peak","osm":"node/10916576875"},"geometry":{"type":"Point","coordinates":[11.5565,47.26244]}},{"type":"Feature","properties":{"name":"Winnebacher Weißkogel","ele":"3182","wikipedia":"de:Winnebacher Weißkogel","wikidata":"Q2584685","natural":"peak","osm":"node/672703932"},"geometry":{"type":"Point","coordinates":[11.06241,47.11072]}},{"type":"Feature","properties":{"name":"Wolfsegg","ele":"1680","natural":"peak","osm":"node/1674079790"},"geometry":{"type":"Point","coordinates":[10.95391,47.12167]}},{"type":"Feature","properties":{"name":"Wörgegratspitze","ele":"2721","natural":"peak","osm":"node/1699491159"},"geometry":{"type":"Point","coordinates":[10.95796,47.19664]}},{"type":"Feature","properties":{"name":"Zindegg","ele":"2052","summit:cross":"yes","natural":"peak","osm":"node/2812913601"},"geometry":{"type":"Point","coordinates":[11.29685,47.08528]}},{"type":"Feature","properties":{"name":"Zirler Berg","ele":"1057","wikipedia":"de:Zirler Berg","wikidata":"Q205988","natural":"peak","osm":"node/758590454"},"geometry":{"type":"Point","coordinates":[11.2254,47.28529]}},{"type":"Feature","properties":{"name":"Zischgeles","ele":"3004","wikipedia":"de:Zischgeles","summit:cross":"yes","wikidata":"Q206030","natural":"peak","osm":"node/255973218"},"geometry":{"type":"Point","coordinates":[11.09501,47.13154]}},{"type":"Feature","properties":{"name":"Zischgenkopf","ele":"1930","summit:cross":"no","natural":"peak","osm":"node/1620258705"},"geometry":{"type":"Point","coordinates":[11.31122,47.33595]}},{"type":"Feature","properties":{"name":"Zwieselbacher Grieskogel","ele":"3055","natural":"peak","osm":"node/9483454679"},"geometry":{"type":"Point","coordinates":[11.05877,47.13704]}},{"type":"Feature","properties":{"name":"Zwieselbacher Rosskogel","ele":"3077","wikipedia":"de:Zwieselbacher Rosskogel","summit:cross":"yes","wikidata":"Q22661833","natural":"peak","osm":"node/333510560"},"geometry":{"type":"Point","coordinates":[11.04783,47.16349]}},{"type":"Feature","properties":{"name":"Zwieselbacher Rosskogel Südgipfel","ele":"3080","natural":"peak","osm":"node/13121181209"},"geometry":{"type":"Point","coordinates":[11.04765,47.16289]}},{"type":"Feature","properties":{"name":"Zwieselbacher Weißkogel","ele":"2959","summit:cross":"yes","natural":"peak","osm":"node/13734752806"},"geometry":{"type":"Point","coordinates":[11.04549,47.10513]}},{"type":"Feature","properties":{"name":"Zwölferkogel","ele":"2988","wikipedia":"de:Zwölferkogel (Stubaier Alpen)","wikidata":"Q2671697","natural":"peak","osm":"node/1567673531"},"geometry":{"type":"Point","coordinates":[11.01087,47.19017]}},{"type":"Feature","properties":{"name":"Zwölferköpfl","ele":"2253","natural":"peak","osm":"node/2991250453"},"geometry":{"type":"Point","coordinates":[10.9605,47.22031]}},{"type":"Feature","properties":{"name":"Zwölferspitze","ele":"2088","summit:cross":"yes","natural":"peak","osm":"node/4471613574"},"geometry":{"type":"Point","coordinates":[11.32285,47.19782]}},{"type":"Feature","properties":{"name":"Äußere Rigelkarspitze","ele":"2407","natural":"peak","osm":"node/524778993"},"geometry":{"type":"Point","coordinates":[11.36435,47.35767]}},{"type":"Feature","properties":{"name":"Östliche Griesspitze","ele":"2747","natural":"peak","osm":"node/1860835139"},"geometry":{"type":"Point","coordinates":[10.95513,47.35247]}},{"type":"Feature","properties":{"name":"Östliche Kaminspitze","ele":"2435","natural":"peak","osm":"node/524463190"},"geometry":{"type":"Point","coordinates":[11.37428,47.31227]}},{"type":"Feature","properties":{"name":"Östliche Mitterspitz","ele":"2701","natural":"peak","osm":"node/1860865563"},"geometry":{"type":"Point","coordinates":[10.97204,47.35412]}},{"type":"Feature","properties":{"name":"Östliche Praxmarerkarspitze","ele":"2638","wikipedia":"de:Östliche Praxmarerkarspitze","summit:cross":"yes","wikidata":"Q67083874","natural":"peak","osm":"node/1620258653"},"geometry":{"type":"Point","coordinates":[11.40362,47.35145]}},{"type":"Feature","properties":{"name":"Östliche Sattelspitze","ele":"2369","natural":"peak","osm":"node/524453541"},"geometry":{"type":"Point","coordinates":[11.35263,47.30776]}},{"type":"Feature","properties":{"name":"Östlicher Elferturm","ele":"2499","summit:cross":"yes","natural":"peak","osm":"node/256041684"},"geometry":{"type":"Point","coordinates":[11.31334,47.08457]}},{"type":"Feature","properties":{"name":"Östlicher Schoßkopf","ele":"2120","natural":"peak","osm":"node/8948111568"},"geometry":{"type":"Point","coordinates":[10.97,47.34531]}},{"type":"Feature","properties":{"name":"Überfallgründl","ele":"2302","natural":"peak","osm":"node/2824170012"},"geometry":{"type":"Point","coordinates":[11.49312,47.18493]}}]}