<?xml version="1.0" encoding="UTF-8"?>
<gpx version="1.1" creator="Bergampel Innsbruck (Demodaten)" xmlns="http://www.topografix.com/GPX/1/1">
	<trk>
		<name>Arzler Alm</name>
		<desc>Schematischer Verlauf fuer die Demodaten - KEINE Wegaufzeichnung und keine Routenempfehlung. Durch eine echte Aufzeichnung ersetzen.</desc>
		<trkseg>
			<trkpt lat="47.29530" lon="11.41970"><ele>700</ele></trkpt>
			<trkpt lat="47.29667" lon="11.42069"><ele>728</ele></trkpt>
			<trkpt lat="47.29801" lon="11.42176"><ele>756</ele></trkpt>
			<trkpt lat="47.29933" lon="11.42289"><ele>785</ele></trkpt>
			<trkpt lat="47.30064" lon="11.42405"><ele>813</ele></trkpt>
			<trkpt lat="47.30194" lon="11.42523"><ele>841</ele></trkpt>
			<trkpt lat="47.30324" lon="11.42640"><ele>869</ele></trkpt>
			<trkpt lat="47.30456" lon="11.42751"><ele>898</ele></trkpt>
			<trkpt lat="47.30592" lon="11.42855"><ele>926</ele></trkpt>
			<trkpt lat="47.30731" lon="11.42949"><ele>954</ele></trkpt>
			<trkpt lat="47.30874" lon="11.43032"><ele>982</ele></trkpt>
			<trkpt lat="47.31021" lon="11.43101"><ele>1011</ele></trkpt>
			<trkpt lat="47.31172" lon="11.43159"><ele>1039</ele></trkpt>
			<trkpt lat="47.31326" lon="11.43205"><ele>1067</ele></trkpt>
		</trkseg>
	</trk>
</gpx>
